{"type":"FeatureCollection","features":[{"type":"Feature","geometry":{"type":"Point","coordinates":[19.94761,50.05043]},"properties":{"nr":"1","siedziba":"VI Liceum Ogólnokształcące","ulica":"Wąska","nrBud":"7"}},{"type":"Feature","geometry":{"type":"Point","coordinates":[19.94467,50.05356]},"properties":{"nr":"2","siedziba":"Zespół Szkół Mechanicznych Nr 4","ulica":"Podbrzezie","nrBud":"10"}},{"type":"Feature","geometry":{"type":"Point","coordinates":[19.94722,50.05348]},"properties":{"nr":"3","siedziba":"Zespół Szkolno-Przedszkolny Nr 3","ulica":"Miodowa","nrBud":"36"}},{"type":"Feature","geometry":{"type":"Point","coordinates":[19.94189,50.04611]},"properties":{"nr":"4","siedziba":"Szkoła Podstawowa z Oddziałami Integracyjnymi Nr 22","ulica":"Adama Chmielowskiego","nrBud":"1"}},{"type":"Feature","geometry":{"type":"Point","coordinates":[19.93979,50.04786]},"properties":{"nr":"5","siedziba":"Samorządowe Przedszkole Nr 45","ulica":"Piekarska","nrBud":"14"}},{"type":"Feature","geometry":{"type":"Point","coordinates":[19.9363,50.05282]},"properties":{"nr":"6","siedziba":"XLIV Liceum Ogólnokształcące","ulica":"Bernardyńska","nrBud":"7"}},{"type":"Feature","geometry":{"type":"Point","coordinates":[19.94438,50.05584]},"properties":{"nr":"7","siedziba":"Zespół Szkół Ogólnokształcących Nr 2","ulica":"Józefa Dietla","nrBud":"70"}},{"type":"Feature","geometry":{"type":"Point","coordinates":[19.94553,50.05786]},"properties":{"nr":"8","siedziba":"Urząd Miasta Krakowa","ulica":"Wielopole","nrBud":"17A"}},{"type":"Feature","geometry":{"type":"Point","coordinates":[19.94343,50.06276]},"properties":{"nr":"9","siedziba":"Szkoła Podstawowa Nr 1","ulica":"św. Marka","nrBud":"34"}},{"type":"Feature","geometry":{"type":"Point","coordinates":[19.94343,50.06276]},"properties":{"nr":"10","siedziba":"Szkoła Podstawowa Nr 1","ulica":"św. Marka","nrBud":"34"}},{"type":"Feature","geometry":{"type":"Point","coordinates":[19.93341,50.05695]},"properties":{"nr":"11","siedziba":"I Liceum Ogólnokształcące","ulica":"Na Groblach","nrBud":"9"}},{"type":"Feature","geometry":{"type":"Point","coordinates":[19.93193,50.05933]},"properties":{"nr":"12","siedziba":"Szkoła Podstawowa Nr 4","ulica":"Smoleńsk","nrBud":"5-7"}},{"type":"Feature","geometry":{"type":"Point","coordinates":[19.9245,50.06149]},"properties":{"nr":"13","siedziba":"Zespół Szkół Mechanicznych Nr 1","ulica":"Adama Mickiewicza","nrBud":"5"}},{"type":"Feature","geometry":{"type":"Point","coordinates":[19.93071,50.06164]},"properties":{"nr":"14","siedziba":"Zespół Szkół Energetycznych","ulica":"Loretańska","nrBud":"16"}},{"type":"Feature","geometry":{"type":"Point","coordinates":[19.92929,50.06365]},"properties":{"nr":"15","siedziba":"Branżowa Szkoła I Stopnia Nr 30","ulica":"Józefa Szujskiego","nrBud":"2"}},{"type":"Feature","geometry":{"type":"Point","coordinates":[19.93486,50.06593]},"properties":{"nr":"16","siedziba":"Małopolskie Centrum Doskonalenia Nauczycieli Ośrodek w Krakowie","ulica":"Garbarska","nrBud":"1"}},{"type":"Feature","geometry":{"type":"Point","coordinates":[19.93124,50.0683]},"properties":{"nr":"17","siedziba":"II Liceum Ogólnokształcące","ulica":"Jana Sobieskiego","nrBud":"9"}},{"type":"Feature","geometry":{"type":"Point","coordinates":[19.93124,50.0683]},"properties":{"nr":"18","siedziba":"II Liceum Ogólnokształcące","ulica":"Jana Sobieskiego","nrBud":"9"}},{"type":"Feature","geometry":{"type":"Point","coordinates":[19.93771,50.06773]},"properties":{"nr":"19","siedziba":"Centrum Medyczne 4M","ulica":"Krowoderska","nrBud":"17"}},{"type":"Feature","geometry":{"type":"Point","coordinates":[19.93388,50.07271]},"properties":{"nr":"20","siedziba":"Samorządowe Przedszkole Nr 44","ulica":"Jerzego Żuławskiego","nrBud":"9"}},{"type":"Feature","geometry":{"type":"Point","coordinates":[19.93956,50.06947]},"properties":{"nr":"21","siedziba":"X Liceum Ogólnokształcące","ulica":"Zygmunta Wróblewskiego","nrBud":"8"}},{"type":"Feature","geometry":{"type":"Point","coordinates":[19.94153,50.06735]},"properties":{"nr":"22","siedziba":"XLI Liceum Ogólnokształcące","ulica":"Rynek Kleparski","nrBud":"18"}},{"type":"Feature","geometry":{"type":"Point","coordinates":[19.95519,50.08113]},"properties":{"nr":"23","siedziba":"Szkoła Podstawowa Nr 95","ulica":"Wileńska","nrBud":"9B"}},{"type":"Feature","geometry":{"type":"Point","coordinates":[19.96233,50.07358]},"properties":{"nr":"24","siedziba":"Zespół Szkół Ogólnokształcących Mistrzostwa Sportowego","ulica":"Grochowska","nrBud":"20"}},{"type":"Feature","geometry":{"type":"Point","coordinates":[19.96233,50.07358]},"properties":{"nr":"25","siedziba":"Zespół Szkół Ogólnokształcących Mistrzostwa Sportowego","ulica":"Grochowska","nrBud":"20"}},{"type":"Feature","geometry":{"type":"Point","coordinates":[19.95305,50.06693]},"properties":{"nr":"26","siedziba":"Szkoła Podstawowa z Oddziałami Integracyjnymi Nr 3","ulica":"Topolowa","nrBud":"22"}},{"type":"Feature","geometry":{"type":"Point","coordinates":[19.96779,50.06806]},"properties":{"nr":"27","siedziba":"Urząd Miasta Krakowa","ulica":"Jana Kasprowicza","nrBud":"29"}},{"type":"Feature","geometry":{"type":"Point","coordinates":[19.96561,50.07199]},"properties":{"nr":"28","siedziba":"XXIV Liceum Ogólnokształcące","ulica":"Wilhelma Wilka-Wyrwińskiego","nrBud":"1"}},{"type":"Feature","geometry":{"type":"Point","coordinates":[19.9656,50.06708]},"properties":{"nr":"29","siedziba":"Młodzieżowy Dom Kultury","ulica":"Grunwaldzka","nrBud":"5"}},{"type":"Feature","geometry":{"type":"Point","coordinates":[19.96545,50.06321]},"properties":{"nr":"30","siedziba":"Szkoła Podstawowa Nr 38","ulica":"płk. Francesco Nullo","nrBud":"23"}},{"type":"Feature","geometry":{"type":"Point","coordinates":[19.96545,50.06321]},"properties":{"nr":"31","siedziba":"Szkoła Podstawowa Nr 38","ulica":"płk. Francesco Nullo","nrBud":"23"}},{"type":"Feature","geometry":{"type":"Point","coordinates":[19.96396,50.0629]},"properties":{"nr":"32","siedziba":"XIII Liceum Ogólnokształcące","ulica":"Sądowa","nrBud":"4"}},{"type":"Feature","geometry":{"type":"Point","coordinates":[19.96396,50.0629]},"properties":{"nr":"33","siedziba":"XIII Liceum Ogólnokształcące","ulica":"Sądowa","nrBud":"4"}},{"type":"Feature","geometry":{"type":"Point","coordinates":[19.95543,50.05864]},"properties":{"nr":"34","siedziba":"VIII Liceum Ogólnokształcące","ulica":"Grzegórzecka","nrBud":"24"}},{"type":"Feature","geometry":{"type":"Point","coordinates":[19.9514,50.05561]},"properties":{"nr":"35","siedziba":"Zespół Szkół Ogólnokształcących Nr 1","ulica":"ks. Franciszka Blachnickiego","nrBud":"1"}},{"type":"Feature","geometry":{"type":"Point","coordinates":[19.95543,50.05864]},"properties":{"nr":"36","siedziba":"VIII Liceum Ogólnokształcące","ulica":"Grzegórzecka","nrBud":"24"}},{"type":"Feature","geometry":{"type":"Point","coordinates":[19.9569,50.05669]},"properties":{"nr":"37","siedziba":"Bursa Szkolnictwa Ponadpodstawowego Nr 1","ulica":"Rzeźnicza","nrBud":"4"}},{"type":"Feature","geometry":{"type":"Point","coordinates":[19.98187,50.06007]},"properties":{"nr":"38","siedziba":"Szkoła Podstawowa Nr 18","ulica":"Półkole","nrBud":"11"}},{"type":"Feature","geometry":{"type":"Point","coordinates":[19.98187,50.06007]},"properties":{"nr":"39","siedziba":"Szkoła Podstawowa Nr 18","ulica":"Półkole","nrBud":"11"}},{"type":"Feature","geometry":{"type":"Point","coordinates":[19.97739,50.06188]},"properties":{"nr":"40","siedziba":"Szkoła Podstawowa Nr 39","ulica":"Stanisława Jachowicza","nrBud":"5"}},{"type":"Feature","geometry":{"type":"Point","coordinates":[19.97739,50.06188]},"properties":{"nr":"41","siedziba":"Szkoła Podstawowa Nr 39","ulica":"Stanisława Jachowicza","nrBud":"5"}},{"type":"Feature","geometry":{"type":"Point","coordinates":[19.98426,50.07384]},"properties":{"nr":"42","siedziba":"Szkoła Podstawowa Nr 114","ulica":"Łąkowa","nrBud":"31"}},{"type":"Feature","geometry":{"type":"Point","coordinates":[19.98426,50.07384]},"properties":{"nr":"43","siedziba":"Szkoła Podstawowa Nr 114","ulica":"Łąkowa","nrBud":"31"}},{"type":"Feature","geometry":{"type":"Point","coordinates":[19.98643,50.07455]},"properties":{"nr":"44","siedziba":"Zespół Szkół Nr 1","ulica":"Ułanów","nrBud":"3"}},{"type":"Feature","geometry":{"type":"Point","coordinates":[19.98643,50.07455]},"properties":{"nr":"45","siedziba":"Zespół Szkół Nr 1","ulica":"Ułanów","nrBud":"3"}},{"type":"Feature","geometry":{"type":"Point","coordinates":[19.98611,50.07944]},"properties":{"nr":"46","siedziba":"Zespół Szkół Ogólnokształcących Nr 9","ulica":"Seniorów Lotnictwa","nrBud":"5"}},{"type":"Feature","geometry":{"type":"Point","coordinates":[19.98611,50.07944]},"properties":{"nr":"47","siedziba":"Zespół Szkół Ogólnokształcących Nr 9","ulica":"Seniorów Lotnictwa","nrBud":"5"}},{"type":"Feature","geometry":{"type":"Point","coordinates":[19.97357,50.0801]},"properties":{"nr":"48","siedziba":"Szkoła Muzyczna I Stopnia Nr 1","ulica":"Pilotów","nrBud":"51"}},{"type":"Feature","geometry":{"type":"Point","coordinates":[19.96598,50.08283]},"properties":{"nr":"49","siedziba":"Zespół Szkół Przemysłu Spożywczego","ulica":"Macieja Miechowity","nrBud":"6"}},{"type":"Feature","geometry":{"type":"Point","coordinates":[19.96598,50.08283]},"properties":{"nr":"50","siedziba":"Zespół Szkół Przemysłu Spożywczego","ulica":"Macieja Miechowity","nrBud":"6"}},{"type":"Feature","geometry":{"type":"Point","coordinates":[19.96598,50.08283]},"properties":{"nr":"51","siedziba":"Zespół Szkół Przemysłu Spożywczego","ulica":"Macieja Miechowity","nrBud":"6"}},{"type":"Feature","geometry":{"type":"Point","coordinates":[19.97344,50.08301]},"properties":{"nr":"52","siedziba":"Samorządowe Przedszkole Nr 14","ulica":"Młyńska Boczna","nrBud":"4"}},{"type":"Feature","geometry":{"type":"Point","coordinates":[19.9751,50.08248]},"properties":{"nr":"53","siedziba":"Szkoła Podstawowa Nr 64","ulica":"Sadzawki","nrBud":"1"}},{"type":"Feature","geometry":{"type":"Point","coordinates":[19.9751,50.08248]},"properties":{"nr":"54","siedziba":"Szkoła Podstawowa Nr 64","ulica":"Sadzawki","nrBud":"1"}},{"type":"Feature","geometry":{"type":"Point","coordinates":[19.9751,50.08248]},"properties":{"nr":"55","siedziba":"Szkoła Podstawowa Nr 64","ulica":"Sadzawki","nrBud":"1"}},{"type":"Feature","geometry":{"type":"Point","coordinates":[19.97134,50.0918]},"properties":{"nr":"56","siedziba":"Szkoła Podstawowa Nr 2","ulica":"Strzelców","nrBud":"5A"}},{"type":"Feature","geometry":{"type":"Point","coordinates":[19.97134,50.0918]},"properties":{"nr":"57","siedziba":"Szkoła Podstawowa Nr 2","ulica":"Strzelców","nrBud":"5A"}},{"type":"Feature","geometry":{"type":"Point","coordinates":[19.97134,50.0918]},"properties":{"nr":"58","siedziba":"Szkoła Podstawowa Nr 2","ulica":"Strzelców","nrBud":"5A"}},{"type":"Feature","geometry":{"type":"Point","coordinates":[19.97134,50.0918]},"properties":{"nr":"59","siedziba":"Szkoła Podstawowa Nr 2","ulica":"Strzelców","nrBud":"5A"}},{"type":"Feature","geometry":{"type":"Point","coordinates":[19.97134,50.0918]},"properties":{"nr":"60","siedziba":"Szkoła Podstawowa Nr 2","ulica":"Strzelców","nrBud":"5A"}},{"type":"Feature","geometry":{"type":"Point","coordinates":[19.97062,50.0877]},"properties":{"nr":"61","siedziba":"Zespół Szkół Ogólnokształcących Nr 13","ulica":"Kazimierza Odnowiciela","nrBud":"2"}},{"type":"Feature","geometry":{"type":"Point","coordinates":[19.96624,50.09152]},"properties":{"nr":"62","siedziba":"Samorządowe Przedszkole Nr 178","ulica":"Sudolska","nrBud":"3"}},{"type":"Feature","geometry":{"type":"Point","coordinates":[19.96624,50.09152]},"properties":{"nr":"63","siedziba":"Samorządowe Przedszkole Nr 178","ulica":"Sudolska","nrBud":"3"}},{"type":"Feature","geometry":{"type":"Point","coordinates":[19.95747,50.089]},"properties":{"nr":"64","siedziba":"Młodzieżowy Dom Kultury","ulica":"29 Listopada","nrBud":"102"}},{"type":"Feature","geometry":{"type":"Point","coordinates":[19.95519,50.08113]},"properties":{"nr":"65","siedziba":"Szkoła Podstawowa Nr 95","ulica":"Wileńska","nrBud":"9B"}},{"type":"Feature","geometry":{"type":"Point","coordinates":[19.95519,50.08113]},"properties":{"nr":"66","siedziba":"Szkoła Podstawowa Nr 95","ulica":"Wileńska","nrBud":"9B"}},{"type":"Feature","geometry":{"type":"Point","coordinates":[19.95519,50.08113]},"properties":{"nr":"67","siedziba":"Szkoła Podstawowa Nr 95","ulica":"Wileńska","nrBud":"9B"}},{"type":"Feature","geometry":{"type":"Point","coordinates":[19.95747,50.089]},"properties":{"nr":"68","siedziba":"Młodzieżowy Dom Kultury","ulica":"29 Listopada","nrBud":"102"}},{"type":"Feature","geometry":{"type":"Point","coordinates":[19.96398,50.09881]},"properties":{"nr":"69","siedziba":"Zespół Szkolno-Przedszkolny Nr 12","ulica":"ks. Józefa Meiera","nrBud":"16D"}},{"type":"Feature","geometry":{"type":"Point","coordinates":[19.96398,50.09881]},"properties":{"nr":"70","siedziba":"Zespół Szkolno-Przedszkolny Nr 12","ulica":"ks. Józefa Meiera","nrBud":"16D"}},{"type":"Feature","geometry":{"type":"Point","coordinates":[19.96398,50.09881]},"properties":{"nr":"71","siedziba":"Zespół Szkolno-Przedszkolny Nr 12","ulica":"ks. Józefa Meiera","nrBud":"16D"}},{"type":"Feature","geometry":{"type":"Point","coordinates":[19.94428,50.10225]},"properties":{"nr":"72","siedziba":"Zespół Szkolno-Przedszkolny Nr 2","ulica":"Porzeczkowa","nrBud":"3"}},{"type":"Feature","geometry":{"type":"Point","coordinates":[19.94428,50.10225]},"properties":{"nr":"73","siedziba":"Zespół Szkolno-Przedszkolny Nr 2","ulica":"Porzeczkowa","nrBud":"3"}},{"type":"Feature","geometry":{"type":"Point","coordinates":[19.93392,50.09409]},"properties":{"nr":"74","siedziba":"Szkoła Podstawowa Nr 58","ulica":"Stanisława Pigonia","nrBud":"2"}},{"type":"Feature","geometry":{"type":"Point","coordinates":[19.93392,50.09409]},"properties":{"nr":"75","siedziba":"Szkoła Podstawowa Nr 58","ulica":"Stanisława Pigonia","nrBud":"2"}},{"type":"Feature","geometry":{"type":"Point","coordinates":[19.94583,50.09344]},"properties":{"nr":"76","siedziba":"Zespół Szkolno-Przedszkolny Nr 16","ulica":"Józefa Mackiewicza","nrBud":"15"}},{"type":"Feature","geometry":{"type":"Point","coordinates":[19.94583,50.09344]},"properties":{"nr":"77","siedziba":"Zespół Szkolno-Przedszkolny Nr 16","ulica":"Józefa Mackiewicza","nrBud":"15"}},{"type":"Feature","geometry":{"type":"Point","coordinates":[19.94583,50.09344]},"properties":{"nr":"78","siedziba":"Zespół Szkolno-Przedszkolny Nr 16","ulica":"Józefa Mackiewicza","nrBud":"15"}},{"type":"Feature","geometry":{"type":"Point","coordinates":[19.94583,50.09344]},"properties":{"nr":"79","siedziba":"Zespół Szkolno-Przedszkolny Nr 16","ulica":"Józefa Mackiewicza","nrBud":"15"}},{"type":"Feature","geometry":{"type":"Point","coordinates":[19.94583,50.09344]},"properties":{"nr":"80","siedziba":"Zespół Szkolno-Przedszkolny Nr 16","ulica":"Józefa Mackiewicza","nrBud":"15"}},{"type":"Feature","geometry":{"type":"Point","coordinates":[19.94116,50.08931]},"properties":{"nr":"81","siedziba":"Szkoła Podstawowa z Oddziałami Integracyjnymi Nr 107","ulica":"Zdrowa","nrBud":"6"}},{"type":"Feature","geometry":{"type":"Point","coordinates":[19.94116,50.08931]},"properties":{"nr":"82","siedziba":"Szkoła Podstawowa z Oddziałami Integracyjnymi Nr 107","ulica":"Zdrowa","nrBud":"6"}},{"type":"Feature","geometry":{"type":"Point","coordinates":[19.94116,50.08931]},"properties":{"nr":"83","siedziba":"Szkoła Podstawowa z Oddziałami Integracyjnymi Nr 107","ulica":"Zdrowa","nrBud":"6"}},{"type":"Feature","geometry":{"type":"Point","coordinates":[19.94116,50.08931]},"properties":{"nr":"84","siedziba":"Szkoła Podstawowa z Oddziałami Integracyjnymi Nr 107","ulica":"Zdrowa","nrBud":"6"}},{"type":"Feature","geometry":{"type":"Point","coordinates":[19.9291,50.08729]},"properties":{"nr":"85","siedziba":"Szkoła Podstawowa z Oddziałami Integracyjnymi Nr 15","ulica":"Kluczborska","nrBud":"3"}},{"type":"Feature","geometry":{"type":"Point","coordinates":[19.9291,50.08729]},"properties":{"nr":"86","siedziba":"Szkoła Podstawowa z Oddziałami Integracyjnymi Nr 15","ulica":"Kluczborska","nrBud":"3"}},{"type":"Feature","geometry":{"type":"Point","coordinates":[19.9291,50.08729]},"properties":{"nr":"87","siedziba":"Szkoła Podstawowa z Oddziałami Integracyjnymi Nr 15","ulica":"Kluczborska","nrBud":"3"}},{"type":"Feature","geometry":{"type":"Point","coordinates":[19.9291,50.08729]},"properties":{"nr":"88","siedziba":"Szkoła Podstawowa z Oddziałami Integracyjnymi Nr 15","ulica":"Kluczborska","nrBud":"3"}},{"type":"Feature","geometry":{"type":"Point","coordinates":[19.92282,50.08974]},"properties":{"nr":"89","siedziba":"Szkoła Podstawowa Nr 21","ulica":"Batalionu \"Skała\" AK","nrBud":"12"}},{"type":"Feature","geometry":{"type":"Point","coordinates":[19.92282,50.08974]},"properties":{"nr":"90","siedziba":"Szkoła Podstawowa Nr 21","ulica":"Batalionu \"Skała\" AK","nrBud":"12"}},{"type":"Feature","geometry":{"type":"Point","coordinates":[19.92282,50.08974]},"properties":{"nr":"91","siedziba":"Szkoła Podstawowa Nr 21","ulica":"Batalionu \"Skała\" AK","nrBud":"12"}},{"type":"Feature","geometry":{"type":"Point","coordinates":[19.92609,50.09301]},"properties":{"nr":"92","siedziba":"Samorządowe Przedszkole Nr 165","ulica":"Wincentego Danka","nrBud":"1"}},{"type":"Feature","geometry":{"type":"Point","coordinates":[19.90579,50.10708]},"properties":{"nr":"93","siedziba":"Szkoła Podstawowa Nr 67","ulica":"Kaczorówka","nrBud":"4"}},{"type":"Feature","geometry":{"type":"Point","coordinates":[19.88484,50.0964]},"properties":{"nr":"94","siedziba":"Zespół Szkolno-Przedszkolny Nr 14","ulica":"Stawowa","nrBud":"179"}},{"type":"Feature","geometry":{"type":"Point","coordinates":[19.88484,50.0964]},"properties":{"nr":"95","siedziba":"Zespół Szkolno-Przedszkolny Nr 14","ulica":"Stawowa","nrBud":"179"}},{"type":"Feature","geometry":{"type":"Point","coordinates":[19.9043,50.09526]},"properties":{"nr":"96","siedziba":"Publiczna Katolicka Szkoła Podstawowa im. św. Joanny Beretty Molli","ulica":"Stelmachów","nrBud":"137"}},{"type":"Feature","geometry":{"type":"Point","coordinates":[19.90272,50.08464]},"properties":{"nr":"97","siedziba":"Szkoła Podstawowa Nr 119","ulica":"Bolesława Czerwieńskiego","nrBud":"1"}},{"type":"Feature","geometry":{"type":"Point","coordinates":[19.90272,50.08464]},"properties":{"nr":"98","siedziba":"Szkoła Podstawowa Nr 119","ulica":"Bolesława Czerwieńskiego","nrBud":"1"}},{"type":"Feature","geometry":{"type":"Point","coordinates":[19.90272,50.08464]},"properties":{"nr":"99","siedziba":"Szkoła Podstawowa Nr 119","ulica":"Bolesława Czerwieńskiego","nrBud":"1"}},{"type":"Feature","geometry":{"type":"Point","coordinates":[19.90272,50.08464]},"properties":{"nr":"100","siedziba":"Szkoła Podstawowa Nr 119","ulica":"Bolesława Czerwieńskiego","nrBud":"1"}},{"type":"Feature","geometry":{"type":"Point","coordinates":[19.90272,50.08464]},"properties":{"nr":"101","siedziba":"Szkoła Podstawowa Nr 119","ulica":"Bolesława Czerwieńskiego","nrBud":"1"}},{"type":"Feature","geometry":{"type":"Point","coordinates":[19.91339,50.08688]},"properties":{"nr":"102","siedziba":"XIV Liceum Ogólnokształcące","ulica":"Józefa Chełmońskiego","nrBud":"24"}},{"type":"Feature","geometry":{"type":"Point","coordinates":[19.91339,50.08688]},"properties":{"nr":"103","siedziba":"XIV Liceum Ogólnokształcące","ulica":"Józefa Chełmońskiego","nrBud":"24"}},{"type":"Feature","geometry":{"type":"Point","coordinates":[19.91702,50.08612]},"properties":{"nr":"104","siedziba":"Szkoła Podstawowa Nr 113","ulica":"Piotra Stachiewicza","nrBud":"33"}},{"type":"Feature","geometry":{"type":"Point","coordinates":[19.91702,50.08612]},"properties":{"nr":"105","siedziba":"Szkoła Podstawowa Nr 113","ulica":"Piotra Stachiewicza","nrBud":"33"}},{"type":"Feature","geometry":{"type":"Point","coordinates":[19.91625,50.07584]},"properties":{"nr":"106","siedziba":"Zespół Szkół Specjalnych Nr 4","ulica":"Zakątek","nrBud":"2"}},{"type":"Feature","geometry":{"type":"Point","coordinates":[19.91625,50.07584]},"properties":{"nr":"107","siedziba":"Zespół Szkół Specjalnych Nr 4","ulica":"Zakątek","nrBud":"2"}},{"type":"Feature","geometry":{"type":"Point","coordinates":[19.92209,50.07762]},"properties":{"nr":"108","siedziba":"Zespół Szkolno-Przedszkolny Nr 18","ulica":"Litewska","nrBud":"34"}},{"type":"Feature","geometry":{"type":"Point","coordinates":[19.92209,50.07762]},"properties":{"nr":"109","siedziba":"Zespół Szkolno-Przedszkolny Nr 18","ulica":"Litewska","nrBud":"34"}},{"type":"Feature","geometry":{"type":"Point","coordinates":[19.92249,50.07591]},"properties":{"nr":"110","siedziba":"Szkoła Podstawowa Nr 36","ulica":"Mazowiecka","nrBud":"70"}},{"type":"Feature","geometry":{"type":"Point","coordinates":[19.92249,50.07591]},"properties":{"nr":"111","siedziba":"Szkoła Podstawowa Nr 36","ulica":"Mazowiecka","nrBud":"70"}},{"type":"Feature","geometry":{"type":"Point","coordinates":[19.92249,50.07591]},"properties":{"nr":"112","siedziba":"Szkoła Podstawowa Nr 36","ulica":"Mazowiecka","nrBud":"70"}},{"type":"Feature","geometry":{"type":"Point","coordinates":[19.92249,50.07591]},"properties":{"nr":"113","siedziba":"Szkoła Podstawowa Nr 36","ulica":"Mazowiecka","nrBud":"70"}},{"type":"Feature","geometry":{"type":"Point","coordinates":[19.9350536,50.0743686]},"properties":{"nr":"114","siedziba":"Urząd Miasta Krakowa","ulica":"Lubelska","nrBud":"29"}},{"type":"Feature","geometry":{"type":"Point","coordinates":[19.92121,50.07414]},"properties":{"nr":"115","siedziba":"Zespół Szkolno-Przedszkolny Nr 4","ulica":"Urzędnicza","nrBud":"65"}},{"type":"Feature","geometry":{"type":"Point","coordinates":[19.92587,50.07041]},"properties":{"nr":"116","siedziba":"Uniwersytet Ekonomiczny, Instytut Nauk o Jakości i Zarządzania Produktem","ulica":"Henryka Sienkiewicza","nrBud":"4"}},{"type":"Feature","geometry":{"type":"Point","coordinates":[19.92037,50.06738]},"properties":{"nr":"117","siedziba":"Szkoła Podstawowa Nr 33","ulica":"Stanisława Konarskiego","nrBud":"2"}},{"type":"Feature","geometry":{"type":"Point","coordinates":[19.91919,50.06905]},"properties":{"nr":"118","siedziba":"IX Liceum Ogólnokształcące","ulica":"Kazimierza Czapińskiego","nrBud":"5"}},{"type":"Feature","geometry":{"type":"Point","coordinates":[19.91338,50.06891]},"properties":{"nr":"119","siedziba":"Szkoła Podstawowa z Oddziałami Integracyjnymi Nr 12","ulica":"Kijowska","nrBud":"3"}},{"type":"Feature","geometry":{"type":"Point","coordinates":[19.91451,50.07003]},"properties":{"nr":"120","siedziba":"Szkoła Podstawowa z Oddziałami Sportowymi Nr 5","ulica":"Kijowska","nrBud":"8"}},{"type":"Feature","geometry":{"type":"Point","coordinates":[19.91473,50.06531]},"properties":{"nr":"121","siedziba":"MDK \"Dom Harcerza\"","ulica":"Władysława Reymonta","nrBud":"18"}},{"type":"Feature","geometry":{"type":"Point","coordinates":[19.90867,50.07087]},"properties":{"nr":"122","siedziba":"VII Liceum Ogólnokształcące","ulica":"Stanisława Skarbińskiego","nrBud":"5"}},{"type":"Feature","geometry":{"type":"Point","coordinates":[19.90867,50.07087]},"properties":{"nr":"123","siedziba":"VII Liceum Ogólnokształcące","ulica":"Stanisława Skarbińskiego","nrBud":"5"}},{"type":"Feature","geometry":{"type":"Point","coordinates":[19.90867,50.07087]},"properties":{"nr":"124","siedziba":"VII Liceum Ogólnokształcące","ulica":"Stanisława Skarbińskiego","nrBud":"5"}},{"type":"Feature","geometry":{"type":"Point","coordinates":[19.90032,50.07329]},"properties":{"nr":"125","siedziba":"Szkoła Podstawowa Nr 93","ulica":"Feliksa Szlachtowskiego","nrBud":"31"}},{"type":"Feature","geometry":{"type":"Point","coordinates":[19.90032,50.07329]},"properties":{"nr":"126","siedziba":"Szkoła Podstawowa Nr 93","ulica":"Feliksa Szlachtowskiego","nrBud":"31"}},{"type":"Feature","geometry":{"type":"Point","coordinates":[19.89505,50.08158]},"properties":{"nr":"127","siedziba":"Zespół Szkół Ogólnokształcących Nr 7","ulica":"Złoty Róg","nrBud":"30"}},{"type":"Feature","geometry":{"type":"Point","coordinates":[19.89505,50.08158]},"properties":{"nr":"128","siedziba":"Zespół Szkół Ogólnokształcących Nr 7","ulica":"Złoty Róg","nrBud":"30"}},{"type":"Feature","geometry":{"type":"Point","coordinates":[19.89497,50.07564]},"properties":{"nr":"129","siedziba":"Centrum Kształcenia Zawodowego Nr 1 Wydział Budowlany","ulica":"Wesele","nrBud":"41"}},{"type":"Feature","geometry":{"type":"Point","coordinates":[19.89343,50.07647]},"properties":{"nr":"130","siedziba":"Zespół Szkół Architektoniczno-Budowlanych","ulica":"Jerzego Szablowskiego","nrBud":"1"}},{"type":"Feature","geometry":{"type":"Point","coordinates":[19.88248,50.07762]},"properties":{"nr":"131","siedziba":"XVIII Liceum Ogólnokształcące","ulica":"Na Błonie","nrBud":"15B"}},{"type":"Feature","geometry":{"type":"Point","coordinates":[19.88248,50.07762]},"properties":{"nr":"132","siedziba":"XVIII Liceum Ogólnokształcące","ulica":"Na Błonie","nrBud":"15B"}},{"type":"Feature","geometry":{"type":"Point","coordinates":[19.88398,50.07741]},"properties":{"nr":"133","siedziba":"Szkoła Podstawowa Nr 153","ulica":"Na Błonie","nrBud":"15D"}},{"type":"Feature","geometry":{"type":"Point","coordinates":[19.88398,50.07741]},"properties":{"nr":"134","siedziba":"Szkoła Podstawowa Nr 153","ulica":"Na Błonie","nrBud":"15D"}},{"type":"Feature","geometry":{"type":"Point","coordinates":[19.88198,50.08443]},"properties":{"nr":"135","siedziba":"Szkoła Podstawowa Nr 50","ulica":"Katowicka","nrBud":"28"}},{"type":"Feature","geometry":{"type":"Point","coordinates":[19.84688,50.08459]},"properties":{"nr":"136","siedziba":"Szkoła Podstawowa Nr 138","ulica":"Kazimierza Wierzyńskiego","nrBud":"3"}},{"type":"Feature","geometry":{"type":"Point","coordinates":[19.84688,50.08459]},"properties":{"nr":"137","siedziba":"Szkoła Podstawowa Nr 138","ulica":"Kazimierza Wierzyńskiego","nrBud":"3"}},{"type":"Feature","geometry":{"type":"Point","coordinates":[19.83362,50.07345]},"properties":{"nr":"138","siedziba":"Publiczna Szkoła Podstawowa Sióstr Pijarek im. św. Józefa Kalasancjusza","ulica":"Grzegorza Korzeniaka","nrBud":"18"}},{"type":"Feature","geometry":{"type":"Point","coordinates":[19.84658,50.0676]},"properties":{"nr":"139","siedziba":"Centrum Kultury \"Dworek Białoprądnicki\" Klub Kultury \"Chełm\"","ulica":"Chełmska","nrBud":"16"}},{"type":"Feature","geometry":{"type":"Point","coordinates":[19.82477,50.04419]},"properties":{"nr":"140","siedziba":"Szkoła Podstawowa Nr 48","ulica":"Księcia Józefa","nrBud":"337"}},{"type":"Feature","geometry":{"type":"Point","coordinates":[19.87382,50.04826]},"properties":{"nr":"141","siedziba":"Centrum Kultury \"Dworek Białoprądnicki\" Klub Kultury „Przegorzały”","ulica":"Kamedulska","nrBud":"70"}},{"type":"Feature","geometry":{"type":"Point","coordinates":[19.86504,50.06431]},"properties":{"nr":"142","siedziba":"Szkoła Podstawowa Nr 72","ulica":"Modrzewiowa","nrBud":"23"}},{"type":"Feature","geometry":{"type":"Point","coordinates":[19.86504,50.06431]},"properties":{"nr":"143","siedziba":"Szkoła Podstawowa Nr 72","ulica":"Modrzewiowa","nrBud":"23"}},{"type":"Feature","geometry":{"type":"Point","coordinates":[19.90443,50.05582]},"properties":{"nr":"144","siedziba":"Szkoła Podstawowa Nr 32","ulica":"Królowej Jadwigi","nrBud":"78"}},{"type":"Feature","geometry":{"type":"Point","coordinates":[19.90443,50.05582]},"properties":{"nr":"145","siedziba":"Szkoła Podstawowa Nr 32","ulica":"Królowej Jadwigi","nrBud":"78"}},{"type":"Feature","geometry":{"type":"Point","coordinates":[19.91738,50.05577]},"properties":{"nr":"146","siedziba":"Szkoła Podstawowa Nr 31","ulica":"Bolesława Prusa","nrBud":"18"}},{"type":"Feature","geometry":{"type":"Point","coordinates":[19.91703,50.05368]},"properties":{"nr":"147","siedziba":"Zespół Szkół Ogólnokształcących Nr 18","ulica":"Senatorska","nrBud":"35"}},{"type":"Feature","geometry":{"type":"Point","coordinates":[19.91703,50.05368]},"properties":{"nr":"148","siedziba":"Zespół Szkół Ogólnokształcących Nr 18","ulica":"Senatorska","nrBud":"35"}},{"type":"Feature","geometry":{"type":"Point","coordinates":[19.92387,50.05058]},"properties":{"nr":"149","siedziba":"Szkoła Podstawowa Nr 110","ulica":"Skwerowa","nrBud":"3"}},{"type":"Feature","geometry":{"type":"Point","coordinates":[19.92387,50.05058]},"properties":{"nr":"150","siedziba":"Szkoła Podstawowa Nr 110","ulica":"Skwerowa","nrBud":"3"}},{"type":"Feature","geometry":{"type":"Point","coordinates":[19.93215,50.04261]},"properties":{"nr":"151","siedziba":"Szkoła Podstawowa Nr 25","ulica":"Komandosów","nrBud":"29"}},{"type":"Feature","geometry":{"type":"Point","coordinates":[19.93215,50.04261]},"properties":{"nr":"152","siedziba":"Szkoła Podstawowa Nr 25","ulica":"Komandosów","nrBud":"29"}},{"type":"Feature","geometry":{"type":"Point","coordinates":[19.93215,50.04261]},"properties":{"nr":"153","siedziba":"Szkoła Podstawowa Nr 25","ulica":"Komandosów","nrBud":"29"}},{"type":"Feature","geometry":{"type":"Point","coordinates":[19.93215,50.04261]},"properties":{"nr":"154","siedziba":"Szkoła Podstawowa Nr 25","ulica":"Komandosów","nrBud":"29"}},{"type":"Feature","geometry":{"type":"Point","coordinates":[19.92232,50.04638]},"properties":{"nr":"155","siedziba":"Zespół Szkół Łączności","ulica":"Monte Cassino","nrBud":"31"}},{"type":"Feature","geometry":{"type":"Point","coordinates":[19.92232,50.04638]},"properties":{"nr":"156","siedziba":"Zespół Szkół Łączności","ulica":"Monte Cassino","nrBud":"31"}},{"type":"Feature","geometry":{"type":"Point","coordinates":[19.90738,50.04477]},"properties":{"nr":"157","siedziba":"Specjalny Ośrodek Szkolno-Wychowawczy Nr 3","ulica":"Praska","nrBud":"64"}},{"type":"Feature","geometry":{"type":"Point","coordinates":[19.88908,50.03583]},"properties":{"nr":"158","siedziba":"Szkoła Podstawowa Nr 62","ulica":"Ćwikłowa","nrBud":"1"}},{"type":"Feature","geometry":{"type":"Point","coordinates":[19.88908,50.03583]},"properties":{"nr":"159","siedziba":"Szkoła Podstawowa Nr 62","ulica":"Ćwikłowa","nrBud":"1"}},{"type":"Feature","geometry":{"type":"Point","coordinates":[19.85843,50.02951]},"properties":{"nr":"160","siedziba":"Szkoła Podstawowa Nr 54","ulica":"Tyniecka","nrBud":"122"}},{"type":"Feature","geometry":{"type":"Point","coordinates":[19.80691,50.01804]},"properties":{"nr":"161","siedziba":"Centrum Kultury Podgórza Klub Tyniec","ulica":"Dziewiarzy","nrBud":"7"}},{"type":"Feature","geometry":{"type":"Point","coordinates":[19.80691,50.01804]},"properties":{"nr":"162","siedziba":"Centrum Kultury Podgórza Klub Tyniec","ulica":"Dziewiarzy","nrBud":"7"}},{"type":"Feature","geometry":{"type":"Point","coordinates":[19.87229,49.98782]},"properties":{"nr":"163","siedziba":"Zespół Szkolno-Przedszkolny Nr 8","ulica":"Mieczysława Wrony","nrBud":"115"}},{"type":"Feature","geometry":{"type":"Point","coordinates":[19.87229,49.98782]},"properties":{"nr":"164","siedziba":"Zespół Szkolno-Przedszkolny Nr 8","ulica":"Mieczysława Wrony","nrBud":"115"}},{"type":"Feature","geometry":{"type":"Point","coordinates":[19.87378,50.01668]},"properties":{"nr":"165","siedziba":"Zespół Szkolno-Przedszkolny Nr 7","ulica":"Skotnicka","nrBud":"86"}},{"type":"Feature","geometry":{"type":"Point","coordinates":[19.87378,50.01668]},"properties":{"nr":"166","siedziba":"Zespół Szkolno-Przedszkolny Nr 7","ulica":"Skotnicka","nrBud":"86"}},{"type":"Feature","geometry":{"type":"Point","coordinates":[19.87378,50.01668]},"properties":{"nr":"167","siedziba":"Zespół Szkolno-Przedszkolny Nr 7","ulica":"Skotnicka","nrBud":"86"}},{"type":"Feature","geometry":{"type":"Point","coordinates":[19.89961,50.01151]},"properties":{"nr":"168","siedziba":"Szkoła Podstawowa Nr 53","ulica":"Skośna","nrBud":"8"}},{"type":"Feature","geometry":{"type":"Point","coordinates":[19.89961,50.01151]},"properties":{"nr":"169","siedziba":"Szkoła Podstawowa Nr 53","ulica":"Skośna","nrBud":"8"}},{"type":"Feature","geometry":{"type":"Point","coordinates":[19.89961,50.01151]},"properties":{"nr":"170","siedziba":"Szkoła Podstawowa Nr 53","ulica":"Skośna","nrBud":"8"}},{"type":"Feature","geometry":{"type":"Point","coordinates":[19.89961,50.01151]},"properties":{"nr":"171","siedziba":"Szkoła Podstawowa Nr 53","ulica":"Skośna","nrBud":"8"}},{"type":"Feature","geometry":{"type":"Point","coordinates":[19.89961,50.01151]},"properties":{"nr":"172","siedziba":"Szkoła Podstawowa Nr 53","ulica":"Skośna","nrBud":"8"}},{"type":"Feature","geometry":{"type":"Point","coordinates":[19.89961,50.01151]},"properties":{"nr":"173","siedziba":"Szkoła Podstawowa Nr 53","ulica":"Skośna","nrBud":"8"}},{"type":"Feature","geometry":{"type":"Point","coordinates":[19.91598,50.02596]},"properties":{"nr":"174","siedziba":"Szkoła Podstawowa Nr 40","ulica":"Pszczelna","nrBud":"13"}},{"type":"Feature","geometry":{"type":"Point","coordinates":[19.91598,50.02596]},"properties":{"nr":"175","siedziba":"Szkoła Podstawowa Nr 40","ulica":"Pszczelna","nrBud":"13"}},{"type":"Feature","geometry":{"type":"Point","coordinates":[19.91598,50.02596]},"properties":{"nr":"176","siedziba":"Szkoła Podstawowa Nr 40","ulica":"Pszczelna","nrBud":"13"}},{"type":"Feature","geometry":{"type":"Point","coordinates":[19.91598,50.02596]},"properties":{"nr":"177","siedziba":"Szkoła Podstawowa Nr 40","ulica":"Pszczelna","nrBud":"13"}},{"type":"Feature","geometry":{"type":"Point","coordinates":[19.91598,50.02596]},"properties":{"nr":"178","siedziba":"Szkoła Podstawowa Nr 40","ulica":"Pszczelna","nrBud":"13"}},{"type":"Feature","geometry":{"type":"Point","coordinates":[19.91598,50.02596]},"properties":{"nr":"179","siedziba":"Szkoła Podstawowa Nr 40","ulica":"Pszczelna","nrBud":"13"}},{"type":"Feature","geometry":{"type":"Point","coordinates":[19.92268,50.02988]},"properties":{"nr":"180","siedziba":"Szkoła Podstawowa z Oddziałami Integracyjnymi Nr 151","ulica":"Wacława Lipińskiego","nrBud":"2"}},{"type":"Feature","geometry":{"type":"Point","coordinates":[19.92268,50.02988]},"properties":{"nr":"181","siedziba":"Szkoła Podstawowa z Oddziałami Integracyjnymi Nr 151","ulica":"Wacława Lipińskiego","nrBud":"2"}},{"type":"Feature","geometry":{"type":"Point","coordinates":[19.92268,50.02988]},"properties":{"nr":"182","siedziba":"Szkoła Podstawowa z Oddziałami Integracyjnymi Nr 151","ulica":"Wacława Lipińskiego","nrBud":"2"}},{"type":"Feature","geometry":{"type":"Point","coordinates":[19.92268,50.02988]},"properties":{"nr":"183","siedziba":"Szkoła Podstawowa z Oddziałami Integracyjnymi Nr 151","ulica":"Wacława Lipińskiego","nrBud":"2"}},{"type":"Feature","geometry":{"type":"Point","coordinates":[19.92336,50.02645]},"properties":{"nr":"184","siedziba":"Szkoła Podstawowa z Oddziałami Integracyjnymi Nr 158","ulica":"Strąkowa","nrBud":"3A"}},{"type":"Feature","geometry":{"type":"Point","coordinates":[19.93234,50.03072]},"properties":{"nr":"185","siedziba":"Miejskie Przedsiębiorstwo Komunikacyjne S. A.","ulica":"Jana Brożka","nrBud":"3"}},{"type":"Feature","geometry":{"type":"Point","coordinates":[19.93486,50.02701]},"properties":{"nr":"186","siedziba":"Sieć Badawcza Łukasiewicz - Łódzki Instytut Technologiczny","ulica":"Zakopiańska","nrBud":"9"}},{"type":"Feature","geometry":{"type":"Point","coordinates":[19.94236,50.02106]},"properties":{"nr":"187","siedziba":"Szkoła Podstawowa Nr 56","ulica":"Aleksandra Fredry","nrBud":"65"}},{"type":"Feature","geometry":{"type":"Point","coordinates":[19.94236,50.02106]},"properties":{"nr":"188","siedziba":"Szkoła Podstawowa Nr 56","ulica":"Aleksandra Fredry","nrBud":"65"}},{"type":"Feature","geometry":{"type":"Point","coordinates":[19.92849,50.01301]},"properties":{"nr":"189","siedziba":"Centrum Kultury Podgórza Centrum Sztuki Współczesnej „Solvay”","ulica":"Zakopiańska","nrBud":"62"}},{"type":"Feature","geometry":{"type":"Point","coordinates":[19.92417,50.01875]},"properties":{"nr":"190","siedziba":"Szkoła Podstawowa Nr 49","ulica":"Józefa Montwiłła-Mireckiego","nrBud":"29"}},{"type":"Feature","geometry":{"type":"Point","coordinates":[19.92417,50.01875]},"properties":{"nr":"191","siedziba":"Szkoła Podstawowa Nr 49","ulica":"Józefa Montwiłła-Mireckiego","nrBud":"29"}},{"type":"Feature","geometry":{"type":"Point","coordinates":[19.92602,50.01623]},"properties":{"nr":"192","siedziba":"Przedszkole Samorządowe nr 95","ulica":"Kościuszkowców","nrBud":"6"}},{"type":"Feature","geometry":{"type":"Point","coordinates":[19.91879,50.00146]},"properties":{"nr":"193","siedziba":"Szkoła Podstawowa Nr 97","ulica":"Doktora Judyma","nrBud":"10"}},{"type":"Feature","geometry":{"type":"Point","coordinates":[19.91879,50.00146]},"properties":{"nr":"194","siedziba":"Szkoła Podstawowa Nr 97","ulica":"Doktora Judyma","nrBud":"10"}},{"type":"Feature","geometry":{"type":"Point","coordinates":[19.91879,50.00146]},"properties":{"nr":"195","siedziba":"Szkoła Podstawowa Nr 97","ulica":"Doktora Judyma","nrBud":"10"}},{"type":"Feature","geometry":{"type":"Point","coordinates":[19.89604,49.99791]},"properties":{"nr":"196","siedziba":"Szkoła Podstawowa Nr 14","ulica":"Profesora Wojciecha Marii Bartla","nrBud":"29"}},{"type":"Feature","geometry":{"type":"Point","coordinates":[19.89604,49.99791]},"properties":{"nr":"197","siedziba":"Szkoła Podstawowa Nr 14","ulica":"Profesora Wojciecha Marii Bartla","nrBud":"29"}},{"type":"Feature","geometry":{"type":"Point","coordinates":[19.91317,49.99104]},"properties":{"nr":"198","siedziba":"Szkoła Podstawowa Nr 134","ulica":"Kłuszyńska","nrBud":"46"}},{"type":"Feature","geometry":{"type":"Point","coordinates":[19.91317,49.99104]},"properties":{"nr":"199","siedziba":"Szkoła Podstawowa Nr 134","ulica":"Kłuszyńska","nrBud":"46"}},{"type":"Feature","geometry":{"type":"Point","coordinates":[19.92513,50.00131]},"properties":{"nr":"200","siedziba":"Oddziały Szkoły Podstawowej Nr 97","ulica":"Armii \"Kraków\"","nrBud":"76"}},{"type":"Feature","geometry":{"type":"Point","coordinates":[19.94696,49.99329]},"properties":{"nr":"201","siedziba":"Szkoła Podstawowa Nr 43","ulica":"Myślenicka","nrBud":"112"}},{"type":"Feature","geometry":{"type":"Point","coordinates":[19.94696,49.99329]},"properties":{"nr":"202","siedziba":"Szkoła Podstawowa Nr 43","ulica":"Myślenicka","nrBud":"112"}},{"type":"Feature","geometry":{"type":"Point","coordinates":[19.94585,49.98426]},"properties":{"nr":"203","siedziba":"Zespół Szkolno-Przedszkolny Nr 13","ulica":"Mirtowa","nrBud":"2"}},{"type":"Feature","geometry":{"type":"Point","coordinates":[19.94974,49.9794]},"properties":{"nr":"204","siedziba":"Centrum Kultury Podgórza Klub Wróblowice","ulica":"Henryka Niewodniczańskiego","nrBud":"74"}},{"type":"Feature","geometry":{"type":"Point","coordinates":[19.96041,49.97353]},"properties":{"nr":"205","siedziba":"Ochotnicza Straż Pożarna Zbydniowice","ulica":"Matematyków Krakowskich","nrBud":"102"}},{"type":"Feature","geometry":{"type":"Point","coordinates":[19.97187,49.99126]},"properties":{"nr":"206","siedziba":"Szkoła Podstawowa \"Rajska Szkoła\"","ulica":"Tuchowska","nrBud":"113"}},{"type":"Feature","geometry":{"type":"Point","coordinates":[19.98614,49.9833]},"properties":{"nr":"207","siedziba":"Centrum Kultury Podgórza Klub Soboniowice","ulica":"Jerzego Kuryłowicza","nrBud":"115"}},{"type":"Feature","geometry":{"type":"Point","coordinates":[19.98808,49.99478]},"properties":{"nr":"208","siedziba":"Publiczne Rajskie Przedszkole","ulica":"Jana Izydora Sztaudyngera","nrBud":"5"}},{"type":"Feature","geometry":{"type":"Point","coordinates":[19.98318,50.00619]},"properties":{"nr":"209","siedziba":"Samorządowe Przedszkole Nr 33","ulica":"Rżącka","nrBud":"1"}},{"type":"Feature","geometry":{"type":"Point","coordinates":[19.96573,50.00609]},"properties":{"nr":"210","siedziba":"Zespół Szkół Odzieżowych Nr 1","ulica":"Cechowa","nrBud":"57"}},{"type":"Feature","geometry":{"type":"Point","coordinates":[19.96573,50.00609]},"properties":{"nr":"211","siedziba":"Zespół Szkół Odzieżowych Nr 1","ulica":"Cechowa","nrBud":"57"}},{"type":"Feature","geometry":{"type":"Point","coordinates":[19.96573,50.00609]},"properties":{"nr":"212","siedziba":"Zespół Szkół Odzieżowych Nr 1","ulica":"Cechowa","nrBud":"57"}},{"type":"Feature","geometry":{"type":"Point","coordinates":[19.95383,50.00617]},"properties":{"nr":"213","siedziba":"Szkoła Podstawowa z Oddziałami Integracyjnymi Nr 162","ulica":"Stanisława Stojałowskiego","nrBud":"31"}},{"type":"Feature","geometry":{"type":"Point","coordinates":[19.95383,50.00617]},"properties":{"nr":"214","siedziba":"Szkoła Podstawowa z Oddziałami Integracyjnymi Nr 162","ulica":"Stanisława Stojałowskiego","nrBud":"31"}},{"type":"Feature","geometry":{"type":"Point","coordinates":[19.95383,50.00617]},"properties":{"nr":"215","siedziba":"Szkoła Podstawowa z Oddziałami Integracyjnymi Nr 162","ulica":"Stanisława Stojałowskiego","nrBud":"31"}},{"type":"Feature","geometry":{"type":"Point","coordinates":[19.95383,50.00617]},"properties":{"nr":"216","siedziba":"Szkoła Podstawowa z Oddziałami Integracyjnymi Nr 162","ulica":"Stanisława Stojałowskiego","nrBud":"31"}},{"type":"Feature","geometry":{"type":"Point","coordinates":[19.95143,50.01011]},"properties":{"nr":"217","siedziba":"Szkoła Podstawowa Nr 149","ulica":"Franciszka Bujaka","nrBud":"15"}},{"type":"Feature","geometry":{"type":"Point","coordinates":[19.95143,50.01011]},"properties":{"nr":"218","siedziba":"Szkoła Podstawowa Nr 149","ulica":"Franciszka Bujaka","nrBud":"15"}},{"type":"Feature","geometry":{"type":"Point","coordinates":[19.95143,50.01011]},"properties":{"nr":"219","siedziba":"Szkoła Podstawowa Nr 149","ulica":"Franciszka Bujaka","nrBud":"15"}},{"type":"Feature","geometry":{"type":"Point","coordinates":[19.95143,50.01011]},"properties":{"nr":"220","siedziba":"Szkoła Podstawowa Nr 149","ulica":"Franciszka Bujaka","nrBud":"15"}},{"type":"Feature","geometry":{"type":"Point","coordinates":[19.95143,50.01011]},"properties":{"nr":"221","siedziba":"Szkoła Podstawowa Nr 149","ulica":"Franciszka Bujaka","nrBud":"15"}},{"type":"Feature","geometry":{"type":"Point","coordinates":[19.9557,50.01665]},"properties":{"nr":"222","siedziba":"Szkoła Podstawowa Nr 55","ulica":"Dobczycka","nrBud":"20"}},{"type":"Feature","geometry":{"type":"Point","coordinates":[19.9557,50.01665]},"properties":{"nr":"223","siedziba":"Szkoła Podstawowa Nr 55","ulica":"Dobczycka","nrBud":"20"}},{"type":"Feature","geometry":{"type":"Point","coordinates":[19.9557,50.01665]},"properties":{"nr":"224","siedziba":"Szkoła Podstawowa Nr 55","ulica":"Dobczycka","nrBud":"20"}},{"type":"Feature","geometry":{"type":"Point","coordinates":[19.95673,50.02497]},"properties":{"nr":"225","siedziba":"Zarząd Infrastruktury Sportowej w Krakowie","ulica":"Walerego Sławka","nrBud":"10"}},{"type":"Feature","geometry":{"type":"Point","coordinates":[19.9654,50.02264]},"properties":{"nr":"226","siedziba":"Szkoła Podstawowa im. Bł. Celiny Borzęckiej","ulica":"Malborska","nrBud":"98"}},{"type":"Feature","geometry":{"type":"Point","coordinates":[19.9654,50.02264]},"properties":{"nr":"227","siedziba":"Szkoła Podstawowa im. Bł. Celiny Borzęckiej","ulica":"Malborska","nrBud":"98"}},{"type":"Feature","geometry":{"type":"Point","coordinates":[19.9654,50.02264]},"properties":{"nr":"228","siedziba":"Szkoła Podstawowa im. Bł. Celiny Borzęckiej","ulica":"Malborska","nrBud":"98"}},{"type":"Feature","geometry":{"type":"Point","coordinates":[19.97546,50.02473]},"properties":{"nr":"229","siedziba":"Zespół Szkół Elektrycznych Nr 1 Internat","ulica":"Henryka Kamieńskiego","nrBud":"49A"}},{"type":"Feature","geometry":{"type":"Point","coordinates":[19.97093,50.01952]},"properties":{"nr":"230","siedziba":"Zespół Szkolno-Przedszkolny Nr 17","ulica":"Czarnogórska","nrBud":"14"}},{"type":"Feature","geometry":{"type":"Point","coordinates":[19.97093,50.01952]},"properties":{"nr":"231","siedziba":"Zespół Szkolno-Przedszkolny Nr 17","ulica":"Czarnogórska","nrBud":"14"}},{"type":"Feature","geometry":{"type":"Point","coordinates":[19.97093,50.01952]},"properties":{"nr":"232","siedziba":"Zespół Szkolno-Przedszkolny Nr 17","ulica":"Czarnogórska","nrBud":"14"}},{"type":"Feature","geometry":{"type":"Point","coordinates":[19.97093,50.01952]},"properties":{"nr":"233","siedziba":"Zespół Szkolno-Przedszkolny Nr 17","ulica":"Czarnogórska","nrBud":"14"}},{"type":"Feature","geometry":{"type":"Point","coordinates":[19.97473,50.01229]},"properties":{"nr":"234","siedziba":"Szkoła Podstawowa Nr 27","ulica":"Podedworze","nrBud":"16"}},{"type":"Feature","geometry":{"type":"Point","coordinates":[19.97473,50.01229]},"properties":{"nr":"235","siedziba":"Szkoła Podstawowa Nr 27","ulica":"Podedworze","nrBud":"16"}},{"type":"Feature","geometry":{"type":"Point","coordinates":[19.97473,50.01229]},"properties":{"nr":"236","siedziba":"Szkoła Podstawowa Nr 27","ulica":"Podedworze","nrBud":"16"}},{"type":"Feature","geometry":{"type":"Point","coordinates":[19.98069,50.01803]},"properties":{"nr":"237","siedziba":"KOSTKA Publiczne Liceum Ogólnokształcące Jezuitów im. św. Stanisława Kostki","ulica":"Spółdzielców","nrBud":"5"}},{"type":"Feature","geometry":{"type":"Point","coordinates":[19.98069,50.01803]},"properties":{"nr":"238","siedziba":"KOSTKA Publiczne Liceum Ogólnokształcące Jezuitów im. św. Stanisława Kostki","ulica":"Spółdzielców","nrBud":"5"}},{"type":"Feature","geometry":{"type":"Point","coordinates":[19.98069,50.01803]},"properties":{"nr":"239","siedziba":"KOSTKA Publiczne Liceum Ogólnokształcące Jezuitów im. św. Stanisława Kostki","ulica":"Spółdzielców","nrBud":"5"}},{"type":"Feature","geometry":{"type":"Point","coordinates":[19.98159,50.01584]},"properties":{"nr":"240","siedziba":"Szkoła Podstawowa Nr 123","ulica":"Okólna","nrBud":"16"}},{"type":"Feature","geometry":{"type":"Point","coordinates":[19.98159,50.01584]},"properties":{"nr":"241","siedziba":"Szkoła Podstawowa Nr 123","ulica":"Okólna","nrBud":"16"}},{"type":"Feature","geometry":{"type":"Point","coordinates":[19.98159,50.01584]},"properties":{"nr":"242","siedziba":"Szkoła Podstawowa Nr 123","ulica":"Okólna","nrBud":"16"}},{"type":"Feature","geometry":{"type":"Point","coordinates":[19.98613,50.02218]},"properties":{"nr":"243","siedziba":"XV Liceum Ogólnokształcące","ulica":"Adolfa Dygasińskiego","nrBud":"15"}},{"type":"Feature","geometry":{"type":"Point","coordinates":[19.98613,50.02218]},"properties":{"nr":"244","siedziba":"XV Liceum Ogólnokształcące","ulica":"Adolfa Dygasińskiego","nrBud":"15"}},{"type":"Feature","geometry":{"type":"Point","coordinates":[19.99023,50.02455]},"properties":{"nr":"245","siedziba":"Szkoła Podstawowa Nr 61","ulica":"Wacława Popławskiego","nrBud":"17"}},{"type":"Feature","geometry":{"type":"Point","coordinates":[19.99023,50.02455]},"properties":{"nr":"246","siedziba":"Szkoła Podstawowa Nr 61","ulica":"Wacława Popławskiego","nrBud":"17"}},{"type":"Feature","geometry":{"type":"Point","coordinates":[19.99601,50.02092]},"properties":{"nr":"247","siedziba":"Młodzieżowy Dom Kultury","ulica":"Na Wrzosach","nrBud":"57"}},{"type":"Feature","geometry":{"type":"Point","coordinates":[20.00711,50.01829]},"properties":{"nr":"248","siedziba":"Szkoła Podstawowa Nr 41","ulica":"Erazma Jerzmanowskiego","nrBud":"6"}},{"type":"Feature","geometry":{"type":"Point","coordinates":[20.00711,50.01829]},"properties":{"nr":"249","siedziba":"Szkoła Podstawowa Nr 41","ulica":"Erazma Jerzmanowskiego","nrBud":"6"}},{"type":"Feature","geometry":{"type":"Point","coordinates":[20.00711,50.01829]},"properties":{"nr":"250","siedziba":"Szkoła Podstawowa Nr 41","ulica":"Erazma Jerzmanowskiego","nrBud":"6"}},{"type":"Feature","geometry":{"type":"Point","coordinates":[19.99605,50.0172]},"properties":{"nr":"251","siedziba":"Szkoła Podstawowa z Oddziałami Integracyjnymi Nr 148","ulica":"Żabia","nrBud":"20"}},{"type":"Feature","geometry":{"type":"Point","coordinates":[19.99605,50.0172]},"properties":{"nr":"252","siedziba":"Szkoła Podstawowa z Oddziałami Integracyjnymi Nr 148","ulica":"Żabia","nrBud":"20"}},{"type":"Feature","geometry":{"type":"Point","coordinates":[20.00921,50.0134]},"properties":{"nr":"253","siedziba":"Zespół Szkolno-Przedszkolny Nr 19","ulica":"Jana Kurczaba","nrBud":"15"}},{"type":"Feature","geometry":{"type":"Point","coordinates":[20.00921,50.0134]},"properties":{"nr":"254","siedziba":"Zespół Szkolno-Przedszkolny Nr 19","ulica":"Jana Kurczaba","nrBud":"15"}},{"type":"Feature","geometry":{"type":"Point","coordinates":[20.00921,50.0134]},"properties":{"nr":"255","siedziba":"Zespół Szkolno-Przedszkolny Nr 19","ulica":"Jana Kurczaba","nrBud":"15"}},{"type":"Feature","geometry":{"type":"Point","coordinates":[20.00921,50.0134]},"properties":{"nr":"256","siedziba":"Zespół Szkolno-Przedszkolny Nr 19","ulica":"Jana Kurczaba","nrBud":"15"}},{"type":"Feature","geometry":{"type":"Point","coordinates":[20.00599,50.00632]},"properties":{"nr":"257","siedziba":"Zespół Szkolno-Przedszkolny Nr 10","ulica":"Ludwika Rydygiera","nrBud":"20"}},{"type":"Feature","geometry":{"type":"Point","coordinates":[20.00599,50.00632]},"properties":{"nr":"258","siedziba":"Zespół Szkolno-Przedszkolny Nr 10","ulica":"Ludwika Rydygiera","nrBud":"20"}},{"type":"Feature","geometry":{"type":"Point","coordinates":[20.01672,50.01246]},"properties":{"nr":"259","siedziba":"Zespół Szkolno-Przedszkolny Nr 11","ulica":"Aleksandry","nrBud":"17"}},{"type":"Feature","geometry":{"type":"Point","coordinates":[20.01672,50.01246]},"properties":{"nr":"260","siedziba":"Zespół Szkolno-Przedszkolny Nr 11","ulica":"Aleksandry","nrBud":"17"}},{"type":"Feature","geometry":{"type":"Point","coordinates":[20.01672,50.01246]},"properties":{"nr":"261","siedziba":"Zespół Szkolno-Przedszkolny Nr 11","ulica":"Aleksandry","nrBud":"17"}},{"type":"Feature","geometry":{"type":"Point","coordinates":[20.01672,50.01246]},"properties":{"nr":"262","siedziba":"Zespół Szkolno-Przedszkolny Nr 11","ulica":"Aleksandry","nrBud":"17"}},{"type":"Feature","geometry":{"type":"Point","coordinates":[20.01614,50.01993]},"properties":{"nr":"263","siedziba":"XXV Liceum Ogólnokształcące","ulica":"Telimeny","nrBud":"9"}},{"type":"Feature","geometry":{"type":"Point","coordinates":[20.01614,50.01993]},"properties":{"nr":"264","siedziba":"XXV Liceum Ogólnokształcące","ulica":"Telimeny","nrBud":"9"}},{"type":"Feature","geometry":{"type":"Point","coordinates":[20.02245,50.01903]},"properties":{"nr":"265","siedziba":"Szkoła Podstawowa Nr 111","ulica":"Bieżanowska","nrBud":"204"}},{"type":"Feature","geometry":{"type":"Point","coordinates":[20.0409,50.01441]},"properties":{"nr":"266","siedziba":"Szkoła Podstawowa Nr 124","ulica":"Ferdynanda Weigla","nrBud":"2"}},{"type":"Feature","geometry":{"type":"Point","coordinates":[20.0409,50.01441]},"properties":{"nr":"267","siedziba":"Szkoła Podstawowa Nr 124","ulica":"Ferdynanda Weigla","nrBud":"2"}},{"type":"Feature","geometry":{"type":"Point","coordinates":[20.0409,50.01441]},"properties":{"nr":"268","siedziba":"Szkoła Podstawowa Nr 124","ulica":"Ferdynanda Weigla","nrBud":"2"}},{"type":"Feature","geometry":{"type":"Point","coordinates":[20.04478,50.02297]},"properties":{"nr":"269","siedziba":"Szkoła Podstawowa Nr 20","ulica":"Agatowa","nrBud":"41"}},{"type":"Feature","geometry":{"type":"Point","coordinates":[20.04478,50.02297]},"properties":{"nr":"270","siedziba":"Szkoła Podstawowa Nr 20","ulica":"Agatowa","nrBud":"41"}},{"type":"Feature","geometry":{"type":"Point","coordinates":[20.0659,50.04419]},"properties":{"nr":"271","siedziba":"Zespół Szkolno-Przedszkolny Nr 20","ulica":"Feliksa Wrobela","nrBud":"79"}},{"type":"Feature","geometry":{"type":"Point","coordinates":[20.03383,50.04592]},"properties":{"nr":"272","siedziba":"Zespół Szkolno-Przedszkolny Nr 21","ulica":"Golikówka","nrBud":"52"}},{"type":"Feature","geometry":{"type":"Point","coordinates":[19.99225,50.03712]},"properties":{"nr":"273","siedziba":"Zespół Szkolno-Przedszkolny Nr 15","ulica":"Seweryna Goszczyńskiego","nrBud":"44"}},{"type":"Feature","geometry":{"type":"Point","coordinates":[19.99225,50.03712]},"properties":{"nr":"274","siedziba":"Zespół Szkolno-Przedszkolny Nr 15","ulica":"Seweryna Goszczyńskiego","nrBud":"44"}},{"type":"Feature","geometry":{"type":"Point","coordinates":[19.99248,50.04568]},"properties":{"nr":"275","siedziba":"Zespół Szkolno-Przedszkolny Nr 1","ulica":"Myśliwska","nrBud":"64"}},{"type":"Feature","geometry":{"type":"Point","coordinates":[19.99248,50.04568]},"properties":{"nr":"276","siedziba":"Zespół Szkolno-Przedszkolny Nr 1","ulica":"Myśliwska","nrBud":"64"}},{"type":"Feature","geometry":{"type":"Point","coordinates":[19.99248,50.04568]},"properties":{"nr":"277","siedziba":"Zespół Szkolno-Przedszkolny Nr 1","ulica":"Myśliwska","nrBud":"64"}},{"type":"Feature","geometry":{"type":"Point","coordinates":[19.99248,50.04568]},"properties":{"nr":"278","siedziba":"Zespół Szkolno-Przedszkolny Nr 1","ulica":"Myśliwska","nrBud":"64"}},{"type":"Feature","geometry":{"type":"Point","coordinates":[19.98343,50.04337]},"properties":{"nr":"279","siedziba":"Samorządowe Przedszkole Nr 11","ulica":"Saska","nrBud":"11"}},{"type":"Feature","geometry":{"type":"Point","coordinates":[19.98343,50.04337]},"properties":{"nr":"280","siedziba":"Samorządowe Przedszkole Nr 11","ulica":"Saska","nrBud":"11"}},{"type":"Feature","geometry":{"type":"Point","coordinates":[19.96631,50.03877]},"properties":{"nr":"281","siedziba":"Urząd Miasta Krakowa","ulica":"Wielicka","nrBud":"28A"}},{"type":"Feature","geometry":{"type":"Point","coordinates":[19.9681,50.03392]},"properties":{"nr":"282","siedziba":"Przedsiębiorstwo KSTU Krakowskie Centrum Terapii Uzależnień","ulica":"Wielicka","nrBud":"73"}},{"type":"Feature","geometry":{"type":"Point","coordinates":[19.9551,50.0419]},"properties":{"nr":"283","siedziba":"Szkoła Podstawowa Nr 29","ulica":"Edwarda Dembowskiego","nrBud":"12"}},{"type":"Feature","geometry":{"type":"Point","coordinates":[19.9412641,50.0325468]},"properties":{"nr":"284","siedziba":"Urząd Miasta Krakowa","ulica":"Wadowicka","nrBud":"8W"}},{"type":"Feature","geometry":{"type":"Point","coordinates":[19.94268,50.03637]},"properties":{"nr":"285","siedziba":"Specjalny Ośrodek Szkolno-Wychowawczy Nr 2 im. J. Korczaka","ulica":"Jana Zamoyskiego","nrBud":"100"}},{"type":"Feature","geometry":{"type":"Point","coordinates":[19.93925,50.0401]},"properties":{"nr":"286","siedziba":"Szkoła Podstawowa Nr 26","ulica":"Ignacego Krasickiego","nrBud":"34"}},{"type":"Feature","geometry":{"type":"Point","coordinates":[19.93925,50.0401]},"properties":{"nr":"287","siedziba":"Szkoła Podstawowa Nr 26","ulica":"Ignacego Krasickiego","nrBud":"34"}},{"type":"Feature","geometry":{"type":"Point","coordinates":[19.94986,50.04474]},"properties":{"nr":"288","siedziba":"Urząd Miasta Krakowa","ulica":"Rynek Podgórski","nrBud":"1"}},{"type":"Feature","geometry":{"type":"Point","coordinates":[19.95001,50.04585]},"properties":{"nr":"289","siedziba":"Szkoła Muzyczna I i II Stopnia","ulica":"Józefińska","nrBud":"10"}},{"type":"Feature","geometry":{"type":"Point","coordinates":[19.95905,50.04342]},"properties":{"nr":"290","siedziba":"XLIII Liceum Ogólnokształcące","ulica":"Bolesława Limanowskiego","nrBud":"60-62"}},{"type":"Feature","geometry":{"type":"Point","coordinates":[19.95905,50.04342]},"properties":{"nr":"291","siedziba":"XLIII Liceum Ogólnokształcące","ulica":"Bolesława Limanowskiego","nrBud":"60-62"}},{"type":"Feature","geometry":{"type":"Point","coordinates":[19.96697,50.0502]},"properties":{"nr":"292","siedziba":"Urząd Miasta Krakowa","ulica":"Zabłocie","nrBud":"22"}},{"type":"Feature","geometry":{"type":"Point","coordinates":[20.01377,50.06896]},"properties":{"nr":"293","siedziba":"Szkoła Podstawowa Nr 156","ulica":"Centralna","nrBud":"39"}},{"type":"Feature","geometry":{"type":"Point","coordinates":[20.01377,50.06896]},"properties":{"nr":"294","siedziba":"Szkoła Podstawowa Nr 156","ulica":"Centralna","nrBud":"39"}},{"type":"Feature","geometry":{"type":"Point","coordinates":[20.01377,50.06896]},"properties":{"nr":"295","siedziba":"Szkoła Podstawowa Nr 156","ulica":"Centralna","nrBud":"39"}},{"type":"Feature","geometry":{"type":"Point","coordinates":[20.01377,50.06896]},"properties":{"nr":"296","siedziba":"Szkoła Podstawowa Nr 156","ulica":"Centralna","nrBud":"39"}},{"type":"Feature","geometry":{"type":"Point","coordinates":[20.02256,50.07583]},"properties":{"nr":"297","siedziba":"Szkoła Podstawowa Nr 103","ulica":"Kolorowe","nrBud":"29"}},{"type":"Feature","geometry":{"type":"Point","coordinates":[20.02256,50.07583]},"properties":{"nr":"298","siedziba":"Szkoła Podstawowa Nr 103","ulica":"Kolorowe","nrBud":"29"}},{"type":"Feature","geometry":{"type":"Point","coordinates":[19.98643,50.07455]},"properties":{"nr":"299","siedziba":"Zespół Szkół Nr 1","ulica":"Ułanów","nrBud":"3"}},{"type":"Feature","geometry":{"type":"Point","coordinates":[20.00857,50.07886]},"properties":{"nr":"300","siedziba":"Szkoła Podstawowa Nr 155","ulica":"2 Pułku Lotniczego","nrBud":"21"}},{"type":"Feature","geometry":{"type":"Point","coordinates":[20.00857,50.07886]},"properties":{"nr":"301","siedziba":"Szkoła Podstawowa Nr 155","ulica":"2 Pułku Lotniczego","nrBud":"21"}},{"type":"Feature","geometry":{"type":"Point","coordinates":[20.00857,50.07886]},"properties":{"nr":"302","siedziba":"Szkoła Podstawowa Nr 155","ulica":"2 Pułku Lotniczego","nrBud":"21"}},{"type":"Feature","geometry":{"type":"Point","coordinates":[20.00857,50.07886]},"properties":{"nr":"303","siedziba":"Szkoła Podstawowa Nr 155","ulica":"2 Pułku Lotniczego","nrBud":"21"}},{"type":"Feature","geometry":{"type":"Point","coordinates":[20.00625,50.08347]},"properties":{"nr":"304","siedziba":"XXX Liceum Ogólnokształcące","ulica":"Dywizjonu 303","nrBud":"66"}},{"type":"Feature","geometry":{"type":"Point","coordinates":[20.00625,50.08347]},"properties":{"nr":"305","siedziba":"XXX Liceum Ogólnokształcące","ulica":"Dywizjonu 303","nrBud":"66"}},{"type":"Feature","geometry":{"type":"Point","coordinates":[20.00625,50.08347]},"properties":{"nr":"306","siedziba":"XXX Liceum Ogólnokształcące","ulica":"Dywizjonu 303","nrBud":"66"}},{"type":"Feature","geometry":{"type":"Point","coordinates":[20.00625,50.08347]},"properties":{"nr":"307","siedziba":"XXX Liceum Ogólnokształcące","ulica":"Dywizjonu 303","nrBud":"66"}},{"type":"Feature","geometry":{"type":"Point","coordinates":[20.00625,50.08347]},"properties":{"nr":"308","siedziba":"XXX Liceum Ogólnokształcące","ulica":"Dywizjonu 303","nrBud":"66"}},{"type":"Feature","geometry":{"type":"Point","coordinates":[19.9964,50.08404]},"properties":{"nr":"309","siedziba":"Międzynarodowe Centrum Kształcenia","ulica":"Stanisława Skarżyńskiego","nrBud":"1"}},{"type":"Feature","geometry":{"type":"Point","coordinates":[19.98986,50.09025]},"properties":{"nr":"310","siedziba":"Zespół Szkolno-Przedszkolny Nr 5","ulica":"Oświecenia","nrBud":"30"}},{"type":"Feature","geometry":{"type":"Point","coordinates":[19.98986,50.09025]},"properties":{"nr":"311","siedziba":"Zespół Szkolno-Przedszkolny Nr 5","ulica":"Oświecenia","nrBud":"30"}},{"type":"Feature","geometry":{"type":"Point","coordinates":[19.98986,50.09025]},"properties":{"nr":"312","siedziba":"Zespół Szkolno-Przedszkolny Nr 5","ulica":"Oświecenia","nrBud":"30"}},{"type":"Feature","geometry":{"type":"Point","coordinates":[19.98986,50.09025]},"properties":{"nr":"313","siedziba":"Zespół Szkolno-Przedszkolny Nr 5","ulica":"Oświecenia","nrBud":"30"}},{"type":"Feature","geometry":{"type":"Point","coordinates":[19.99926,50.09208]},"properties":{"nr":"314","siedziba":"Szkoła Podstawowa Nr 126","ulica":"Tysiąclecia","nrBud":"57"}},{"type":"Feature","geometry":{"type":"Point","coordinates":[19.99926,50.09208]},"properties":{"nr":"315","siedziba":"Szkoła Podstawowa Nr 126","ulica":"Tysiąclecia","nrBud":"57"}},{"type":"Feature","geometry":{"type":"Point","coordinates":[20.00203,50.09137]},"properties":{"nr":"316","siedziba":"Młodzieżowy Dom Kultury im. A. Bursy","ulica":"Tysiąclecia","nrBud":"15"}},{"type":"Feature","geometry":{"type":"Point","coordinates":[20.00203,50.09137]},"properties":{"nr":"317","siedziba":"Młodzieżowy Dom Kultury im. A. Bursy","ulica":"Tysiąclecia","nrBud":"15"}},{"type":"Feature","geometry":{"type":"Point","coordinates":[20.008,50.09265]},"properties":{"nr":"318","siedziba":"Samorządowe Przedszkole Nr 177","ulica":"Kombatantów","nrBud":"13"}},{"type":"Feature","geometry":{"type":"Point","coordinates":[20.00136,50.09692]},"properties":{"nr":"319","siedziba":"Klub Kuźnia Ośrodka Kultury im. C. K. Norwida","ulica":"Złotego Wieku","nrBud":"14"}},{"type":"Feature","geometry":{"type":"Point","coordinates":[20.00136,50.09692]},"properties":{"nr":"320","siedziba":"Klub Kuźnia Ośrodka Kultury im. C. K. Norwida","ulica":"Złotego Wieku","nrBud":"14"}},{"type":"Feature","geometry":{"type":"Point","coordinates":[19.99995,50.0976]},"properties":{"nr":"321","siedziba":"Szkoła Podstawowa Nr 85","ulica":"Złotego Wieku","nrBud":"4"}},{"type":"Feature","geometry":{"type":"Point","coordinates":[19.99995,50.0976]},"properties":{"nr":"322","siedziba":"Szkoła Podstawowa Nr 85","ulica":"Złotego Wieku","nrBud":"4"}},{"type":"Feature","geometry":{"type":"Point","coordinates":[20.00368,50.09765]},"properties":{"nr":"323","siedziba":"Szkoła Podstawowa z Oddziałami Integracyjnymi Nr 77","ulica":"Złotego Wieku","nrBud":"36"}},{"type":"Feature","geometry":{"type":"Point","coordinates":[20.00368,50.09765]},"properties":{"nr":"324","siedziba":"Szkoła Podstawowa z Oddziałami Integracyjnymi Nr 77","ulica":"Złotego Wieku","nrBud":"36"}},{"type":"Feature","geometry":{"type":"Point","coordinates":[20.00794,50.09794]},"properties":{"nr":"325","siedziba":"Szkoła Podstawowa z Oddziałami Integracyjnymi Nr 144","ulica":"Bohaterów Września","nrBud":"13"}},{"type":"Feature","geometry":{"type":"Point","coordinates":[20.00794,50.09794]},"properties":{"nr":"326","siedziba":"Szkoła Podstawowa z Oddziałami Integracyjnymi Nr 144","ulica":"Bohaterów Września","nrBud":"13"}},{"type":"Feature","geometry":{"type":"Point","coordinates":[20.00794,50.09794]},"properties":{"nr":"327","siedziba":"Szkoła Podstawowa z Oddziałami Integracyjnymi Nr 144","ulica":"Bohaterów Września","nrBud":"13"}},{"type":"Feature","geometry":{"type":"Point","coordinates":[20.00794,50.09794]},"properties":{"nr":"328","siedziba":"Szkoła Podstawowa z Oddziałami Integracyjnymi Nr 144","ulica":"Bohaterów Września","nrBud":"13"}},{"type":"Feature","geometry":{"type":"Point","coordinates":[20.01798,50.09987]},"properties":{"nr":"329","siedziba":"Szkoła Podstawowa Nr 89","ulica":"Piastów","nrBud":"34A"}},{"type":"Feature","geometry":{"type":"Point","coordinates":[20.01798,50.09987]},"properties":{"nr":"330","siedziba":"Szkoła Podstawowa Nr 89","ulica":"Piastów","nrBud":"34A"}},{"type":"Feature","geometry":{"type":"Point","coordinates":[20.01798,50.09987]},"properties":{"nr":"331","siedziba":"Szkoła Podstawowa Nr 89","ulica":"Piastów","nrBud":"34A"}},{"type":"Feature","geometry":{"type":"Point","coordinates":[20.01798,50.09987]},"properties":{"nr":"332","siedziba":"Szkoła Podstawowa Nr 89","ulica":"Piastów","nrBud":"34A"}},{"type":"Feature","geometry":{"type":"Point","coordinates":[20.01827,50.09869]},"properties":{"nr":"333","siedziba":"Publiczne Salezjańskie Liceum Ogólnokształcące","ulica":"Piastów","nrBud":"34"}},{"type":"Feature","geometry":{"type":"Point","coordinates":[20.01827,50.09869]},"properties":{"nr":"334","siedziba":"Publiczne Salezjańskie Liceum Ogólnokształcące","ulica":"Piastów","nrBud":"34"}},{"type":"Feature","geometry":{"type":"Point","coordinates":[20.01827,50.09869]},"properties":{"nr":"335","siedziba":"Publiczne Salezjańskie Liceum Ogólnokształcące","ulica":"Piastów","nrBud":"34"}},{"type":"Feature","geometry":{"type":"Point","coordinates":[20.02341,50.09057]},"properties":{"nr":"336","siedziba":"Zespół Szkół Zawodowych Huty im. T. Sendzimira","ulica":"Złotej Jesieni","nrBud":"2"}},{"type":"Feature","geometry":{"type":"Point","coordinates":[20.02341,50.09057]},"properties":{"nr":"337","siedziba":"Zespół Szkół Zawodowych Huty im. T. Sendzimira","ulica":"Złotej Jesieni","nrBud":"2"}},{"type":"Feature","geometry":{"type":"Point","coordinates":[20.02358,50.08828]},"properties":{"nr":"338","siedziba":"Szkoła Podstawowa Nr 101","ulica":"Jagiellońskie","nrBud":"9"}},{"type":"Feature","geometry":{"type":"Point","coordinates":[20.02358,50.08828]},"properties":{"nr":"339","siedziba":"Szkoła Podstawowa Nr 101","ulica":"Jagiellońskie","nrBud":"9"}},{"type":"Feature","geometry":{"type":"Point","coordinates":[20.02358,50.08828]},"properties":{"nr":"340","siedziba":"Szkoła Podstawowa Nr 101","ulica":"Jagiellońskie","nrBud":"9"}},{"type":"Feature","geometry":{"type":"Point","coordinates":[20.02358,50.08828]},"properties":{"nr":"341","siedziba":"Szkoła Podstawowa Nr 101","ulica":"Jagiellońskie","nrBud":"9"}},{"type":"Feature","geometry":{"type":"Point","coordinates":[20.01827,50.08902]},"properties":{"nr":"342","siedziba":"III Liceum Ogólnokształcące","ulica":"Wysokie","nrBud":"6"}},{"type":"Feature","geometry":{"type":"Point","coordinates":[20.01668,50.0893]},"properties":{"nr":"343","siedziba":"Szkoła Podstawowa Nr 104","ulica":"Wysokie","nrBud":"7"}},{"type":"Feature","geometry":{"type":"Point","coordinates":[20.01668,50.0893]},"properties":{"nr":"344","siedziba":"Szkoła Podstawowa Nr 104","ulica":"Wysokie","nrBud":"7"}},{"type":"Feature","geometry":{"type":"Point","coordinates":[20.01253,50.09132]},"properties":{"nr":"345","siedziba":"Szkoła Podstawowa Nr 82","ulica":"Kalinowe","nrBud":"17"}},{"type":"Feature","geometry":{"type":"Point","coordinates":[20.01253,50.09132]},"properties":{"nr":"346","siedziba":"Szkoła Podstawowa Nr 82","ulica":"Kalinowe","nrBud":"17"}},{"type":"Feature","geometry":{"type":"Point","coordinates":[20.00919,50.09019]},"properties":{"nr":"347","siedziba":"Szkoła Podstawowa Nr 92","ulica":"Józefa Strusia","nrBud":"19"}},{"type":"Feature","geometry":{"type":"Point","coordinates":[20.00919,50.09019]},"properties":{"nr":"348","siedziba":"Szkoła Podstawowa Nr 92","ulica":"Józefa Strusia","nrBud":"19"}},{"type":"Feature","geometry":{"type":"Point","coordinates":[20.01332,50.08343]},"properties":{"nr":"349","siedziba":"Publiczna Szkoła Podstawowa Sióstr Salezjanek im. Błogosławionej Laury Vicuna","ulica":"Kościuszkowskie","nrBud":"7"}},{"type":"Feature","geometry":{"type":"Point","coordinates":[20.01962,50.08094]},"properties":{"nr":"350","siedziba":"Szkoła Podstawowa Nr 100","ulica":"Albertyńskie","nrBud":"36"}},{"type":"Feature","geometry":{"type":"Point","coordinates":[20.01962,50.08094]},"properties":{"nr":"351","siedziba":"Szkoła Podstawowa Nr 100","ulica":"Albertyńskie","nrBud":"36"}},{"type":"Feature","geometry":{"type":"Point","coordinates":[20.01962,50.08094]},"properties":{"nr":"352","siedziba":"Szkoła Podstawowa Nr 100","ulica":"Albertyńskie","nrBud":"36"}},{"type":"Feature","geometry":{"type":"Point","coordinates":[20.02084,50.07982]},"properties":{"nr":"353","siedziba":"Szkoła Podstawowa im. Bogdana Jańskiego w Krakowie","ulica":"Niepodległości","nrBud":"19"}},{"type":"Feature","geometry":{"type":"Point","coordinates":[20.02084,50.07982]},"properties":{"nr":"354","siedziba":"Szkoła Podstawowa im. Bogdana Jańskiego w Krakowie","ulica":"Niepodległości","nrBud":"19"}},{"type":"Feature","geometry":{"type":"Point","coordinates":[20.02753,50.08493]},"properties":{"nr":"355","siedziba":"Szkoła Podstawowa Nr 86","ulica":"Jagiellońskie","nrBud":"18"}},{"type":"Feature","geometry":{"type":"Point","coordinates":[20.02753,50.08493]},"properties":{"nr":"356","siedziba":"Szkoła Podstawowa Nr 86","ulica":"Jagiellońskie","nrBud":"18"}},{"type":"Feature","geometry":{"type":"Point","coordinates":[20.02753,50.08493]},"properties":{"nr":"357","siedziba":"Szkoła Podstawowa Nr 86","ulica":"Jagiellońskie","nrBud":"18"}},{"type":"Feature","geometry":{"type":"Point","coordinates":[20.03068,50.08402]},"properties":{"nr":"358","siedziba":"Zespół Szkół Gastronomicznych Nr 1","ulica":"Złotej Jesieni","nrBud":"16"}},{"type":"Feature","geometry":{"type":"Point","coordinates":[20.03068,50.08402]},"properties":{"nr":"359","siedziba":"Zespół Szkół Gastronomicznych Nr 1","ulica":"Złotej Jesieni","nrBud":"16"}},{"type":"Feature","geometry":{"type":"Point","coordinates":[20.05246,50.09512]},"properties":{"nr":"360","siedziba":"Oddziały Szkoły Podstawowej Nr 129","ulica":"Na Stoku","nrBud":"34"}},{"type":"Feature","geometry":{"type":"Point","coordinates":[20.05246,50.09512]},"properties":{"nr":"361","siedziba":"Oddziały Szkoły Podstawowej Nr 129","ulica":"Na Stoku","nrBud":"34"}},{"type":"Feature","geometry":{"type":"Point","coordinates":[20.05246,50.09512]},"properties":{"nr":"362","siedziba":"Oddziały Szkoły Podstawowej Nr 129","ulica":"Na Stoku","nrBud":"34"}},{"type":"Feature","geometry":{"type":"Point","coordinates":[20.05539,50.09204]},"properties":{"nr":"363","siedziba":"Szkoła Podstawowa z Oddziałami Integracyjnymi Nr 98","ulica":"Na Stoku","nrBud":"52"}},{"type":"Feature","geometry":{"type":"Point","coordinates":[20.06014,50.09736]},"properties":{"nr":"364","siedziba":"Szkoła Podstawowa Nr 129","ulica":"Na Wzgórzach","nrBud":"13A"}},{"type":"Feature","geometry":{"type":"Point","coordinates":[20.06014,50.09736]},"properties":{"nr":"365","siedziba":"Szkoła Podstawowa Nr 129","ulica":"Na Wzgórzach","nrBud":"13A"}},{"type":"Feature","geometry":{"type":"Point","coordinates":[20.05798,50.11239]},"properties":{"nr":"366","siedziba":"Ośrodek Kultury Kraków-Nowa Huta, Klub Zakole","ulica":"Zakole","nrBud":"31"}},{"type":"Feature","geometry":{"type":"Point","coordinates":[20.07349,50.09958]},"properties":{"nr":"367","siedziba":"Ośrodek Kultury Kraków Nowa Huta Klub Dukat","ulica":"Styczna","nrBud":"1"}},{"type":"Feature","geometry":{"type":"Point","coordinates":[20.12358,50.09987]},"properties":{"nr":"368","siedziba":"Szkoła Podstawowa Nr 78","ulica":"Jaskrowa","nrBud":"5"}},{"type":"Feature","geometry":{"type":"Point","coordinates":[20.09444,50.09565]},"properties":{"nr":"369","siedziba":"Oddziały Szkoły Podstawowej Nr 78","ulica":"Łuczanowicka","nrBud":"2A"}},{"type":"Feature","geometry":{"type":"Point","coordinates":[20.05669,50.08059]},"properties":{"nr":"370","siedziba":"Ośrodek Kultury Kraków Nowa Huta Klub Krzesławice","ulica":"Melchiora Wańkowicza","nrBud":"17"}},{"type":"Feature","geometry":{"type":"Point","coordinates":[20.0475,50.07562]},"properties":{"nr":"371","siedziba":"Młodzieżowy Dom Kultury im. J. Korczaka","ulica":"Szkolne","nrBud":"5"}},{"type":"Feature","geometry":{"type":"Point","coordinates":[20.04895,50.0775]},"properties":{"nr":"372","siedziba":"Zespół Szkół Elektrycznych Nr 2","ulica":"Szkolne","nrBud":"26"}},{"type":"Feature","geometry":{"type":"Point","coordinates":[20.04161,50.07594]},"properties":{"nr":"373","siedziba":"Szkoła Podstawowa Nr 88","ulica":"Szklane Domy","nrBud":"2"}},{"type":"Feature","geometry":{"type":"Point","coordinates":[20.04161,50.07594]},"properties":{"nr":"374","siedziba":"Szkoła Podstawowa Nr 88","ulica":"Szklane Domy","nrBud":"2"}},{"type":"Feature","geometry":{"type":"Point","coordinates":[20.04198,50.07806]},"properties":{"nr":"375","siedziba":"Szkoła Podstawowa z Oddziałami Integracyjnymi Nr 105","ulica":"Słoneczne","nrBud":"12"}},{"type":"Feature","geometry":{"type":"Point","coordinates":[20.04738,50.07984]},"properties":{"nr":"376","siedziba":"Zespół Szkół Zawodowych Nr 2","ulica":"Szkolne","nrBud":"18"}},{"type":"Feature","geometry":{"type":"Point","coordinates":[20.04694,50.0818]},"properties":{"nr":"377","siedziba":"Publiczne Liceum Ogólnokształcące im. Królowej Apostołów w Krakowie","ulica":"Bulwarowa","nrBud":"33"}},{"type":"Feature","geometry":{"type":"Point","coordinates":[20.04003,50.08166]},"properties":{"nr":"378","siedziba":"Szkoła Podstawowa im. św. Wincentego Pallottiego","ulica":"Krakowiaków","nrBud":"47"}},{"type":"Feature","geometry":{"type":"Point","coordinates":[20.04003,50.08166]},"properties":{"nr":"379","siedziba":"Szkoła Podstawowa im. św. Wincentego Pallottiego","ulica":"Krakowiaków","nrBud":"47"}},{"type":"Feature","geometry":{"type":"Point","coordinates":[20.03637,50.07976]},"properties":{"nr":"380","siedziba":"Ośrodek Kultury im. C. K. Norwida","ulica":"Górali","nrBud":"5"}},{"type":"Feature","geometry":{"type":"Point","coordinates":[20.03419,50.07998]},"properties":{"nr":"381","siedziba":"Zespół Szkół Ogólnokształcących Sportowych Nr 2","ulica":"Teatralne","nrBud":"35"}},{"type":"Feature","geometry":{"type":"Point","coordinates":[20.03419,50.07998]},"properties":{"nr":"382","siedziba":"Zespół Szkół Ogólnokształcących Sportowych Nr 2","ulica":"Teatralne","nrBud":"35"}},{"type":"Feature","geometry":{"type":"Point","coordinates":[20.03249,50.08074]},"properties":{"nr":"383","siedziba":"XI Liceum Ogólnokształcące","ulica":"Teatralne","nrBud":"33"}},{"type":"Feature","geometry":{"type":"Point","coordinates":[20.02523,50.07765]},"properties":{"nr":"384","siedziba":"Zespół Szkół Ekonomicznych Nr 2","ulica":"Spółdzielcze","nrBud":"6"}},{"type":"Feature","geometry":{"type":"Point","coordinates":[20.02256,50.07583]},"properties":{"nr":"385","siedziba":"Szkoła Podstawowa Nr 103","ulica":"Kolorowe","nrBud":"29"}},{"type":"Feature","geometry":{"type":"Point","coordinates":[20.02256,50.07583]},"properties":{"nr":"386","siedziba":"Szkoła Podstawowa Nr 103","ulica":"Kolorowe","nrBud":"29"}},{"type":"Feature","geometry":{"type":"Point","coordinates":[20.03088,50.07382]},"properties":{"nr":"387","siedziba":"Szkoła Podstawowa Nr 91","ulica":"Handlowe","nrBud":"4"}},{"type":"Feature","geometry":{"type":"Point","coordinates":[20.03088,50.07382]},"properties":{"nr":"388","siedziba":"Szkoła Podstawowa Nr 91","ulica":"Handlowe","nrBud":"4"}},{"type":"Feature","geometry":{"type":"Point","coordinates":[20.03088,50.07382]},"properties":{"nr":"389","siedziba":"Szkoła Podstawowa Nr 91","ulica":"Handlowe","nrBud":"4"}},{"type":"Feature","geometry":{"type":"Point","coordinates":[20.03088,50.07382]},"properties":{"nr":"390","siedziba":"Szkoła Podstawowa Nr 91","ulica":"Handlowe","nrBud":"4"}},{"type":"Feature","geometry":{"type":"Point","coordinates":[20.0418,50.07261]},"properties":{"nr":"391","siedziba":"Ośrodek Kultury Kraków Nowa Huta Klub Jędruś","ulica":"Centrum A","nrBud":"6A"}},{"type":"Feature","geometry":{"type":"Point","coordinates":[20.04297,50.06977]},"properties":{"nr":"392","siedziba":"Szkoła Podstawowa Nr 80","ulica":"Na Skarpie","nrBud":"8"}},{"type":"Feature","geometry":{"type":"Point","coordinates":[20.04297,50.06977]},"properties":{"nr":"393","siedziba":"Szkoła Podstawowa Nr 80","ulica":"Na Skarpie","nrBud":"8"}},{"type":"Feature","geometry":{"type":"Point","coordinates":[20.04297,50.06977]},"properties":{"nr":"394","siedziba":"Szkoła Podstawowa Nr 80","ulica":"Na Skarpie","nrBud":"8"}},{"type":"Feature","geometry":{"type":"Point","coordinates":[20.04297,50.06977]},"properties":{"nr":"395","siedziba":"Szkoła Podstawowa Nr 80","ulica":"Na Skarpie","nrBud":"8"}},{"type":"Feature","geometry":{"type":"Point","coordinates":[20.04684,50.072]},"properties":{"nr":"396","siedziba":"XVI Liceum Ogólnokształcące","ulica":"Willowe","nrBud":"1"}},{"type":"Feature","geometry":{"type":"Point","coordinates":[20.04684,50.072]},"properties":{"nr":"397","siedziba":"XVI Liceum Ogólnokształcące","ulica":"Willowe","nrBud":"1"}},{"type":"Feature","geometry":{"type":"Point","coordinates":[20.05293,50.07327]},"properties":{"nr":"398","siedziba":"Szkoła Podstawowa Nr 37","ulica":"Stalowe","nrBud":"18"}},{"type":"Feature","geometry":{"type":"Point","coordinates":[20.05293,50.07327]},"properties":{"nr":"399","siedziba":"Szkoła Podstawowa Nr 37","ulica":"Stalowe","nrBud":"18"}},{"type":"Feature","geometry":{"type":"Point","coordinates":[20.05528,50.06877]},"properties":{"nr":"400","siedziba":"Zespół Szkół Specjalnych Nr 6","ulica":"Tadeusza Ptaszyckiego","nrBud":"9"}},{"type":"Feature","geometry":{"type":"Point","coordinates":[20.11043,50.06936]},"properties":{"nr":"401","siedziba":"Towarzystwo Przyjaciół Ziemi Pleszowskiej Świetlica Osiedlowa","ulica":"Nadbrzezie","nrBud":"18"}},{"type":"Feature","geometry":{"type":"Point","coordinates":[20.14236,50.05981]},"properties":{"nr":"402","siedziba":"Szkoła Podstawowa Nr 74","ulica":"Branicka","nrBud":"26"}},{"type":"Feature","geometry":{"type":"Point","coordinates":[20.15719,50.06978]},"properties":{"nr":"403","siedziba":"Zespół Szkolno-Przedszkolny Nr 9","ulica":"Romana Prawocheńskiego","nrBud":"7"}},{"type":"Feature","geometry":{"type":"Point","coordinates":[20.17854,50.09874]},"properties":{"nr":"404","siedziba":"Szkoła Podstawowa Nr 141","ulica":"Józefa Sawy-Calińskiego","nrBud":"12"}},{"type":"Feature","geometry":{"type":"Point","coordinates":[20.19478,50.0556]},"properties":{"nr":"405","siedziba":"Szkoła Podstawowa Nr 142","ulica":"Drożyska","nrBud":"13"}},{"type":"Feature","geometry":{"type":"Point","coordinates":[19.89604,49.99791]},"properties":{"nr":"406","siedziba":"Szkoła Podstawowa Nr 14","ulica":"Profesora Wojciecha Marii Bartla","nrBud":"29"}},{"type":"Feature","geometry":{"type":"Point","coordinates":[19.87378,50.01668]},"properties":{"nr":"407","siedziba":"Zespół Szkolno-Przedszkolny Nr 7","ulica":"Skotnicka","nrBud":"86"}},{"type":"Feature","geometry":{"type":"Point","coordinates":[20.04478,50.02297]},"properties":{"nr":"408","siedziba":"Szkoła Podstawowa Nr 20","ulica":"Agatowa","nrBud":"41"}},{"type":"Feature","geometry":{"type":"Point","coordinates":[19.88198,50.08443]},"properties":{"nr":"409","siedziba":"Szkoła Podstawowa Nr 50","ulica":"Katowicka","nrBud":"28"}},{"type":"Feature","geometry":{"type":"Point","coordinates":[20.00857,50.07886]},"properties":{"nr":"410","siedziba":"Szkoła Podstawowa Nr 155","ulica":"2 Pułku Lotniczego","nrBud":"21"}},{"type":"Feature","geometry":{"type":"Point","coordinates":[20.05798,50.11239]},"properties":{"nr":"411","siedziba":"Ośrodek Kultury Kraków-Nowa Huta, Klub Zakole","ulica":"Zakole","nrBud":"31"}},{"type":"Feature","geometry":{"type":"Point","coordinates":[19.90579,50.10708]},"properties":{"nr":"412","siedziba":"Szkoła Podstawowa Nr 67","ulica":"Kaczorówka","nrBud":"4"}},{"type":"Feature","geometry":{"type":"Point","coordinates":[19.94515,50.04753]},"properties":{"nr":"413","siedziba":"Bonifraterskie Centrum Medyczne sp. z o.o. w Krakowie","ulica":"Trynitarska","nrBud":"11"}},{"type":"Feature","geometry":{"type":"Point","coordinates":[19.94368,50.04625]},"properties":{"nr":"414","siedziba":"Dom Pomocy Społecznej","ulica":"Krakowska","nrBud":"55"}},{"type":"Feature","geometry":{"type":"Point","coordinates":[19.92723,50.06144]},"properties":{"nr":"415","siedziba":"Narodowy Instytut Onkologii im. M. Skłodowskiej-Curie-Państwowy Instytut Badawczy Oddział w Krakowie","ulica":"Garncarska","nrBud":"11"}},{"type":"Feature","geometry":{"type":"Point","coordinates":[19.92681,50.06349]},"properties":{"nr":"416","siedziba":"Szpital Specjalistyczny im. J. Dietla w Krakowie","ulica":"Skarbowa","nrBud":"1"}},{"type":"Feature","geometry":{"type":"Point","coordinates":[19.9321259,50.0694206]},"properties":{"nr":"417","siedziba":"NZOZ Szpital na Siemiradzkiego im. R. Czerwiakowskiego sp. z o.o.","ulica":"Henryka Siemiradzkiego","nrBud":"1"}},{"type":"Feature","geometry":{"type":"Point","coordinates":[19.93756,50.07253]},"properties":{"nr":"418","siedziba":"Dom Pomocy Społecznej im. Ludwika i Anny Helclów w Krakowie","ulica":"Helclów","nrBud":"2"}},{"type":"Feature","geometry":{"type":"Point","coordinates":[19.93987,50.07388]},"properties":{"nr":"419","siedziba":"Areszt Śledczy w Krakowie","ulica":"Montelupich","nrBud":"7"}},{"type":"Feature","geometry":{"type":"Point","coordinates":[19.94942,50.06071]},"properties":{"nr":"420","siedziba":"Zakład Opiekuńczo-Leczniczy prowadzony przez Zgromadzenie Sióstr Felicjanek","ulica":"Hugona Kołłątaja","nrBud":"7"}},{"type":"Feature","geometry":{"type":"Point","coordinates":[19.95479,50.06351]},"properties":{"nr":"421","siedziba":"SP ZOZ Szpital Uniwersytecki w Krakowie","ulica":"Mikołaja Kopernika","nrBud":"23"}},{"type":"Feature","geometry":{"type":"Point","coordinates":[19.98041,50.09564]},"properties":{"nr":"422","siedziba":"Dom Pomocy Społecznej","ulica":"Rozrywka","nrBud":"1"}},{"type":"Feature","geometry":{"type":"Point","coordinates":[19.9388,50.09019]},"properties":{"nr":"423","siedziba":"Krakowski Szpital Specjalistyczny im. św. Jana Pawła II","ulica":"Prądnicka","nrBud":"80"}},{"type":"Feature","geometry":{"type":"Point","coordinates":[19.93804,50.08301]},"properties":{"nr":"424","siedziba":"Szpital Miejski Specjalistyczny im. Gabriela Narutowicza w Krakowie","ulica":"Prądnicka","nrBud":"35-37"}},{"type":"Feature","geometry":{"type":"Point","coordinates":[19.93508,50.09284]},"properties":{"nr":"425","siedziba":"Dom Pomocy Społecznej","ulica":"Piotra Kluzeka","nrBud":"6"}},{"type":"Feature","geometry":{"type":"Point","coordinates":[19.93435,50.0752]},"properties":{"nr":"426","siedziba":"5 Wojskowy Szpital Kliniczny z Polikliniką SP ZOZ w Krakowie","ulica":"Wrocławska","nrBud":"1-3"}},{"type":"Feature","geometry":{"type":"Point","coordinates":[19.91315,50.07191]},"properties":{"nr":"427","siedziba":"SP ZOZ Ministerstwa Spraw Wewnętrznych i Administracji w Krakowie","ulica":"Kronikarza Galla","nrBud":"25"}},{"type":"Feature","geometry":{"type":"Point","coordinates":[19.9137,50.05753]},"properties":{"nr":"428","siedziba":"Szpital Specjalistyczny im. J. Dietla w Krakowie Małopolskie Centrum Reumatologii, Immunologii i Rehabilitacji","ulica":"Marszałka Ferdinanda Focha","nrBud":"33"}},{"type":"Feature","geometry":{"type":"Point","coordinates":[19.86598,50.0637]},"properties":{"nr":"429","siedziba":"Małopolski Szpital Ortopedyczno-Rehabilitacyjny im. prof. Bogusława Frańczuka","ulica":"Modrzewiowa","nrBud":"22"}},{"type":"Feature","geometry":{"type":"Point","coordinates":[19.91248,50.04757]},"properties":{"nr":"430","siedziba":"Dom Pomocy Społecznej im. św. Jana Pawła II w Krakowie","ulica":"Praska","nrBud":"25"}},{"type":"Feature","geometry":{"type":"Point","coordinates":[19.91176,50.04729]},"properties":{"nr":"431","siedziba":"Dom Pomocy Społecznej","ulica":"Praska","nrBud":"27"}},{"type":"Feature","geometry":{"type":"Point","coordinates":[19.92043,50.04563]},"properties":{"nr":"432","siedziba":"Dom Pomocy Społecznej im. św. Brata Alberta","ulica":"Adolfa Nowaczyńskiego","nrBud":"1"}},{"type":"Feature","geometry":{"type":"Point","coordinates":[19.84153,50.01004]},"properties":{"nr":"433","siedziba":"Dom Pomocy Społecznej Zgromadzenia Sióstr Służebniczek NMP NP","ulica":"Podgórki Tynieckie","nrBud":"96"}},{"type":"Feature","geometry":{"type":"Point","coordinates":[19.88186,50.00656]},"properties":{"nr":"434","siedziba":"Dom Pomocy Społecznej","ulica":"dr. Józefa Babińskiego","nrBud":"25"}},{"type":"Feature","geometry":{"type":"Point","coordinates":[19.8883,50.0065]},"properties":{"nr":"435","siedziba":"Szpital Kliniczny im. dr. Józefa Babińskiego SP ZOZ w Krakowie","ulica":"dr. Józefa Babińskiego","nrBud":"29"}},{"type":"Feature","geometry":{"type":"Point","coordinates":[19.9181537,49.998882]},"properties":{"nr":"436","siedziba":"Dom Seniora Kontrast","ulica":"Forteczna","nrBud":"22"}},{"type":"Feature","geometry":{"type":"Point","coordinates":[19.97544,50.01091]},"properties":{"nr":"437","siedziba":"SCANMED S. A. Szpital św. Rafała","ulica":"Adama Bochenka","nrBud":"12"}},{"type":"Feature","geometry":{"type":"Point","coordinates":[20.00644,50.00969]},"properties":{"nr":"438","siedziba":"Miejskie Centrum Opieki dla Osób Starszych Przewlekle Niepełnosprawnych oraz Niesamodzielnych w Krakowie","ulica":"Wielicka","nrBud":"267"}},{"type":"Feature","geometry":{"type":"Point","coordinates":[20.00076,50.00935]},"properties":{"nr":"439","siedziba":"SP ZOZ Szpital Uniwersytecki w Krakowie","ulica":"Macieja Jakubowskiego","nrBud":"2"}},{"type":"Feature","geometry":{"type":"Point","coordinates":[20.00076,50.00935]},"properties":{"nr":"440","siedziba":"SP ZOZ Szpital Uniwersytecki w Krakowie","ulica":"Macieja Jakubowskiego","nrBud":"2"}},{"type":"Feature","geometry":{"type":"Point","coordinates":[20.00076,50.00935]},"properties":{"nr":"441","siedziba":"SP ZOZ Szpital Uniwersytecki w Krakowie","ulica":"Macieja Jakubowskiego","nrBud":"2"}},{"type":"Feature","geometry":{"type":"Point","coordinates":[19.98639,50.03515]},"properties":{"nr":"442","siedziba":"Dom Pomocy Społecznej Zakonu Przenajświętszej Trójcy","ulica":"Łanowa","nrBud":"1B"}},{"type":"Feature","geometry":{"type":"Point","coordinates":[19.99231,50.03889]},"properties":{"nr":"443","siedziba":"Dom Pomocy Społecznej","ulica":"Łanowa","nrBud":"39"}},{"type":"Feature","geometry":{"type":"Point","coordinates":[19.99316,50.03891]},"properties":{"nr":"444","siedziba":"Dom Pomocy Społecznej","ulica":"Łanowa","nrBud":"41"}},{"type":"Feature","geometry":{"type":"Point","coordinates":[20.01927,50.09206]},"properties":{"nr":"445","siedziba":"Szpital Specjalistyczny im. Ludwika Rydygiera w Krakowie Sp. z o.o.","ulica":"Złotej Jesieni","nrBud":"1"}},{"type":"Feature","geometry":{"type":"Point","coordinates":[20.01927,50.09206]},"properties":{"nr":"446","siedziba":"Szpital Specjalistyczny im. Ludwika Rydygiera w Krakowie Sp. z o.o.","ulica":"Złotej Jesieni","nrBud":"1"}},{"type":"Feature","geometry":{"type":"Point","coordinates":[20.02535,50.0912]},"properties":{"nr":"447","siedziba":"Serdeczna Troska sp. z o.o. Zakład Opiekuńczo-Leczniczy w Krakowie","ulica":"Złotej Jesieni","nrBud":"5"}},{"type":"Feature","geometry":{"type":"Point","coordinates":[20.1345,50.09177]},"properties":{"nr":"448","siedziba":"Areszt Śledczy w Krakowie, Oddział Zewnętrzny w Krakowie-Nowej Hucie","ulica":"Spławy","nrBud":"2"}},{"type":"Feature","geometry":{"type":"Point","coordinates":[20.04556,50.08104]},"properties":{"nr":"449","siedziba":"Dom Pomocy Społecznej","ulica":"Sportowe","nrBud":"9"}},{"type":"Feature","geometry":{"type":"Point","coordinates":[20.04865,50.07708]},"properties":{"nr":"450","siedziba":"Dom Pomocy Społecznej","ulica":"Szkolne","nrBud":"28"}},{"type":"Feature","geometry":{"type":"Point","coordinates":[20.04616,50.06578]},"properties":{"nr":"451","siedziba":"Szpital Specjalistyczny im. Stefana Żeromskiego SP ZOZ w Krakowie","ulica":"Na Skarpie","nrBud":"66"}},{"type":"Feature","geometry":{"type":"Point","coordinates":[20.1517,50.07378]},"properties":{"nr":"452","siedziba":"Serdeczna Troska Sp. z o.o. Zakład Opiekuńczo-Leczniczy w Krakowie","ulica":"Rzepakowa","nrBud":"5A"}},{"type":"Feature","geometry":{"type":"Point","coordinates":[20.06839,50.08114]},"properties":{"nr":"453","siedziba":"Centrum Medyczne Ujastek sp. z o.o.","ulica":"Ujastek","nrBud":"3"}},{"type":"Feature","geometry":{"type":"Point","coordinates":[19.94032,50.08425]},"properties":{"nr":"454","siedziba":"Zakład Opiekuńczo-Leczniczy BONA-MED sp. z o.o.","ulica":"ks. Kazimierza Siemaszki","nrBud":"17CE"}}]}
