{"type":"FeatureCollection","features":[{"type":"Feature","properties":{"dzielnica":"Dzielnica I","nrs":["1","2","3","4","5","6","7","8","9","10","11","12","13","14","15","16","17","18","19","20","21","22","23"]},"geometry":{"type":"Polygon","coordinates":[[[19.93138,50.0542],[19.92981,50.05445],[19.92849,50.05417],[19.9279,50.05492],[19.92805,50.055],[19.92802,50.05539],[19.92746,50.05582],[19.92377,50.0625],[19.92553,50.06715],[19.92669,50.06893],[19.9277,50.07028],[19.92955,50.07128],[19.93168,50.07241],[19.93293,50.07296],[19.93454,50.07333],[19.93599,50.07186],[19.93479,50.07322],[19.93811,50.07348],[19.94031,50.0753],[19.94102,50.07558],[19.94105,50.07605],[19.94541,50.07753],[19.94613,50.07914],[19.94736,50.08098],[19.95051,50.08059],[19.95048,50.08074],[19.95665,50.07986],[19.95696,50.07978],[19.95792,50.07876],[19.96016,50.07863],[19.95716,50.07445],[19.95517,50.07204],[19.95153,50.07321],[19.95523,50.07202],[19.95209,50.06778],[19.94997,50.06815],[19.95007,50.06726],[19.94929,50.06555],[19.94926,50.06501],[19.94739065776769,50.0648161741925],[19.94748,50.06158],[19.94764,50.06128],[19.94744,50.06115],[19.94759,50.06072],[19.94729,50.05978],[19.94748,50.05969],[19.94752,50.05856],[19.94683,50.05819],[19.94734,50.05845],[19.94799,50.05609],[19.94785,50.05553],[19.94834,50.05547],[19.94905,50.05441],[19.94893,50.05407],[19.94932,50.05391],[19.9484,50.05366],[19.94946,50.05382],[19.95334,50.05065],[19.95382,50.05086],[19.95466,50.05011],[19.94922,50.04721],[19.94503,50.04545],[19.94276,50.04488],[19.94034,50.04491],[19.93874,50.04532],[19.9378,50.04578],[19.93539,50.04819],[19.93138,50.0542]]]}},{"type":"Feature","properties":{"dzielnica":"Dzielnica II","nrs":["24","25","26","27","28","29","30","31","32","33","34","35","36","37","38","39","40","41"]},"geometry":{"type":"Polygon","coordinates":[[[19.95466,50.05011],[19.95382,50.05086],[19.95334,50.05065],[19.9496,50.05377],[19.94893,50.05407],[19.94905,50.05441],[19.94834,50.05547],[19.94785,50.05553],[19.94799,50.05609],[19.94744,50.05762],[19.94734,50.05845],[19.94752,50.05856],[19.94748,50.05978],[19.94729,50.05978],[19.94759,50.06072],[19.94744,50.06115],[19.94764,50.06128],[19.94748,50.06158],[19.94739,50.06484],[19.94926,50.06501],[19.94929,50.06555],[19.95007,50.06726],[19.94997,50.06815],[19.95209,50.06778],[19.96016,50.07863],[19.95792,50.07876],[19.95696,50.07978],[19.9593,50.07964],[19.96355,50.07842],[19.96614,50.07733],[19.96799,50.07687],[19.96782,50.07668],[19.96845,50.07642],[19.96869,50.07594],[19.96996,50.07524],[19.97229,50.07333],[19.97423,50.07122],[19.97672,50.06729],[19.98101,50.06878],[19.98178,50.0684],[19.98289,50.07005],[19.98337,50.06984],[19.98417,50.07055],[19.98689,50.06917],[19.98793,50.06838],[19.98826,50.06785],[19.98814,50.06723],[19.98845,50.06711],[19.98868,50.06458],[19.98453,50.06369],[19.98215,50.06245],[19.98483,50.06154],[19.98648,50.06038],[19.98685,50.05986],[19.98527,50.05962],[19.98423,50.0591],[19.98233,50.05759],[19.98109,50.05587],[19.97895,50.05426],[19.97234,50.05231],[19.96943,50.05235],[19.96721,50.05273],[19.96468,50.05286],[19.96095,50.05253],[19.95873,50.0519],[19.95466,50.05011]]]}},{"type":"Feature","properties":{"dzielnica":"Dzielnica III","nrs":["42","43","44","45","46","47","48","49","50","51","52","53","54","55","56","57","58","59","60","61","62","63","64","65","66","67","68"]},"geometry":{"type":"Polygon","coordinates":[[[19.9719,50.07364],[19.97201,50.07371],[19.96996,50.07524],[19.96869,50.07594],[19.96857,50.07626],[19.96782,50.07668],[19.96799,50.07687],[19.96716,50.0772],[19.96701,50.07703],[19.96421,50.07821],[19.9593,50.07964],[19.94735,50.081],[19.94851,50.08272],[19.94886,50.08264],[19.9495,50.08387],[19.95127,50.0866],[19.95211,50.0877],[19.95995,50.09292],[19.9667,50.09633],[19.97041,50.09721],[19.97787,50.10155],[19.98667,50.10478],[19.99104,50.10388],[19.99106,50.10288],[19.99083,50.1025],[19.99101,50.10195],[19.99065,50.10141],[19.9907,50.1006],[19.99043,50.10041],[19.9907,50.09994],[19.99204,50.10026],[19.99248,50.09956],[19.99051,50.09905],[19.98782974416018,50.097929165739714],[19.98806,50.0979],[19.98773,50.09608],[19.98779,50.09531],[19.98808,50.09491],[19.98782,50.09487],[19.98751,50.0944],[19.98789,50.09114],[19.98528,50.09147],[19.9879,50.09107],[19.98363,50.09042],[19.98297,50.09028],[19.98285,50.09006],[19.98013,50.08975],[19.9806,50.0882],[19.97851,50.08793],[19.97933,50.08607],[19.98245,50.08627],[19.98235,50.08554],[19.98396,50.08553],[19.98453,50.08533],[19.98557,50.08452],[19.98642,50.08432],[19.9867,50.08409],[19.98678,50.0837],[19.98590584269661,50.08378741573034],[19.98618,50.08372],[19.98649,50.08317],[19.98718,50.0834],[19.98763,50.08331],[19.98865,50.08188],[19.98939,50.08052],[19.98764,50.0801],[19.98724,50.07967],[19.98869,50.07708],[19.98935,50.07654],[19.98906,50.07607],[19.98813,50.0756],[19.98851,50.07327],[19.98742,50.07321],[19.9871,50.07254],[19.98587,50.07258],[19.98545,50.07217],[19.98583,50.07186],[19.98527,50.07158],[19.98337,50.06984],[19.98289,50.07005],[19.98178,50.0684],[19.98101,50.06878],[19.97672,50.06729],[19.97423,50.07122],[19.9719,50.07364]]]}},{"type":"Feature","properties":{"dzielnica":"Dzielnica IV","nrs":["69","70","71","72","73","74","75","76","77","78","79","80","81","82","83","84","85","86","87","88","89","90","91","92","93","94","95","96","97","98","99","100","101","102","103","104","105","412"]},"geometry":{"type":"Polygon","coordinates":[[[19.91942,50.08221],[19.90454,50.08261],[19.8999,50.08345],[19.896389775910365,50.08380596638656],[19.89134,50.08343],[19.89145,50.08656],[19.89246,50.08727],[19.89226,50.08751],[19.8924031361468,50.08753223346398],[19.89007,50.0878],[19.88412,50.08989],[19.87822,50.09255],[19.87365,50.09557],[19.86894,50.09786],[19.86769,50.09943],[19.86737,50.09918],[19.86661,50.1],[19.86532,50.09955],[19.86445,50.10068],[19.86434,50.10174],[19.86357,50.10262],[19.86183,50.10595],[19.86332,50.10733],[19.86736,50.10745],[19.87539,50.11113],[19.8767,50.11264],[19.87679,50.11351],[19.87819,50.11613],[19.87929,50.11886],[19.88052,50.12018],[19.88226,50.12139],[19.88468,50.12219],[19.88703,50.12227],[19.88957,50.12277],[19.89144,50.12251],[19.89136,50.12301],[19.8906,50.12362],[19.8905,50.12401],[19.89256,50.12439],[19.8924,50.12508],[19.89255,50.1261],[19.89828,50.12611],[19.89836,50.12571],[19.89958,50.12579],[19.89934,50.12543],[19.89832,50.12534],[19.89834,50.12503],[19.89891,50.12501],[19.90051,50.12551],[19.90087,50.12506],[19.9011,50.12511],[19.90141,50.1244],[19.90196,50.12384],[19.90261,50.12324],[19.90524,50.12163],[19.90849,50.11821],[19.90947,50.11556],[19.91227,50.10995],[19.91411,50.10548],[19.91511,50.10093],[19.91889,50.10018],[19.91878,50.10134],[19.92101,50.10214],[19.92087,50.10226],[19.92353,50.10341],[19.92623,50.10444],[19.92643,50.10438],[19.92673,50.1047],[19.92768,50.10508],[19.92815,50.10492],[19.92814,50.10432],[19.92887,50.10373],[19.93079,50.10481],[19.92936,50.10665],[19.93049,50.10684],[19.9312,50.10747],[19.93131,50.1078],[19.931,50.1087],[19.92842,50.11027],[19.9276,50.11039],[19.9271,50.11024],[19.92935,50.10813],[19.92936,50.10771],[19.928,50.10786],[19.92763,50.10737],[19.92721,50.10728],[19.92603,50.10812],[19.92536,50.11012],[19.92444,50.1113],[19.92542,50.1118],[19.92574,50.1124],[19.92494,50.11407],[19.92729,50.11462],[19.92774,50.11351],[19.92941,50.11412],[19.9337,50.11471],[19.93543,50.11515],[19.93526,50.11553],[19.93997,50.11624],[19.93982,50.11719],[19.94017,50.11893],[19.94155,50.11903],[19.94319,50.11882],[19.94733,50.11934],[19.94876,50.11654],[19.9512,50.11407],[19.95368,50.11248],[19.95529,50.11122],[19.9559,50.11051],[19.95744,50.11059],[19.95731,50.10939],[19.9581,50.10832],[19.96042,50.10848],[19.96253,50.10957],[19.96328,50.11021],[19.96583,50.10921],[19.96824,50.10852],[19.96936,50.10776],[19.97063,50.10721],[19.97233,50.10679],[19.97562,50.1064],[19.97756,50.10586],[19.979,50.10582],[19.98072,50.10496],[19.98136,50.10557],[19.98667,50.10478],[19.97787,50.10155],[19.97104,50.09751],[19.96878,50.09666],[19.9667,50.09633],[19.961,50.09342],[19.96143,50.09409],[19.9609,50.09342],[19.95257,50.08811],[19.95127,50.0866],[19.94886,50.08264],[19.94851,50.08272],[19.94735,50.081],[19.93416,50.08256],[19.9272,50.08256],[19.91942,50.08221]]]}},{"type":"Feature","properties":{"dzielnica":"Dzielnica V","nrs":["106","107","108","109","110","111","112","113","114","115","116","117","118","119","120","121","122","123","124"]},"geometry":{"type":"Polygon","coordinates":[[[19.92551,50.05922],[19.92468,50.05916],[19.92459,50.05946],[19.92407,50.05941],[19.90428,50.06253],[19.90422,50.06236],[19.90259,50.06264],[19.90271,50.0629],[19.90238,50.06298],[19.90274,50.0634],[19.90247,50.06319],[19.89224,50.06645],[19.89216,50.06629],[19.89109,50.06648],[19.88808,50.06757],[19.88795,50.06802],[19.88724,50.06874],[19.88742,50.07043],[19.88768,50.07063],[19.88752,50.07096],[19.88803,50.07129],[19.88808,50.07227],[19.8891,50.07187],[19.88936,50.07233],[19.90399,50.07024],[19.90393,50.07003],[19.90583,50.0758],[19.90619,50.0759],[19.90935,50.08244],[19.91606,50.08224],[19.91663,50.08221],[19.9272,50.08256],[19.93416,50.08256],[19.94736,50.08098],[19.94613,50.07914],[19.94541,50.07753],[19.94105,50.07605],[19.94102,50.07558],[19.94031,50.0753],[19.93811,50.07348],[19.9347,50.07319],[19.93443,50.07334],[19.93168,50.07241],[19.9277,50.07028],[19.92553,50.06715],[19.92377,50.0625],[19.92551,50.05922]]]}},{"type":"Feature","properties":{"dzielnica":"Dzielnica VI","nrs":["125","126","127","128","129","130","131","132","133","134","135","136","137","409"]},"geometry":{"type":"MultiPolygon","coordinates":[[[[19.88752,50.07096],[19.88768,50.07063],[19.88742,50.07043],[19.88728,50.06865],[19.88795,50.06802],[19.88806,50.06748],[19.88765,50.06728],[19.88664,50.06747],[19.88401,50.06747],[19.88226,50.06775],[19.88131,50.06807],[19.87898,50.0694],[19.87324,50.07176],[19.87202,50.07196],[19.86802,50.07207],[19.86602,50.07317],[19.86339,50.07356],[19.85837,50.07664],[19.85569,50.07676],[19.85319,50.07778],[19.84683,50.07791],[19.84582,50.07818],[19.84489,50.07864],[19.84225,50.08054],[19.84112,50.08188],[19.83927,50.08287],[19.83885,50.08369],[19.83785,50.08442],[19.83764,50.08518],[19.83828,50.08608],[19.83812,50.0869],[19.8367,50.088],[19.83453,50.0885],[19.83557,50.08959],[19.83647,50.08933],[19.83776,50.09046],[19.83818,50.09035],[19.8385,50.09066],[19.83904,50.09066],[19.84008,50.09144],[19.84094,50.09179],[19.84186,50.09182],[19.8431,50.09238],[19.84374,50.09217],[19.84499,50.09222],[19.84687,50.09302],[19.85187,50.09443],[19.85543,50.09369],[19.85862,50.0935],[19.861481965777475,50.092689047177046],[19.86769,50.09943],[19.86894,50.09786],[19.87365,50.09557],[19.8779,50.09272],[19.88643,50.08906],[19.89007,50.0878],[19.89226,50.08751],[19.89246,50.08727],[19.89145,50.08656],[19.891340858634607,50.0834544320575],[19.89635,50.08381],[19.8999,50.08345],[19.90454,50.08261],[19.90935,50.08244],[19.90619,50.0759],[19.898632216808373,50.07864898903791],[19.90599,50.07584],[19.90583,50.0758],[19.90399,50.07024],[19.88936,50.07233],[19.8891,50.07187],[19.88808,50.07227],[19.88798,50.07353],[19.88803,50.07129],[19.88752,50.07096]]],[[[19.89634,50.07138],[19.89644551724157,50.07136427586204],[19.8966,50.07134],[19.89634,50.07138]]]]}},{"type":"Feature","properties":{"dzielnica":"Dzielnica VII","nrs":["138","139","140","141","142","143","144","145","146","147","148"]},"geometry":{"type":"Polygon","coordinates":[[[19.88448,50.03811],[19.87952,50.03871],[19.87809,50.03938],[19.87249,50.04319],[19.86904,50.04392],[19.8659,50.04392],[19.86111,50.0434],[19.85163,50.04338],[19.84907,50.04304],[19.84708,50.04233],[19.84116,50.03835],[19.83704,50.03667],[19.82854,50.03532],[19.82697,50.03449],[19.82631,50.03317],[19.82632,50.03239],[19.82209,50.03186],[19.82033,50.03198],[19.81865,50.03234],[19.81529,50.03396],[19.81441,50.03491],[19.81347,50.03537],[19.81257,50.03763],[19.81285,50.03888],[19.81237,50.03989],[19.81037,50.04069],[19.81098,50.04313],[19.81386,50.04552],[19.8174,50.04887],[19.81756,50.04881],[19.81843,50.04956],[19.81841,50.05016],[19.81951,50.05158],[19.81957,50.05245],[19.81993,50.0532],[19.81996,50.05417],[19.8205,50.05507],[19.82048,50.05662],[19.82153674312169,50.05820457506253],[19.81984,50.05822],[19.81587,50.05935],[19.8112,50.05846],[19.8109,50.05916],[19.81046,50.0592],[19.81042,50.05942],[19.80984,50.05978],[19.80929,50.061],[19.80453,50.0621],[19.80461,50.06455],[19.8017,50.06921],[19.80541,50.07157],[19.8061,50.07227],[19.80833,50.07703],[19.80844,50.07761],[19.80829,50.07839],[19.8094,50.07935],[19.81124,50.08016],[19.81342,50.08028],[19.81829,50.08099],[19.81935,50.08173],[19.82328,50.08259],[19.82369,50.08342],[19.82536,50.08413],[19.828,50.0858],[19.82928,50.08769],[19.82987,50.0879],[19.82983,50.08811],[19.83212,50.08854],[19.83437,50.08831],[19.83453,50.0885],[19.83511,50.08844],[19.83626,50.08818],[19.8373,50.08761],[19.83829,50.08663],[19.83828,50.08608],[19.83764,50.08518],[19.83785,50.08442],[19.83885,50.08369],[19.83927,50.08287],[19.84112,50.08188],[19.84225,50.08054],[19.84489,50.07864],[19.84683,50.07791],[19.85261,50.07787],[19.85423,50.07744],[19.85569,50.07676],[19.85837,50.07664],[19.86303,50.07372],[19.86633,50.07303],[19.86802,50.07207],[19.87202,50.07196],[19.87324,50.07176],[19.88226,50.06775],[19.88401,50.06747],[19.88664,50.06747],[19.88765,50.06728],[19.88813,50.06757],[19.89109,50.06648],[19.89216,50.06629],[19.89224,50.06645],[19.90247,50.06319],[19.90235,50.06287],[19.90271,50.0629],[19.90266,50.0626],[19.90422,50.06236],[19.90428,50.06253],[19.92407,50.05941],[19.92459,50.05946],[19.92468,50.05916],[19.91801,50.05829],[19.92551,50.05922],[19.92746,50.05582],[19.92802,50.05539],[19.92805,50.055],[19.9279,50.05492],[19.92849,50.05417],[19.92473,50.05263],[19.92184,50.05196],[19.9158,50.0512],[19.90997,50.05108],[19.90898,50.05076],[19.90726,50.04974],[19.90604,50.04832],[19.90467,50.04595],[19.90085,50.04122],[19.89874,50.03957],[19.89593,50.03858],[19.88448,50.03811]]]}},{"type":"Feature","properties":{"dzielnica":"Dzielnica VIII","nrs":["149","150","151","152","153","154","155","156","157","158","159","160","161","162","163","164","165","166","167","168","169","170","171","172","173","174","175","176","177","178","179","180","181","182","183","406","407"]},"geometry":{"type":"Polygon","coordinates":[[[19.89278,49.98759],[19.8932,49.98693],[19.88696,49.98649],[19.88577,49.98472],[19.88624,49.98447],[19.88627,49.98312],[19.88888,49.98333],[19.88881,49.98271],[19.88747,49.98104],[19.88727,49.97934],[19.88651,49.97919],[19.88605,49.9788],[19.88612,49.97855],[19.88545,49.97832],[19.88544,49.97807],[19.88515,49.97793],[19.88529,49.97775],[19.88517,49.97738],[19.88545,49.97698],[19.88486,49.97653],[19.88467,49.97608],[19.88291,49.97564],[19.88209,49.97493],[19.88104,49.97472],[19.87995,49.97399],[19.87969,49.97353],[19.87944,49.97145],[19.87392,49.97142],[19.87247,49.97173],[19.87012,49.97188],[19.86896,49.9725],[19.8683,49.97326],[19.86772,49.97442],[19.86281,49.97493],[19.86072,49.9759],[19.86299,49.97658],[19.86294,49.97862],[19.8624,49.97865],[19.86229,49.97925],[19.86251,49.97927],[19.86246,49.97981],[19.86448,49.98013],[19.86449,49.98308],[19.86438,49.98329],[19.8632,49.98376],[19.86266,49.98419],[19.86238,49.98471],[19.86077,49.98461],[19.85868,49.98489],[19.85656,49.98552],[19.85171,49.98544],[19.84879,49.98518],[19.84827,49.9902],[19.84915,49.99228],[19.8495,49.99466],[19.84845,49.9949],[19.84761,49.99462],[19.84475046797212,49.994706209757716],[19.84399,49.99454],[19.84373,49.99483],[19.8431,49.99479],[19.84267,49.99503],[19.84116,49.99481],[19.83799,49.99507],[19.83659,49.99558],[19.83159,49.99602],[19.82244,49.99627],[19.82185,49.99681],[19.81923,49.99701],[19.81845,49.99679],[19.81833,49.99646],[19.81516,49.99581],[19.81428,49.99528],[19.81422,49.99502],[19.81474,49.9944],[19.81402,49.99432],[19.81304,49.99454],[19.81307,49.99473],[19.81236,49.99475],[19.81161,49.99436],[19.811,49.99443],[19.81137,49.99389],[19.81025,49.99294],[19.8098,49.99307],[19.80955,49.99292],[19.80953,49.99218],[19.80591,49.99303],[19.80363,49.99292],[19.80346,49.9935],[19.80393,49.99427],[19.80257,49.99412],[19.80236,49.99337],[19.80178,49.9934],[19.80127,49.99398],[19.80091,49.99397],[19.80062,49.99481],[19.80095,49.99504],[19.80067,49.99532],[19.80078,49.99545],[19.80011,49.99578],[19.79887,49.99598],[19.79824,49.99527],[19.79649,49.99454],[19.79618,49.99509],[19.79571,49.99527],[19.79642,49.9965],[19.79655,49.99707],[19.79634,49.99877],[19.79535,50.00197],[19.79478,50.00578],[19.79427,50.00759],[19.79259,50.01052],[19.79227,50.01209],[19.7924,50.01261],[19.79371,50.0143],[19.79514,50.01496],[19.79758,50.01559],[19.79845,50.01607],[19.7997,50.0172],[19.80068,50.01846],[19.80083,50.02022],[19.80207,50.02286],[19.803,50.02417],[19.80502,50.02569],[19.80605,50.0261],[19.80714,50.02644],[19.80877,50.02656],[19.81032,50.02638],[19.81121,50.02601],[19.81237,50.02541],[19.81403,50.02328],[19.81496,50.02173],[19.81549,50.02129],[19.81708,50.02062],[19.81826,50.02042],[19.82096,50.02057],[19.827,50.0234],[19.82824,50.02418],[19.82877,50.02479],[19.82909,50.02616],[19.8282,50.02861],[19.82632,50.03239],[19.82631,50.03317],[19.82697,50.03449],[19.82854,50.03532],[19.83704,50.03667],[19.84116,50.03835],[19.8466,50.04212],[19.84953,50.04311],[19.8534,50.04343],[19.86111,50.0434],[19.86702,50.04398],[19.86993,50.04382],[19.87249,50.04319],[19.87809,50.03938],[19.87952,50.03871],[19.88448,50.03811],[19.88735,50.0381],[19.89593,50.03858],[19.8976,50.03908],[19.89919,50.03984],[19.90085,50.04122],[19.90467,50.04595],[19.90604,50.04832],[19.90726,50.04974],[19.90898,50.05076],[19.90997,50.05108],[19.91487,50.05116],[19.92154,50.05191],[19.92577,50.05301],[19.92916,50.05436],[19.93015,50.05445],[19.93138,50.0542],[19.93432,50.0496],[19.93599,50.04749],[19.9378,50.04578],[19.93966,50.04503],[19.94206,50.04483],[19.93561,50.04103],[19.93523,50.03978],[19.93484,50.03936],[19.92858,50.03584],[19.92817,50.03509],[19.92871,50.03452],[19.92863,50.03418],[19.92723,50.03334],[19.92847,50.03184],[19.92719,50.02959],[19.92613,50.02885],[19.92631,50.02845],[19.9268,50.02817],[19.92682,50.02782],[19.9265,50.02741],[19.92687,50.02678],[19.92583,50.0258],[19.92578,50.02521],[19.92536,50.02536],[19.92533,50.02581],[19.92198564449067,50.02657131670131],[19.92243,50.0249],[19.9221,50.02325],[19.92062,50.02306],[19.91956,50.02222],[19.91513,50.02098],[19.91436,50.0206],[19.91366,50.01959],[19.9136,50.01888],[19.91114,50.0164],[19.90987,50.01414],[19.90886,50.01297],[19.90749,50.01074],[19.90779,50.01031],[19.90705,50.00943],[19.90747,50.00876],[19.90499,50.00716],[19.9038,50.00671],[19.90163,50.00649],[19.89858,50.00664],[19.89549,50.00757],[19.89364,50.0077],[19.89202,50.00769],[19.8913,50.00695],[19.89003,50.00681],[19.88982,50.00564],[19.88882,50.00267],[19.89117,50.00148],[19.89397,49.99975],[19.89398,49.99827],[19.89493,49.99831],[19.89582,49.9961],[19.89556,49.99634],[19.89554,49.99593],[19.89485,49.99487],[19.8931,49.99327],[19.89254,49.99234],[19.89022,49.99228],[19.88994,49.99084],[19.89024,49.99034],[19.89182,49.98998],[19.89193,49.98906],[19.89296,49.98849],[19.89278,49.98759]]]}},{"type":"Feature","properties":{"dzielnica":"Dzielnica IX","nrs":["184","185","186","187","188","189","190","191","192"]},"geometry":{"type":"Polygon","coordinates":[[[19.94392,50.01017],[19.94515,50.00705],[19.94513,50.00674],[19.94468,50.00584],[19.94385,50.0058],[19.94416,50.00564],[19.94349,50.0056],[19.94078,50.00249],[19.94006,50.00215],[19.93973,50.00224],[19.93969,50.0025],[19.93461,50.00204],[19.93329,50.00261],[19.93299,50.00221],[19.93307,50.00173],[19.93206,50.00226],[19.93094,50.00247],[19.93255,50.00321],[19.93369,50.00399],[19.93398,50.00432],[19.93387,50.0044],[19.93505,50.00541],[19.9354,50.0059],[19.93551,50.00647],[19.93546,50.00763],[19.93525,50.00797],[19.93298,50.00777],[19.93292,50.00757],[19.93225,50.00748],[19.92937,50.00757],[19.92615,50.00733],[19.92196,50.00774],[19.91938,50.00737],[19.91839,50.00741],[19.91595,50.00812],[19.91525,50.00895],[19.9155,50.0085],[19.91422,50.00943],[19.91317,50.0096],[19.90923,50.00953],[19.90813,50.00919],[19.90747,50.00876],[19.90705,50.00943],[19.90779,50.01031],[19.90749,50.01074],[19.90886,50.01297],[19.90987,50.01414],[19.91068,50.01581],[19.91168,50.01706],[19.91367,50.01898],[19.91366,50.01959],[19.91436,50.0206],[19.91748,50.02176],[19.91929,50.02214],[19.92062,50.02306],[19.9221,50.02325],[19.92243,50.0249],[19.92219,50.0263],[19.92262,50.02603],[19.92201,50.02656],[19.92533,50.02581],[19.92536,50.02536],[19.92578,50.02521],[19.92583,50.0258],[19.92687,50.02678],[19.9265,50.02741],[19.92682,50.02782],[19.9268,50.02817],[19.92615,50.02869],[19.92623,50.02902],[19.92719,50.02959],[19.92759,50.03022],[19.92808,50.03029],[19.93242,50.03027],[19.93536,50.02914],[19.93533,50.02896],[19.936389541984735,50.028565079805695],[19.93675,50.02886],[19.94064,50.02823],[19.94105,50.02764],[19.9443,50.02851],[19.9456,50.02332],[19.94509,50.01537],[19.94484,50.01488],[19.94512,50.01344],[19.94497,50.01344],[19.94506,50.01265],[19.94414,50.01181],[19.94385,50.01096],[19.94392,50.01017]]]}},{"type":"Feature","properties":{"dzielnica":"Dzielnica X","nrs":["193","194","195","196","197","198","199","200","201","202","203","204","205","206","207","208"]},"geometry":{"type":"Polygon","coordinates":[[[19.90192,49.98131],[19.90119,49.98108],[19.90016,49.98122],[19.89904,49.98104],[19.89809,49.98062],[19.89626,49.98043],[19.89589,49.98044],[19.8959,49.98062],[19.89496,49.98061],[19.89177,49.98027],[19.89176,49.98053],[19.88833,49.98064],[19.88793,49.98036],[19.88732,49.98039],[19.88747,49.98104],[19.88881,49.98271],[19.88888,49.98333],[19.88627,49.98312],[19.88624,49.98447],[19.88577,49.98472],[19.88696,49.98649],[19.8932,49.98693],[19.89278,49.98759],[19.89296,49.98849],[19.89193,49.98906],[19.89182,49.98998],[19.8916,49.98991],[19.89015,49.99042],[19.88994,49.99084],[19.89022,49.99228],[19.89254,49.99234],[19.8931,49.99327],[19.89485,49.99487],[19.89554,49.99593],[19.89556,49.99634],[19.89582,49.9961],[19.89493,49.99831],[19.89398,49.99827],[19.89397,49.99975],[19.89117,50.00148],[19.88882,50.00267],[19.88982,50.00564],[19.89003,50.00681],[19.8913,50.00695],[19.89202,50.00769],[19.89534,50.00755],[19.89858,50.00664],[19.90277,50.00652],[19.90499,50.00716],[19.90803,50.00913],[19.90899,50.00949],[19.91317,50.0096],[19.91422,50.00943],[19.91613,50.00805],[19.91831,50.00742],[19.91938,50.00737],[19.92196,50.00774],[19.92541,50.00738],[19.92513,50.00726],[19.92937,50.00757],[19.93239,50.00749],[19.93304,50.00762],[19.93298,50.00777],[19.93505,50.00801],[19.93546,50.00763],[19.9354,50.0059],[19.93464,50.00496],[19.93387,50.0044],[19.93398,50.00432],[19.93369,50.00399],[19.93255,50.00321],[19.93094,50.00247],[19.93206,50.00226],[19.93307,50.00173],[19.93299,50.00221],[19.93329,50.00261],[19.93477,50.00206],[19.93515,50.00151],[19.93476,50.0002],[19.93537,50.0007],[19.93578,50.00074],[19.93626,50.00025],[19.93724,50.0003],[19.93824,49.99983],[19.93945,49.9996],[19.93953,49.99982],[19.94157,50.00034],[19.94461,50.00018],[19.94498,50.00001],[19.94523,50.00017],[19.94502,50.00047],[19.95177,49.99992],[19.96133,50.00017],[19.96239,50.0003],[19.96219,50.00086],[19.96723,50.00158],[19.96977,50.00141],[19.97026,50.0009],[19.97185,50.00119],[19.9721,50.00084],[19.97272,50.00106],[19.97272,50.00134],[19.97325,50.00114],[19.98198,50.00077],[19.98252,50.00054],[19.98279,50.0002],[19.98304,50.00032],[19.98725,50.00011],[19.99018,50.00031],[19.99169,50.00006],[19.99215,50.00041],[19.99371,50.00024],[19.99527,50.00054],[19.99917,50.0008],[20.00121,50.00114],[20.00126,50.00133],[20.00408,50.00129],[20.00349,50.00037],[20.00347,49.99981],[20.00274,49.99924],[20.00329,49.99803],[20.00409,49.99759],[20.00402,49.99744],[20.00459,49.99703],[20.00535,49.997],[20.00762,49.99619],[20.00856,49.99551],[20.01028,49.99515],[20.011,49.99528],[20.01208,49.99479],[20.01304,49.99359],[20.0129,49.99343],[20.01346,49.99333],[20.01393,49.99132],[20.01472,49.99045],[20.01553,49.98871],[20.01862,49.98649],[20.01862,49.98588],[20.01608,49.98442],[20.01364,49.98221],[20.01135,49.98087],[20.00967,49.98016],[20.00999,49.97723],[20.00921,49.97612],[20.00825,49.97597],[20.00765,49.97542],[20.00823,49.97508],[20.00685,49.97476],[20.00292,49.97467],[20.00339,49.97515],[20.00112,49.97569],[19.99978,49.97485],[19.99731,49.97395],[19.99012,49.973],[19.98705,49.97304],[19.98379,49.97259],[19.98127,49.97263],[19.98107,49.9732],[19.98212,49.97506],[19.98223,49.9759],[19.98224,49.97712],[19.98175,49.97743],[19.98138,49.97823],[19.98186,49.97879],[19.98205,49.97963],[19.98259,49.98019],[19.98248,49.98094],[19.97787,49.98117],[19.97655,49.98078],[19.97564,49.98085],[19.9744,49.98039],[19.97356,49.98036],[19.9723,49.98],[19.97209,49.98013],[19.97168,49.97982],[19.97094,49.97997],[19.96995,49.97952],[19.96896,49.97949],[19.96843,49.97903],[19.96728,49.97875],[19.96684,49.97885],[19.96653,49.97875],[19.96638,49.97834],[19.96562,49.97843],[19.96524,49.97789],[19.96436723565999,49.9777600138217],[19.96485,49.97758],[19.9656,49.97646],[19.9665,49.97447],[19.96706,49.97375],[19.96703,49.97317],[19.96489,49.973],[19.96309,49.97232],[19.96288,49.97122],[19.96345,49.96856],[19.96257,49.96867],[19.96248,49.96842],[19.96168,49.96832],[19.9615,49.96843],[19.9616,49.96894],[19.96051,49.96891],[19.95946,49.96926],[19.9593,49.96874],[19.95888,49.96858],[19.95887,49.96825],[19.95731,49.96833],[19.95732,49.96815],[19.9576,49.96806],[19.95753,49.96788],[19.95718,49.96825],[19.95662,49.96824],[19.95617,49.96803],[19.95615,49.96771],[19.95567,49.96766],[19.95539,49.96771],[19.95572,49.96866],[19.95521,49.96868],[19.955,49.96915],[19.95412,49.96947],[19.9538,49.97007],[19.95331,49.97012],[19.95297,49.96984],[19.95211,49.9701],[19.95202,49.96956],[19.95172,49.96952],[19.95084,49.96986],[19.95077,49.97024],[19.95113,49.97038],[19.95122,49.97064],[19.95057,49.9707],[19.95069,49.97108],[19.94946,49.97136],[19.94897,49.9713],[19.94833,49.97207],[19.94765,49.97229],[19.9466,49.97209],[19.94598,49.97228],[19.94492,49.97221],[19.94492,49.97261],[19.94462,49.9727],[19.94444,49.97306],[19.94378,49.97284],[19.94285,49.97334],[19.94293,49.97368],[19.94327,49.97394],[19.94239,49.97403],[19.94216,49.97416],[19.9422,49.97436],[19.94061,49.97446],[19.94074,49.9748],[19.94011,49.97487],[19.94026,49.97528],[19.93957,49.97513],[19.93952,49.97471],[19.93907,49.97482],[19.93901,49.97453],[19.93853,49.97484],[19.93834,49.97455],[19.93792,49.97474],[19.93777,49.97453],[19.93405,49.97557],[19.93447,49.97644],[19.93366,49.97646],[19.93345,49.97683],[19.93295,49.97689],[19.93294,49.97748],[19.93318,49.97771],[19.93288,49.97818],[19.93245,49.97821],[19.93259,49.97879],[19.93143,49.97843],[19.92954,49.97918],[19.92841,49.97915],[19.92825,49.97955],[19.92742,49.97982],[19.92739,49.98003],[19.92782,49.98028],[19.92734,49.98082],[19.92609,49.981],[19.9257,49.98132],[19.91898,49.98],[19.91328,49.97987],[19.91261,49.98025],[19.912,49.98131],[19.90965,49.98197],[19.90856,49.98149],[19.90563,49.98128],[19.90192,49.98131]]]}},{"type":"Feature","properties":{"dzielnica":"Dzielnica XI","nrs":["209","210","211","212","213","214","215","216","217","218","219","220","221","222","223","224","225","226","227","228","229","230","231","232","233","234","235","236"]},"geometry":{"type":"Polygon","coordinates":[[[19.96219,50.00086],[19.96239,50.0003],[19.95177,49.99992],[19.94502,50.00047],[19.94518,50.00002],[19.94157,50.00034],[19.93953,49.99982],[19.93945,49.9996],[19.93824,49.99983],[19.93724,50.0003],[19.93626,50.00025],[19.93578,50.00074],[19.93537,50.0007],[19.93476,50.0002],[19.93517,50.0012],[19.93477,50.00206],[19.93969,50.0025],[19.93973,50.00224],[19.94006,50.00215],[19.94078,50.00249],[19.94349,50.0056],[19.94416,50.00564],[19.94385,50.0058],[19.945632400137306,50.00577729426577],[19.94468,50.00584],[19.94515,50.00705],[19.94392,50.01017],[19.94385,50.01096],[19.94406,50.01171],[19.94506,50.01265],[19.94497,50.01344],[19.94512,50.01344],[19.94487,50.01487],[19.94566632911357,50.014750379746886],[19.94484,50.01488],[19.94509,50.01537],[19.9456,50.02332],[19.9443,50.02851],[19.94541,50.02908],[19.94622,50.02996],[19.94691,50.03189],[19.94695,50.03266],[19.94758,50.03236],[19.94844,50.03141],[19.95153,50.03],[19.95808,50.02853],[19.95803,50.02839],[19.95892,50.02782],[19.95923,50.0279],[19.9591,50.0283],[19.9595,50.02838],[19.96608,50.02698],[19.97014,50.02676],[19.97343,50.02623],[19.97378,50.02597],[19.97415,50.02608],[19.9763,50.02553],[19.97889,50.02396],[19.97747,50.02287],[19.97711,50.02239],[19.97704,50.0213],[19.97725,50.01957],[19.97706,50.01747],[19.97585,50.01666],[19.97275,50.01597],[19.97268,50.01559],[19.97431,50.01528],[19.97887,50.01494],[19.98473,50.01493],[19.98662,50.01509],[19.98851,50.01488],[19.98982,50.01495],[19.99121,50.01544],[19.99106,50.01452],[19.99238,50.01325],[19.99117,50.01343],[19.99082,50.01329],[19.99096,50.01292],[19.99024,50.01234],[19.99065,50.01201],[19.99051,50.012],[19.99071,50.01126],[19.99158,50.01078],[19.99152,50.01061],[19.9924,50.01038],[19.99254,50.01017],[19.9967,50.00835],[19.99822,50.00703],[20.00066,50.00539],[20.00127,50.00475],[20.00163,50.00383],[20.0032,50.0034],[20.0017,50.00267],[20.00023,50.00235],[20.00016,50.00216],[20.00066,50.00203],[20.00007,50.0014],[20.00126,50.00133],[20.00121,50.00114],[19.99371,50.00024],[19.99215,50.00041],[19.99169,50.00006],[19.99018,50.00031],[19.98692,50.0001],[19.98304,50.00032],[19.98279,50.0002],[19.982210043205377,50.000670521704954],[19.97325,50.00114],[19.97272,50.00134],[19.97272,50.00106],[19.9721,50.00084],[19.97185,50.00119],[19.97026,50.0009],[19.96977,50.00141],[19.96909,50.00157],[19.96711,50.00158],[19.96219,50.00086]]]}},{"type":"Feature","properties":{"dzielnica":"Dzielnica XII","nrs":["237","238","239","240","241","242","243","244","245","246","247","248","249","250","251","252","253","254","255","256","257","258","259","260","261","262","263","264","265","266","267","268","269","270","408"]},"geometry":{"type":"Polygon","coordinates":[[[20.00066,50.00539],[19.99822,50.00703],[19.9967,50.00835],[19.99254,50.01017],[19.9924,50.01038],[19.99152,50.01061],[19.99177724815724,50.01086081695331],[19.99158,50.01078],[19.99071,50.01126],[19.99051,50.012],[19.99065,50.01201],[19.99024,50.01234],[19.99096,50.01292],[19.99087,50.01333],[19.99238,50.01325],[19.99106,50.01452],[19.99121,50.01544],[19.98982,50.01495],[19.98851,50.01488],[19.98662,50.01509],[19.97887,50.01494],[19.97431,50.01528],[19.97268,50.01559],[19.97275,50.01597],[19.97621,50.0168],[19.97706,50.01747],[19.97725,50.01957],[19.97704,50.0213],[19.97711,50.02239],[19.97747,50.02287],[19.978878430260686,50.02395111900292],[19.97651,50.02541],[19.97742,50.02599],[19.9796,50.0241],[19.97666,50.02672],[19.97738,50.02696],[19.97847,50.02588],[19.98111,50.02659],[19.98193,50.02708],[19.98294,50.02673],[19.98326,50.0264],[19.98371,50.02654],[19.98418,50.02596],[19.98448,50.02606],[19.9849,50.02576],[19.98553,50.02596],[19.98511,50.02636],[19.9868,50.02696],[19.98882,50.02829],[19.99205,50.03038],[19.99198,50.03084],[19.99645,50.03038],[19.99643,50.03017],[19.9997,50.02971],[20.00488,50.02943],[20.01365,50.02803],[20.0141,50.02801],[20.01455,50.02833],[20.01483,50.02815],[20.01436,50.02797],[20.01982,50.02651],[20.02271,50.02589],[20.02421,50.02568],[20.02624,50.02573],[20.02795,50.02532],[20.02806,50.02688],[20.02784,50.02847],[20.02955,50.02999],[20.02975,50.03118],[20.02915,50.03331],[20.02938,50.03411],[20.03082,50.03417],[20.0331,50.03496],[20.03501,50.03511],[20.03639,50.03486],[20.03882,50.03407],[20.04736,50.03396],[20.05288,50.03443],[20.05775,50.03371],[20.06275,50.03384],[20.07282,50.03144],[20.0728,50.03088],[20.07228,50.02976],[20.06843,50.02649],[20.06774,50.02548],[20.06487,50.02426],[20.06718,50.02216],[20.06846,50.02199],[20.06973,50.01839],[20.06913,50.01581],[20.06821,50.01445],[20.06761,50.01295],[20.06788,50.01184],[20.06721,50.00953],[20.06677,50.00915],[20.06626,50.00902],[20.06567,50.00779],[20.06413,50.00811],[20.06301,50.00812],[20.06238,50.00763],[20.0623,50.00729],[20.06256,50.00686],[20.06233,50.00635],[20.06182,50.00624],[20.06159,50.00579],[20.06139,50.00583],[20.06074,50.00532],[20.05828,50.00567],[20.05752,50.00483],[20.057,50.00465],[20.05517,50.00459],[20.05517,50.00411],[20.05157,50.00382],[20.04965,50.00429],[20.04821,50.00413],[20.04818,50.0032],[20.04779,50.00176],[20.04771,49.99972],[20.04795,49.9991],[20.04733,49.99896],[20.04692,49.99912],[20.04395,49.99913],[20.03914,49.99983],[20.03772,50.001],[20.03573,50.00141],[20.03164,50.00097],[20.02888,50.00108],[20.02879,50.00091],[20.02918,50.0004],[20.02933,49.99969],[20.02919,49.99929],[20.02851,49.99918],[20.02359,50.00301],[20.02215,50.00325],[20.01881,50.00311],[20.01849,50.00418],[20.01828,50.00433],[20.01673,50.00395],[20.01054,50.00333],[20.00631,50.00249],[20.00611,50.00196],[20.00426,50.00117],[20.00394,50.00139],[20.00007,50.0014],[20.00066,50.00203],[20.00016,50.00216],[20.0004,50.00247],[20.00131,50.00254],[20.0032,50.0034],[20.00158,50.00387],[20.00127,50.00475],[20.00066,50.00539]]]}},{"type":"Feature","properties":{"dzielnica":"Dzielnica XIII","nrs":["271","272","273","274","275","276","277","278","279","280","281","282","283","284","285","286","287","288","289","290","291","292"]},"geometry":{"type":"Polygon","coordinates":[[[19.97666,50.02672],[19.97742,50.02599],[19.97651,50.02541],[19.97209,50.02647],[19.97014,50.02676],[19.96608,50.02698],[19.9595,50.02838],[19.9591,50.0283],[19.95923,50.0279],[19.95892,50.02782],[19.95803,50.02839],[19.95846,50.02908],[19.95808,50.02853],[19.95247,50.02974],[19.95042,50.03038],[19.94833,50.03147],[19.94838,50.03161],[19.947241237721016,50.03260539292731],[19.94695,50.03266],[19.94691,50.03189],[19.94622,50.02996],[19.94541,50.02908],[19.9443,50.02851],[19.94105,50.02764],[19.94064,50.02823],[19.93686,50.02889],[19.93643,50.02855],[19.93615,50.02861],[19.93411,50.02973],[19.93242,50.03027],[19.92759,50.03022],[19.92847,50.03184],[19.92723,50.03334],[19.92863,50.03418],[19.92871,50.03452],[19.92817,50.03509],[19.92858,50.03584],[19.93484,50.03936],[19.93523,50.03978],[19.93561,50.04103],[19.94206,50.04483],[19.94413,50.04513],[19.94765,50.04651],[19.95489,50.05023],[19.95768,50.05152],[19.96139,50.05261],[19.96568,50.05285],[19.97062,50.05222],[19.97234,50.05231],[19.97702,50.05352],[19.97895,50.05426],[19.9802,50.05513],[19.98109,50.05587],[19.98233,50.05759],[19.98423,50.0591],[19.98527,50.05962],[19.98643,50.05983],[19.98876,50.05979],[19.9914,50.05927],[19.99509,50.05729],[19.9969,50.05554],[19.99705,50.055],[19.99926,50.05113],[20.00179,50.04903],[20.00456,50.04747],[20.00708,50.04631],[20.00966,50.04542],[20.01193,50.04495],[20.01409,50.04495],[20.01515,50.04519],[20.01647,50.04596],[20.01809,50.04862],[20.02009,50.0506],[20.02142,50.05129],[20.02283,50.05168],[20.02442,50.05169],[20.02589,50.05138],[20.03135,50.04874],[20.03575,50.04784],[20.03797,50.04788],[20.04039,50.04845],[20.04586,50.05127],[20.04834,50.05191],[20.05135,50.052],[20.05512,50.05134],[20.057236599707245,50.05076093026877],[20.05995,50.05047],[20.06898,50.05054],[20.07753,50.05172],[20.08295,50.05272],[20.08666,50.05306],[20.0902,50.05217],[20.0921,50.051],[20.09345,50.04959],[20.09446,50.04761],[20.09416,50.04532],[20.09438,50.04442],[20.09506,50.04344],[20.09624,50.04258],[20.09808,50.0418],[20.1007,50.04132],[20.10324,50.04119],[20.0994,50.03778],[20.0981,50.03731],[20.09484,50.03699],[20.09402,50.03716],[20.09212,50.03804],[20.0917,50.03869],[20.09159,50.0397],[20.09188,50.04097],[20.09233,50.0418],[20.09226,50.04206],[20.09167,50.04232],[20.09174,50.04258],[20.09092,50.04364],[20.0893,50.0445],[20.0892,50.0448],[20.08811,50.04493],[20.08728,50.04456],[20.08688,50.04403],[20.08631,50.04389],[20.08562,50.04291],[20.08353,50.04149],[20.08249,50.04135],[20.0817,50.04079],[20.08034,50.04072],[20.08101,50.03871],[20.082,50.03892],[20.08348,50.03823],[20.0838,50.0379],[20.08335,50.03777],[20.0821,50.0367],[20.07974,50.03579],[20.08052,50.03518],[20.08167,50.03465],[20.0817,50.03426],[20.07705,50.03329],[20.07467,50.03258],[20.07353,50.03218],[20.07282,50.03144],[20.06275,50.03384],[20.05775,50.03371],[20.05288,50.03443],[20.04736,50.03396],[20.03953,50.03402],[20.03781,50.0343],[20.03595,50.03496],[20.03417,50.0351],[20.0331,50.03496],[20.03082,50.03417],[20.02938,50.03411],[20.02915,50.03331],[20.02975,50.03118],[20.02955,50.02999],[20.02784,50.02847],[20.02806,50.02688],[20.02795,50.02532],[20.02624,50.02573],[20.02421,50.02568],[20.02271,50.02589],[20.01982,50.02651],[20.01436,50.02797],[20.01483,50.02815],[20.01455,50.02833],[20.0141,50.02801],[20.01365,50.02803],[20.00488,50.02943],[19.9997,50.02971],[19.99643,50.03017],[19.99645,50.03038],[19.99198,50.03084],[19.99205,50.03038],[19.9868,50.02696],[19.98511,50.02636],[19.98553,50.02596],[19.9849,50.02576],[19.98448,50.02606],[19.98418,50.02596],[19.98371,50.02654],[19.98326,50.0264],[19.98294,50.02673],[19.98193,50.02708],[19.98111,50.02659],[19.97847,50.02588],[19.97738,50.02696],[19.97666,50.02672]]]}},{"type":"Feature","properties":{"dzielnica":"Dzielnica XIV","nrs":["293","294","295","296","297","298","299","300","301","302","303","304","305","306","307","308","309","410"]},"geometry":{"type":"Polygon","coordinates":[[[19.9923,50.06507],[19.98864,50.06447],[19.98845,50.06711],[19.98814,50.06723],[19.98827,50.06772],[19.98807,50.0682],[19.98689,50.06917],[19.98417,50.07055],[19.98583,50.07186],[19.98545,50.07217],[19.98587,50.07258],[19.9871,50.07254],[19.98742,50.07321],[19.98851,50.07327],[19.98813,50.0756],[19.98906,50.07607],[19.98934,50.07658],[19.98863,50.07715],[19.98724,50.07967],[19.98764,50.0801],[19.98939,50.08052],[19.98827,50.08259],[19.98795,50.08275],[19.98753,50.08338],[19.98649,50.08317],[19.98618,50.08372],[19.98678,50.0837],[19.9867,50.08409],[19.98513,50.08477],[19.98453,50.08533],[19.98396,50.08553],[19.98235,50.08554],[19.98245,50.08627],[19.97952,50.08604],[19.98864,50.08705],[19.99309,50.08774],[19.99491,50.08758],[20.00345,50.0881],[20.00374,50.08775],[20.00834,50.08653],[20.01329,50.08568],[20.01183,50.08285],[20.00805,50.08353],[20.01245,50.0827],[20.01589,50.08161],[20.01571,50.08095],[20.01574,50.07995],[20.01592,50.07981],[20.01568,50.07938],[20.01369,50.07997],[20.01565,50.07936],[20.01524,50.07868],[20.01578,50.07861],[20.01587,50.07893],[20.0193,50.07815],[20.01913,50.07768],[20.02189,50.0768],[20.02136,50.07632],[20.01917,50.07515],[20.01629,50.07394],[20.01614,50.07318],[20.01659,50.07266],[20.01768,50.07256],[20.0182,50.07286],[20.0196,50.07296],[20.02922,50.07203],[20.02872,50.071],[20.02955,50.0701],[20.03089,50.06975],[20.02896,50.06792],[20.02922,50.06719],[20.02902,50.06607],[20.02952,50.06597],[20.03145,50.06477],[20.03326,50.06429],[20.03553,50.06397],[20.03533,50.06436],[20.04062,50.06317],[20.04033,50.06242],[20.04159,50.06235],[20.04146,50.06155],[20.04213,50.06145],[20.04163,50.05998],[20.04062,50.05995],[20.03841,50.05894],[20.03933,50.05865],[20.0375,50.05769],[20.03729,50.05775],[20.03704,50.05709],[20.03617,50.05628],[20.04243,50.05384],[20.04754,50.05347],[20.04745,50.05283],[20.04798,50.05267],[20.04834,50.05191],[20.04586,50.05127],[20.04039,50.04845],[20.03849,50.04797],[20.03705,50.04783],[20.03575,50.04784],[20.03226,50.04844],[20.03028,50.04913],[20.02736,50.05079],[20.02589,50.05138],[20.02442,50.05169],[20.02283,50.05168],[20.02142,50.05129],[20.02009,50.0506],[20.01809,50.04862],[20.01698,50.04658],[20.01585,50.04554],[20.01409,50.04495],[20.01118,50.04503],[20.00861,50.04575],[20.00552,50.04698],[20.00109,50.04951],[19.99926,50.05113],[19.99652,50.05605],[19.99561,50.05693],[19.99396,50.058],[19.9914,50.05927],[19.9903,50.05957],[19.98685,50.05986],[19.98648,50.06038],[19.98483,50.06154],[19.98215,50.06245],[19.98453,50.06369],[19.9923,50.06507]]]}},{"type":"Feature","properties":{"dzielnica":"Dzielnica XV","nrs":["310","311","312","313","314","315","316","317","318","319","320","321","322","323","324","325","326","327","328","329","330","331","332","333","334","335"]},"geometry":{"type":"Polygon","coordinates":[[[20.00137,50.08788],[19.99527,50.0876],[19.99309,50.08774],[19.98864,50.08705],[19.97933,50.08607],[19.97851,50.08793],[19.9806,50.0882],[19.98013,50.08975],[19.98285,50.09006],[19.98297,50.09028],[19.98363,50.09042],[19.98785,50.09095],[19.98751,50.0944],[19.98808,50.09491],[19.9877,50.09562],[19.98806,50.0979],[19.98776,50.0979],[19.99051,50.09905],[19.99248,50.09956],[19.99204,50.10026],[19.9907,50.09994],[19.99043,50.10041],[19.9907,50.1006],[19.99065,50.10141],[19.99101,50.10195],[19.99083,50.1025],[19.99106,50.10288],[19.99104,50.10388],[19.98667,50.10478],[19.98784,50.10523],[19.98872,50.10513],[19.9895,50.10536],[19.99075,50.10612],[19.99205,50.10653],[19.99649,50.10716],[20.00459,50.10716],[20.01757,50.10644],[20.0221,50.10518],[20.02424,50.10394],[20.02474,50.10398],[20.02763,50.10436],[20.028,50.10577],[20.03004,50.10588],[20.03163,50.10788],[20.03403,50.10874],[20.03504,50.10655],[20.03556,50.10586],[20.03629,50.10595],[20.03708,50.10564],[20.03753,50.10575],[20.03773,50.10546],[20.03753,50.10522],[20.03668,50.10495],[20.03327,50.1043],[20.03354,50.10368],[20.03462,50.10228],[20.03455,50.10212],[20.03398,50.10187],[20.03204,50.09947],[20.03079,50.09943],[20.02986,50.0988],[20.02969,50.09836],[20.02982,50.09808],[20.03019,50.09775],[20.03113,50.09767],[20.03155,50.09711],[20.03167,50.09661],[20.03213,50.09621],[20.03204,50.09577],[20.03271,50.09468],[20.03149,50.0942],[20.03074,50.09368],[20.02988,50.09357],[20.02952,50.09329],[20.02789,50.09332],[20.02607,50.09361],[20.02087,50.09518],[20.01911,50.09553],[20.01698,50.09528],[20.01376,50.09378],[20.00456,50.08842],[20.00345,50.0881],[20.00137,50.08788]]]}},{"type":"Feature","properties":{"dzielnica":"Dzielnica XVI","nrs":["336","337","338","339","340","341","342","343","344","345","346","347","348","349","350","351","352","353","354","355","356","357","358","359"]},"geometry":{"type":"Polygon","coordinates":[[[20.01589,50.08161],[20.01701,50.08163],[20.01564,50.08171],[20.01183,50.08285],[20.013386753968895,50.08568551615763],[20.00716,50.08677],[20.00374,50.08775],[20.00345,50.0881],[20.00482,50.08854],[20.01376,50.09378],[20.01607,50.095],[20.01746,50.0954],[20.01897,50.09554],[20.02069,50.09526],[20.02667,50.09349],[20.02932,50.09335],[20.02965,50.0921],[20.03047,50.09105],[20.03121,50.09111],[20.03266,50.09083],[20.03829,50.08933],[20.04498,50.08961],[20.04724,50.08875],[20.04685,50.08745],[20.04685,50.08684],[20.04737,50.08579],[20.04761,50.0858],[20.0474,50.08572],[20.0476,50.08551],[20.04755,50.08508],[20.04776,50.08462],[20.0487,50.08379],[20.04944,50.08352],[20.05365,50.08364],[20.05377,50.08345],[20.0534,50.08274],[20.05343,50.08155],[20.05305,50.08106],[20.05596,50.07877],[20.05633,50.07823],[20.05649,50.07745],[20.05235,50.07642],[20.05022,50.07972],[20.04966,50.0802],[20.04353,50.08278],[20.04067,50.08341],[20.03839,50.08505],[20.03724,50.08533],[20.03825,50.085],[20.02858,50.07973],[20.02809,50.08033],[20.02641,50.07998],[20.02649,50.07971],[20.02571,50.07879],[20.02184,50.07668],[20.02189,50.0768],[20.02093,50.07719],[20.01913,50.07768],[20.0193,50.07815],[20.01587,50.07893],[20.01578,50.07861],[20.01524,50.07868],[20.01592,50.07981],[20.01574,50.07995],[20.01571,50.08095],[20.01589,50.08161]]]}},{"type":"Feature","properties":{"dzielnica":"Dzielnica XVII","nrs":["360","361","362","363","364","365","366","367","368","369","370","411"]},"geometry":{"type":"Polygon","coordinates":[[[20.06617,50.08057],[20.06617,50.07962],[20.06287,50.07915],[20.05649,50.07745],[20.05633,50.07823],[20.05596,50.07877],[20.05305,50.08106],[20.05343,50.08155],[20.0534,50.08274],[20.05377,50.08345],[20.05365,50.08364],[20.04944,50.08352],[20.0487,50.08379],[20.04776,50.08462],[20.04755,50.08508],[20.0476,50.08551],[20.0474,50.08572],[20.04761,50.0858],[20.04737,50.08579],[20.04685,50.08684],[20.04685,50.08745],[20.04724,50.08875],[20.04498,50.08961],[20.03829,50.08933],[20.03266,50.09083],[20.03121,50.09111],[20.03047,50.09105],[20.02965,50.0921],[20.02932,50.09329],[20.03366,50.09349],[20.02963,50.09335],[20.02988,50.09357],[20.03074,50.09368],[20.03149,50.0942],[20.03271,50.09468],[20.03204,50.09577],[20.03213,50.09621],[20.03167,50.09661],[20.03155,50.09711],[20.03113,50.09767],[20.03019,50.09775],[20.02969,50.09836],[20.02986,50.0988],[20.03064,50.09936],[20.0319,50.09941],[20.03245,50.09981],[20.03398,50.10187],[20.03455,50.10212],[20.03462,50.10228],[20.03327,50.1043],[20.03668,50.10495],[20.03753,50.10522],[20.03773,50.10546],[20.03753,50.10575],[20.03708,50.10564],[20.03629,50.10595],[20.03556,50.10586],[20.03411,50.10848],[20.0358,50.10862],[20.03523,50.10999],[20.03601,50.11017],[20.03612,50.11062],[20.03694,50.11133],[20.03716,50.11188],[20.03701,50.11266],[20.03855,50.11315],[20.04192,50.11349],[20.04211,50.11289],[20.04264,50.11221],[20.04469,50.11033],[20.04546,50.11116],[20.04695,50.10932],[20.04752,50.10957],[20.04926,50.10966],[20.05009,50.11025],[20.05076,50.11029],[20.05106,50.11056],[20.05036,50.11094],[20.05072,50.11119],[20.05187,50.11064],[20.05218,50.11088],[20.05209,50.11124],[20.05252,50.11209],[20.0535,50.11282],[20.05462,50.11289],[20.05548,50.11259],[20.05643,50.1126],[20.05807,50.11374],[20.05848,50.11469],[20.06178,50.11426],[20.06159,50.11353],[20.06383,50.11344],[20.06705,50.11402],[20.07015,50.11393],[20.07026,50.11274],[20.07313,50.11272],[20.07646,50.11296],[20.07904,50.11235],[20.07769,50.11154],[20.07549,50.10949],[20.07622,50.10919],[20.07728,50.10822],[20.07827,50.1083],[20.08178,50.10958],[20.08372,50.10981],[20.08416,50.11022],[20.08436,50.11123],[20.08533,50.11153],[20.08795,50.1114],[20.08816,50.11346],[20.09023,50.11374],[20.09412,50.11479],[20.09422,50.1163],[20.09617,50.11901],[20.09613,50.11931],[20.10825,50.11675],[20.11135,50.1165],[20.1114,50.1169],[20.11484,50.11699],[20.11726,50.11678],[20.11795,50.11628],[20.11856,50.11677],[20.11998,50.11646],[20.12024,50.11571],[20.12084,50.10846],[20.12276,50.1085],[20.12757,50.10737],[20.13171,50.10683],[20.13549,50.10688],[20.13788,50.10676],[20.13794,50.10657],[20.14311,50.10647],[20.14384,50.10926],[20.14466,50.11146],[20.14633,50.11374],[20.14688,50.11434],[20.15174,50.11722],[20.15246,50.1179],[20.15301,50.11882],[20.15434,50.11946],[20.15698,50.1182],[20.15849,50.11552],[20.15838,50.11533],[20.15882,50.115],[20.15856,50.11481],[20.1588,50.11416],[20.15892,50.11211],[20.15925,50.11159],[20.16087,50.11066],[20.16007,50.11002],[20.15749,50.10705],[20.15764,50.10701],[20.15659,50.10334],[20.15678,50.1033],[20.15605,50.101],[20.15697,50.10096],[20.15688,50.1004],[20.15591,50.1004],[20.15589,50.09998],[20.15425,50.09997],[20.15418,50.09885],[20.15471,50.09692],[20.15435,50.0946],[20.14568,50.09304],[20.13747,50.09186],[20.13489,50.09162],[20.13319,50.09262],[20.13322,50.0922],[20.13122,50.09148],[20.12666,50.09071],[20.12516,50.09005],[20.11976,50.0892],[20.11976,50.08904],[20.11632,50.08861],[20.11663,50.08767],[20.1156,50.08753],[20.11245,50.08794],[20.11006,50.08891],[20.1073,50.08965],[20.09324,50.09228],[20.08966,50.0923],[20.08505,50.09172],[20.08545,50.09068],[20.08399,50.08934],[20.08375,50.08943],[20.08349,50.08917],[20.08208,50.08872],[20.06641,50.08124],[20.06617,50.08057]]]}},{"type":"Feature","properties":{"dzielnica":"Dzielnica XVIII","nrs":["371","372","373","374","375","376","377","378","379","380","381","382","383","384","385","386","387","388","389","390","391","392","393","394","395","396","397","398","399","400","401","402","403","404","405"]},"geometry":{"type":"MultiPolygon","coordinates":[[[[20.03533,50.06436],[20.03553,50.06397],[20.03326,50.06429],[20.03145,50.06477],[20.02952,50.06597],[20.02902,50.06607],[20.02922,50.06719],[20.02896,50.06792],[20.03089,50.06975],[20.02955,50.0701],[20.02872,50.071],[20.02922,50.07203],[20.01939,50.07298],[20.0182,50.07286],[20.01768,50.07256],[20.01659,50.07266],[20.01614,50.07318],[20.01629,50.07394],[20.01862,50.07486],[20.02581,50.07886],[20.02649,50.07971],[20.02641,50.07998],[20.02669,50.08012],[20.03113,50.07673],[20.03352,50.07801],[20.03604,50.07938],[20.03435,50.08068],[20.03273,50.08193],[20.03839,50.08505],[20.04033,50.0836],[20.04353,50.08278],[20.04764,50.08106],[20.05005,50.0799],[20.05235,50.07642],[20.06287,50.07915],[20.06612,50.07958],[20.06626,50.08094],[20.06663,50.08139],[20.08208,50.08872],[20.08425,50.0895],[20.08545,50.09068],[20.08505,50.09172],[20.08966,50.0923],[20.09324,50.09228],[20.1073,50.08965],[20.11006,50.08891],[20.11245,50.08794],[20.1156,50.08753],[20.11663,50.08767],[20.11632,50.08861],[20.11976,50.08904],[20.11976,50.0892],[20.12516,50.09005],[20.12666,50.09071],[20.13122,50.09148],[20.13322,50.0922],[20.13319,50.09262],[20.13489,50.09162],[20.13747,50.09186],[20.14568,50.09304],[20.15434,50.09463],[20.15471,50.09692],[20.15418,50.09885],[20.15425,50.09997],[20.15589,50.09998],[20.15591,50.1004],[20.15688,50.1004],[20.15697,50.10096],[20.15605,50.101],[20.15678,50.1033],[20.15659,50.10334],[20.15764,50.10701],[20.15749,50.10705],[20.16007,50.11002],[20.16087,50.11066],[20.15925,50.11159],[20.15897,50.11202],[20.15873,50.11466],[20.15856,50.11481],[20.15882,50.115],[20.15838,50.11533],[20.15849,50.11552],[20.15716,50.11796],[20.15634,50.11857],[20.15638,50.11897],[20.15722,50.11935],[20.15734,50.11968],[20.15768,50.11974],[20.1592,50.1208],[20.15906,50.12161],[20.16585,50.12153],[20.16581,50.12051],[20.17239,50.12039],[20.17319,50.11882],[20.17338,50.11908],[20.17422,50.11902],[20.17493,50.11979],[20.17875,50.11835],[20.17981,50.11723],[20.18157,50.11663],[20.18245,50.11784],[20.18535,50.11676],[20.18686,50.11822],[20.18975,50.1178],[20.19024,50.11803],[20.19052,50.11865],[20.19103,50.11905],[20.1925,50.11963],[20.19298,50.11967],[20.19355,50.11922],[20.1946,50.11901],[20.19549,50.11849],[20.19593,50.11869],[20.19625,50.11968],[20.19779,50.11964],[20.19898,50.12057],[20.20029,50.12021],[20.20027,50.12048],[20.20131,50.12047],[20.20145,50.11779],[20.20162,50.11749],[20.20407,50.11767],[20.20477,50.11739],[20.20386,50.11715],[20.20381,50.11638],[20.20398,50.11596],[20.20908,50.11557],[20.20573,50.11231],[20.20502,50.11113],[20.20224,50.11112],[20.20143,50.11065],[20.2009,50.11002],[20.19963,50.10962],[20.19788,50.10851],[20.19613,50.10826],[20.19575,50.10736],[20.19538,50.10697],[20.19506,50.10541],[20.1939,50.10435],[20.19317,50.10336],[20.19221,50.10057],[20.1916,50.09722],[20.19184,50.09556],[20.19157,50.0943],[20.19174,50.09165],[20.19284,50.08782],[20.19233,50.0874],[20.19037,50.08701],[20.18919,50.08645],[20.18493,50.08607],[20.18511,50.08564],[20.18559,50.08537],[20.1885,50.0851],[20.1897,50.08441],[20.19,50.08384],[20.18976,50.08325],[20.18978,50.08235],[20.19035,50.08168],[20.1911,50.0815],[20.1914,50.08111],[20.1927,50.08044],[20.19283,50.07979],[20.19335,50.07963],[20.19361,50.07911],[20.19461,50.07878],[20.19459,50.07822],[20.19553,50.07814],[20.19561,50.07639],[20.19685,50.07608],[20.19709,50.07562],[20.19942,50.0749],[20.19956,50.07424],[20.19523,50.07396],[20.19535,50.07372],[20.19445,50.07343],[20.19296,50.07228],[20.19275,50.07126],[20.19301,50.07047],[20.19476,50.06976],[20.19755,50.06915],[20.19896,50.06815],[20.19918,50.067],[20.20264,50.06583],[20.20438,50.06482],[20.20563,50.06517],[20.20636,50.06501],[20.20678,50.06471],[20.21204,50.05792],[20.21306,50.05688],[20.21735,50.05343],[20.21489,50.05192],[20.21282,50.05012],[20.21127,50.04791],[20.2103,50.04581],[20.20889,50.04461],[20.20727,50.04401],[20.20505,50.04364],[20.20112,50.04386],[20.19855,50.04469],[20.19486,50.04668],[20.19278,50.04756],[20.19135,50.048],[20.18853,50.04834],[20.18386,50.04802],[20.17861,50.04689],[20.16652,50.04384],[20.161,50.04293],[20.15939,50.04283],[20.15351,50.04306],[20.15035,50.04366],[20.14228,50.04573],[20.13929,50.04594],[20.13737,50.04564],[20.13496,50.04472],[20.13383,50.04391],[20.13176,50.04188],[20.12947,50.04037],[20.12767,50.03982],[20.1258,50.03969],[20.12279,50.04031],[20.11929,50.04181],[20.11576,50.04259],[20.11306,50.04267],[20.10686,50.04244],[20.10437,50.04128],[20.10319,50.04118],[20.1007,50.04132],[20.09808,50.0418],[20.09624,50.04258],[20.09506,50.04344],[20.09438,50.04442],[20.09416,50.04532],[20.09441,50.04619],[20.09446,50.04761],[20.09345,50.04959],[20.0921,50.051],[20.0902,50.05217],[20.08761,50.05293],[20.08666,50.05306],[20.08431,50.05283],[20.06898,50.05054],[20.05995,50.05047],[20.05724,50.05076],[20.05512,50.05134],[20.05135,50.052],[20.04834,50.05191],[20.04798,50.05267],[20.04745,50.05283],[20.04754,50.05347],[20.04243,50.05384],[20.03617,50.05628],[20.03704,50.05709],[20.03729,50.05775],[20.0375,50.05769],[20.03933,50.05865],[20.03841,50.05894],[20.04062,50.05995],[20.04163,50.05998],[20.04213,50.06145],[20.04146,50.06155],[20.04159,50.06235],[20.04033,50.06242],[20.04061727190683,50.06317061369204],[20.03533,50.06436]]],[[[20.02669,50.08012],[20.02809,50.08033],[20.02858,50.07973],[20.03273,50.08193],[20.03405,50.08091],[20.03604,50.07938],[20.03113,50.07673],[20.02938,50.07807],[20.02669,50.08012]]]]}}]}