{"type":"FeatureCollection","features":[{"type":"Feature","geometry":{"type":"Point","coordinates":[19.94761,50.05043]},"properties":{"siedziba":"VI Liceum Ogólnokształcące","ulica":"Wąska","nrBud":"7","obwody":["1"]}},{"type":"Feature","geometry":{"type":"Point","coordinates":[19.94467,50.05356]},"properties":{"siedziba":"Zespół Szkół Mechanicznych Nr 4","ulica":"Podbrzezie","nrBud":"10","obwody":["2"]}},{"type":"Feature","geometry":{"type":"Point","coordinates":[19.94722,50.05348]},"properties":{"siedziba":"Zespół Szkolno-Przedszkolny Nr 3","ulica":"Miodowa","nrBud":"36","obwody":["3"]}},{"type":"Feature","geometry":{"type":"Point","coordinates":[19.94189,50.04611]},"properties":{"siedziba":"Szkoła Podstawowa z Oddziałami Integracyjnymi Nr 22","ulica":"Adama Chmielowskiego","nrBud":"1","obwody":["4"]}},{"type":"Feature","geometry":{"type":"Point","coordinates":[19.93979,50.04786]},"properties":{"siedziba":"Samorządowe Przedszkole Nr 45","ulica":"Piekarska","nrBud":"14","obwody":["5"]}},{"type":"Feature","geometry":{"type":"Point","coordinates":[19.9363,50.05282]},"properties":{"siedziba":"XLIV Liceum Ogólnokształcące","ulica":"Bernardyńska","nrBud":"7","obwody":["6"]}},{"type":"Feature","geometry":{"type":"Point","coordinates":[19.94438,50.05584]},"properties":{"siedziba":"Zespół Szkół Ogólnokształcących Nr 2","ulica":"Józefa Dietla","nrBud":"70","obwody":["7"]}},{"type":"Feature","geometry":{"type":"Point","coordinates":[19.94553,50.05786]},"properties":{"siedziba":"Urząd Miasta Krakowa","ulica":"Wielopole","nrBud":"17A","obwody":["8"]}},{"type":"Feature","geometry":{"type":"Point","coordinates":[19.94343,50.06276]},"properties":{"siedziba":"Szkoła Podstawowa Nr 1","ulica":"św. Marka","nrBud":"34","obwody":["9","10"]}},{"type":"Feature","geometry":{"type":"Point","coordinates":[19.93341,50.05695]},"properties":{"siedziba":"I Liceum Ogólnokształcące","ulica":"Na Groblach","nrBud":"9","obwody":["11"]}},{"type":"Feature","geometry":{"type":"Point","coordinates":[19.93193,50.05933]},"properties":{"siedziba":"Szkoła Podstawowa Nr 4","ulica":"Smoleńsk","nrBud":"5-7","obwody":["12"]}},{"type":"Feature","geometry":{"type":"Point","coordinates":[19.9245,50.06149]},"properties":{"siedziba":"Zespół Szkół Mechanicznych Nr 1","ulica":"Adama Mickiewicza","nrBud":"5","obwody":["13"]}},{"type":"Feature","geometry":{"type":"Point","coordinates":[19.93071,50.06164]},"properties":{"siedziba":"Zespół Szkół Energetycznych","ulica":"Loretańska","nrBud":"16","obwody":["14"]}},{"type":"Feature","geometry":{"type":"Point","coordinates":[19.92929,50.06365]},"properties":{"siedziba":"Branżowa Szkoła I Stopnia Nr 30","ulica":"Józefa Szujskiego","nrBud":"2","obwody":["15"]}},{"type":"Feature","geometry":{"type":"Point","coordinates":[19.93486,50.06593]},"properties":{"siedziba":"Małopolskie Centrum Doskonalenia Nauczycieli Ośrodek w Krakowie","ulica":"Garbarska","nrBud":"1","obwody":["16"]}},{"type":"Feature","geometry":{"type":"Point","coordinates":[19.93124,50.0683]},"properties":{"siedziba":"II Liceum Ogólnokształcące","ulica":"Jana Sobieskiego","nrBud":"9","obwody":["17","18"]}},{"type":"Feature","geometry":{"type":"Point","coordinates":[19.93771,50.06773]},"properties":{"siedziba":"Centrum Medyczne 4M","ulica":"Krowoderska","nrBud":"17","obwody":["19"]}},{"type":"Feature","geometry":{"type":"Point","coordinates":[19.93388,50.07271]},"properties":{"siedziba":"Samorządowe Przedszkole Nr 44","ulica":"Jerzego Żuławskiego","nrBud":"9","obwody":["20"]}},{"type":"Feature","geometry":{"type":"Point","coordinates":[19.93956,50.06947]},"properties":{"siedziba":"X Liceum Ogólnokształcące","ulica":"Zygmunta Wróblewskiego","nrBud":"8","obwody":["21"]}},{"type":"Feature","geometry":{"type":"Point","coordinates":[19.94153,50.06735]},"properties":{"siedziba":"XLI Liceum Ogólnokształcące","ulica":"Rynek Kleparski","nrBud":"18","obwody":["22"]}},{"type":"Feature","geometry":{"type":"Point","coordinates":[19.95519,50.08113]},"properties":{"siedziba":"Szkoła Podstawowa Nr 95","ulica":"Wileńska","nrBud":"9B","obwody":["23","65","66","67"]}},{"type":"Feature","geometry":{"type":"Point","coordinates":[19.96233,50.07358]},"properties":{"siedziba":"Zespół Szkół Ogólnokształcących Mistrzostwa Sportowego","ulica":"Grochowska","nrBud":"20","obwody":["24","25"]}},{"type":"Feature","geometry":{"type":"Point","coordinates":[19.95305,50.06693]},"properties":{"siedziba":"Szkoła Podstawowa z Oddziałami Integracyjnymi Nr 3","ulica":"Topolowa","nrBud":"22","obwody":["26"]}},{"type":"Feature","geometry":{"type":"Point","coordinates":[19.96779,50.06806]},"properties":{"siedziba":"Urząd Miasta Krakowa","ulica":"Jana Kasprowicza","nrBud":"29","obwody":["27"]}},{"type":"Feature","geometry":{"type":"Point","coordinates":[19.96561,50.07199]},"properties":{"siedziba":"XXIV Liceum Ogólnokształcące","ulica":"Wilhelma Wilka-Wyrwińskiego","nrBud":"1","obwody":["28"]}},{"type":"Feature","geometry":{"type":"Point","coordinates":[19.9656,50.06708]},"properties":{"siedziba":"Młodzieżowy Dom Kultury","ulica":"Grunwaldzka","nrBud":"5","obwody":["29"]}},{"type":"Feature","geometry":{"type":"Point","coordinates":[19.96545,50.06321]},"properties":{"siedziba":"Szkoła Podstawowa Nr 38","ulica":"płk. Francesco Nullo","nrBud":"23","obwody":["30","31"]}},{"type":"Feature","geometry":{"type":"Point","coordinates":[19.96396,50.0629]},"properties":{"siedziba":"XIII Liceum Ogólnokształcące","ulica":"Sądowa","nrBud":"4","obwody":["32","33"]}},{"type":"Feature","geometry":{"type":"Point","coordinates":[19.95543,50.05864]},"properties":{"siedziba":"VIII Liceum Ogólnokształcące","ulica":"Grzegórzecka","nrBud":"24","obwody":["34","36"]}},{"type":"Feature","geometry":{"type":"Point","coordinates":[19.9514,50.05561]},"properties":{"siedziba":"Zespół Szkół Ogólnokształcących Nr 1","ulica":"ks. Franciszka Blachnickiego","nrBud":"1","obwody":["35"]}},{"type":"Feature","geometry":{"type":"Point","coordinates":[19.9569,50.05669]},"properties":{"siedziba":"Bursa Szkolnictwa Ponadpodstawowego Nr 1","ulica":"Rzeźnicza","nrBud":"4","obwody":["37"]}},{"type":"Feature","geometry":{"type":"Point","coordinates":[19.98187,50.06007]},"properties":{"siedziba":"Szkoła Podstawowa Nr 18","ulica":"Półkole","nrBud":"11","obwody":["38","39"]}},{"type":"Feature","geometry":{"type":"Point","coordinates":[19.97739,50.06188]},"properties":{"siedziba":"Szkoła Podstawowa Nr 39","ulica":"Stanisława Jachowicza","nrBud":"5","obwody":["40","41"]}},{"type":"Feature","geometry":{"type":"Point","coordinates":[19.98426,50.07384]},"properties":{"siedziba":"Szkoła Podstawowa Nr 114","ulica":"Łąkowa","nrBud":"31","obwody":["42","43"]}},{"type":"Feature","geometry":{"type":"Point","coordinates":[19.98643,50.07455]},"properties":{"siedziba":"Zespół Szkół Nr 1","ulica":"Ułanów","nrBud":"3","obwody":["44","45","299"]}},{"type":"Feature","geometry":{"type":"Point","coordinates":[19.98611,50.07944]},"properties":{"siedziba":"Zespół Szkół Ogólnokształcących Nr 9","ulica":"Seniorów Lotnictwa","nrBud":"5","obwody":["46","47"]}},{"type":"Feature","geometry":{"type":"Point","coordinates":[19.97357,50.0801]},"properties":{"siedziba":"Szkoła Muzyczna I Stopnia Nr 1","ulica":"Pilotów","nrBud":"51","obwody":["48"]}},{"type":"Feature","geometry":{"type":"Point","coordinates":[19.96598,50.08283]},"properties":{"siedziba":"Zespół Szkół Przemysłu Spożywczego","ulica":"Macieja Miechowity","nrBud":"6","obwody":["49","50","51"]}},{"type":"Feature","geometry":{"type":"Point","coordinates":[19.97344,50.08301]},"properties":{"siedziba":"Samorządowe Przedszkole Nr 14","ulica":"Młyńska Boczna","nrBud":"4","obwody":["52"]}},{"type":"Feature","geometry":{"type":"Point","coordinates":[19.9751,50.08248]},"properties":{"siedziba":"Szkoła Podstawowa Nr 64","ulica":"Sadzawki","nrBud":"1","obwody":["53","54","55"]}},{"type":"Feature","geometry":{"type":"Point","coordinates":[19.97134,50.0918]},"properties":{"siedziba":"Szkoła Podstawowa Nr 2","ulica":"Strzelców","nrBud":"5A","obwody":["56","57","58","59","60"]}},{"type":"Feature","geometry":{"type":"Point","coordinates":[19.97062,50.0877]},"properties":{"siedziba":"Zespół Szkół Ogólnokształcących Nr 13","ulica":"Kazimierza Odnowiciela","nrBud":"2","obwody":["61"]}},{"type":"Feature","geometry":{"type":"Point","coordinates":[19.96624,50.09152]},"properties":{"siedziba":"Samorządowe Przedszkole Nr 178","ulica":"Sudolska","nrBud":"3","obwody":["62","63"]}},{"type":"Feature","geometry":{"type":"Point","coordinates":[19.95747,50.089]},"properties":{"siedziba":"Młodzieżowy Dom Kultury","ulica":"29 Listopada","nrBud":"102","obwody":["64","68"]}},{"type":"Feature","geometry":{"type":"Point","coordinates":[19.96398,50.09881]},"properties":{"siedziba":"Zespół Szkolno-Przedszkolny Nr 12","ulica":"ks. Józefa Meiera","nrBud":"16D","obwody":["69","70","71"]}},{"type":"Feature","geometry":{"type":"Point","coordinates":[19.94428,50.10225]},"properties":{"siedziba":"Zespół Szkolno-Przedszkolny Nr 2","ulica":"Porzeczkowa","nrBud":"3","obwody":["72","73"]}},{"type":"Feature","geometry":{"type":"Point","coordinates":[19.93392,50.09409]},"properties":{"siedziba":"Szkoła Podstawowa Nr 58","ulica":"Stanisława Pigonia","nrBud":"2","obwody":["74","75"]}},{"type":"Feature","geometry":{"type":"Point","coordinates":[19.94583,50.09344]},"properties":{"siedziba":"Zespół Szkolno-Przedszkolny Nr 16","ulica":"Józefa Mackiewicza","nrBud":"15","obwody":["76","77","78","79","80"]}},{"type":"Feature","geometry":{"type":"Point","coordinates":[19.94116,50.08931]},"properties":{"siedziba":"Szkoła Podstawowa z Oddziałami Integracyjnymi Nr 107","ulica":"Zdrowa","nrBud":"6","obwody":["81","82","83","84"]}},{"type":"Feature","geometry":{"type":"Point","coordinates":[19.9291,50.08729]},"properties":{"siedziba":"Szkoła Podstawowa z Oddziałami Integracyjnymi Nr 15","ulica":"Kluczborska","nrBud":"3","obwody":["85","86","87","88"]}},{"type":"Feature","geometry":{"type":"Point","coordinates":[19.92282,50.08974]},"properties":{"siedziba":"Szkoła Podstawowa Nr 21","ulica":"Batalionu \"Skała\" AK","nrBud":"12","obwody":["89","90","91"]}},{"type":"Feature","geometry":{"type":"Point","coordinates":[19.92609,50.09301]},"properties":{"siedziba":"Samorządowe Przedszkole Nr 165","ulica":"Wincentego Danka","nrBud":"1","obwody":["92"]}},{"type":"Feature","geometry":{"type":"Point","coordinates":[19.90579,50.10708]},"properties":{"siedziba":"Szkoła Podstawowa Nr 67","ulica":"Kaczorówka","nrBud":"4","obwody":["93","412"]}},{"type":"Feature","geometry":{"type":"Point","coordinates":[19.88484,50.0964]},"properties":{"siedziba":"Zespół Szkolno-Przedszkolny Nr 14","ulica":"Stawowa","nrBud":"179","obwody":["94","95"]}},{"type":"Feature","geometry":{"type":"Point","coordinates":[19.9043,50.09526]},"properties":{"siedziba":"Publiczna Katolicka Szkoła Podstawowa im. św. Joanny Beretty Molli","ulica":"Stelmachów","nrBud":"137","obwody":["96"]}},{"type":"Feature","geometry":{"type":"Point","coordinates":[19.90272,50.08464]},"properties":{"siedziba":"Szkoła Podstawowa Nr 119","ulica":"Bolesława Czerwieńskiego","nrBud":"1","obwody":["97","98","99","100","101"]}},{"type":"Feature","geometry":{"type":"Point","coordinates":[19.91339,50.08688]},"properties":{"siedziba":"XIV Liceum Ogólnokształcące","ulica":"Józefa Chełmońskiego","nrBud":"24","obwody":["102","103"]}},{"type":"Feature","geometry":{"type":"Point","coordinates":[19.91702,50.08612]},"properties":{"siedziba":"Szkoła Podstawowa Nr 113","ulica":"Piotra Stachiewicza","nrBud":"33","obwody":["104","105"]}},{"type":"Feature","geometry":{"type":"Point","coordinates":[19.91625,50.07584]},"properties":{"siedziba":"Zespół Szkół Specjalnych Nr 4","ulica":"Zakątek","nrBud":"2","obwody":["106","107"]}},{"type":"Feature","geometry":{"type":"Point","coordinates":[19.92209,50.07762]},"properties":{"siedziba":"Zespół Szkolno-Przedszkolny Nr 18","ulica":"Litewska","nrBud":"34","obwody":["108","109"]}},{"type":"Feature","geometry":{"type":"Point","coordinates":[19.92249,50.07591]},"properties":{"siedziba":"Szkoła Podstawowa Nr 36","ulica":"Mazowiecka","nrBud":"70","obwody":["110","111","112","113"]}},{"type":"Feature","geometry":{"type":"Point","coordinates":[19.9350536,50.0743686]},"properties":{"siedziba":"Urząd Miasta Krakowa","ulica":"Lubelska","nrBud":"29","obwody":["114"]}},{"type":"Feature","geometry":{"type":"Point","coordinates":[19.92121,50.07414]},"properties":{"siedziba":"Zespół Szkolno-Przedszkolny Nr 4","ulica":"Urzędnicza","nrBud":"65","obwody":["115"]}},{"type":"Feature","geometry":{"type":"Point","coordinates":[19.92587,50.07041]},"properties":{"siedziba":"Uniwersytet Ekonomiczny, Instytut Nauk o Jakości i Zarządzania Produktem","ulica":"Henryka Sienkiewicza","nrBud":"4","obwody":["116"]}},{"type":"Feature","geometry":{"type":"Point","coordinates":[19.92037,50.06738]},"properties":{"siedziba":"Szkoła Podstawowa Nr 33","ulica":"Stanisława Konarskiego","nrBud":"2","obwody":["117"]}},{"type":"Feature","geometry":{"type":"Point","coordinates":[19.91919,50.06905]},"properties":{"siedziba":"IX Liceum Ogólnokształcące","ulica":"Kazimierza Czapińskiego","nrBud":"5","obwody":["118"]}},{"type":"Feature","geometry":{"type":"Point","coordinates":[19.91338,50.06891]},"properties":{"siedziba":"Szkoła Podstawowa z Oddziałami Integracyjnymi Nr 12","ulica":"Kijowska","nrBud":"3","obwody":["119"]}},{"type":"Feature","geometry":{"type":"Point","coordinates":[19.91451,50.07003]},"properties":{"siedziba":"Szkoła Podstawowa z Oddziałami Sportowymi Nr 5","ulica":"Kijowska","nrBud":"8","obwody":["120"]}},{"type":"Feature","geometry":{"type":"Point","coordinates":[19.91473,50.06531]},"properties":{"siedziba":"MDK \"Dom Harcerza\"","ulica":"Władysława Reymonta","nrBud":"18","obwody":["121"]}},{"type":"Feature","geometry":{"type":"Point","coordinates":[19.90867,50.07087]},"properties":{"siedziba":"VII Liceum Ogólnokształcące","ulica":"Stanisława Skarbińskiego","nrBud":"5","obwody":["122","123","124"]}},{"type":"Feature","geometry":{"type":"Point","coordinates":[19.90032,50.07329]},"properties":{"siedziba":"Szkoła Podstawowa Nr 93","ulica":"Feliksa Szlachtowskiego","nrBud":"31","obwody":["125","126"]}},{"type":"Feature","geometry":{"type":"Point","coordinates":[19.89505,50.08158]},"properties":{"siedziba":"Zespół Szkół Ogólnokształcących Nr 7","ulica":"Złoty Róg","nrBud":"30","obwody":["127","128"]}},{"type":"Feature","geometry":{"type":"Point","coordinates":[19.89497,50.07564]},"properties":{"siedziba":"Centrum Kształcenia Zawodowego Nr 1 Wydział Budowlany","ulica":"Wesele","nrBud":"41","obwody":["129"]}},{"type":"Feature","geometry":{"type":"Point","coordinates":[19.89343,50.07647]},"properties":{"siedziba":"Zespół Szkół Architektoniczno-Budowlanych","ulica":"Jerzego Szablowskiego","nrBud":"1","obwody":["130"]}},{"type":"Feature","geometry":{"type":"Point","coordinates":[19.88248,50.07762]},"properties":{"siedziba":"XVIII Liceum Ogólnokształcące","ulica":"Na Błonie","nrBud":"15B","obwody":["131","132"]}},{"type":"Feature","geometry":{"type":"Point","coordinates":[19.88398,50.07741]},"properties":{"siedziba":"Szkoła Podstawowa Nr 153","ulica":"Na Błonie","nrBud":"15D","obwody":["133","134"]}},{"type":"Feature","geometry":{"type":"Point","coordinates":[19.88198,50.08443]},"properties":{"siedziba":"Szkoła Podstawowa Nr 50","ulica":"Katowicka","nrBud":"28","obwody":["135","409"]}},{"type":"Feature","geometry":{"type":"Point","coordinates":[19.84688,50.08459]},"properties":{"siedziba":"Szkoła Podstawowa Nr 138","ulica":"Kazimierza Wierzyńskiego","nrBud":"3","obwody":["136","137"]}},{"type":"Feature","geometry":{"type":"Point","coordinates":[19.83362,50.07345]},"properties":{"siedziba":"Publiczna Szkoła Podstawowa Sióstr Pijarek im. św. Józefa Kalasancjusza","ulica":"Grzegorza Korzeniaka","nrBud":"18","obwody":["138"]}},{"type":"Feature","geometry":{"type":"Point","coordinates":[19.84658,50.0676]},"properties":{"siedziba":"Centrum Kultury \"Dworek Białoprądnicki\" Klub Kultury \"Chełm\"","ulica":"Chełmska","nrBud":"16","obwody":["139"]}},{"type":"Feature","geometry":{"type":"Point","coordinates":[19.82477,50.04419]},"properties":{"siedziba":"Szkoła Podstawowa Nr 48","ulica":"Księcia Józefa","nrBud":"337","obwody":["140"]}},{"type":"Feature","geometry":{"type":"Point","coordinates":[19.87382,50.04826]},"properties":{"siedziba":"Centrum Kultury \"Dworek Białoprądnicki\" Klub Kultury „Przegorzały”","ulica":"Kamedulska","nrBud":"70","obwody":["141"]}},{"type":"Feature","geometry":{"type":"Point","coordinates":[19.86504,50.06431]},"properties":{"siedziba":"Szkoła Podstawowa Nr 72","ulica":"Modrzewiowa","nrBud":"23","obwody":["142","143"]}},{"type":"Feature","geometry":{"type":"Point","coordinates":[19.90443,50.05582]},"properties":{"siedziba":"Szkoła Podstawowa Nr 32","ulica":"Królowej Jadwigi","nrBud":"78","obwody":["144","145"]}},{"type":"Feature","geometry":{"type":"Point","coordinates":[19.91738,50.05577]},"properties":{"siedziba":"Szkoła Podstawowa Nr 31","ulica":"Bolesława Prusa","nrBud":"18","obwody":["146"]}},{"type":"Feature","geometry":{"type":"Point","coordinates":[19.91703,50.05368]},"properties":{"siedziba":"Zespół Szkół Ogólnokształcących Nr 18","ulica":"Senatorska","nrBud":"35","obwody":["147","148"]}},{"type":"Feature","geometry":{"type":"Point","coordinates":[19.92387,50.05058]},"properties":{"siedziba":"Szkoła Podstawowa Nr 110","ulica":"Skwerowa","nrBud":"3","obwody":["149","150"]}},{"type":"Feature","geometry":{"type":"Point","coordinates":[19.93215,50.04261]},"properties":{"siedziba":"Szkoła Podstawowa Nr 25","ulica":"Komandosów","nrBud":"29","obwody":["151","152","153","154"]}},{"type":"Feature","geometry":{"type":"Point","coordinates":[19.92232,50.04638]},"properties":{"siedziba":"Zespół Szkół Łączności","ulica":"Monte Cassino","nrBud":"31","obwody":["155","156"]}},{"type":"Feature","geometry":{"type":"Point","coordinates":[19.90738,50.04477]},"properties":{"siedziba":"Specjalny Ośrodek Szkolno-Wychowawczy Nr 3","ulica":"Praska","nrBud":"64","obwody":["157"]}},{"type":"Feature","geometry":{"type":"Point","coordinates":[19.88908,50.03583]},"properties":{"siedziba":"Szkoła Podstawowa Nr 62","ulica":"Ćwikłowa","nrBud":"1","obwody":["158","159"]}},{"type":"Feature","geometry":{"type":"Point","coordinates":[19.85843,50.02951]},"properties":{"siedziba":"Szkoła Podstawowa Nr 54","ulica":"Tyniecka","nrBud":"122","obwody":["160"]}},{"type":"Feature","geometry":{"type":"Point","coordinates":[19.80691,50.01804]},"properties":{"siedziba":"Centrum Kultury Podgórza Klub Tyniec","ulica":"Dziewiarzy","nrBud":"7","obwody":["161","162"]}},{"type":"Feature","geometry":{"type":"Point","coordinates":[19.87229,49.98782]},"properties":{"siedziba":"Zespół Szkolno-Przedszkolny Nr 8","ulica":"Mieczysława Wrony","nrBud":"115","obwody":["163","164"]}},{"type":"Feature","geometry":{"type":"Point","coordinates":[19.87378,50.01668]},"properties":{"siedziba":"Zespół Szkolno-Przedszkolny Nr 7","ulica":"Skotnicka","nrBud":"86","obwody":["165","166","167","407"]}},{"type":"Feature","geometry":{"type":"Point","coordinates":[19.89961,50.01151]},"properties":{"siedziba":"Szkoła Podstawowa Nr 53","ulica":"Skośna","nrBud":"8","obwody":["168","169","170","171","172","173"]}},{"type":"Feature","geometry":{"type":"Point","coordinates":[19.91598,50.02596]},"properties":{"siedziba":"Szkoła Podstawowa Nr 40","ulica":"Pszczelna","nrBud":"13","obwody":["174","175","176","177","178","179"]}},{"type":"Feature","geometry":{"type":"Point","coordinates":[19.92268,50.02988]},"properties":{"siedziba":"Szkoła Podstawowa z Oddziałami Integracyjnymi Nr 151","ulica":"Wacława Lipińskiego","nrBud":"2","obwody":["180","181","182","183"]}},{"type":"Feature","geometry":{"type":"Point","coordinates":[19.92336,50.02645]},"properties":{"siedziba":"Szkoła Podstawowa z Oddziałami Integracyjnymi Nr 158","ulica":"Strąkowa","nrBud":"3A","obwody":["184"]}},{"type":"Feature","geometry":{"type":"Point","coordinates":[19.93234,50.03072]},"properties":{"siedziba":"Miejskie Przedsiębiorstwo Komunikacyjne S. A.","ulica":"Jana Brożka","nrBud":"3","obwody":["185"]}},{"type":"Feature","geometry":{"type":"Point","coordinates":[19.93486,50.02701]},"properties":{"siedziba":"Sieć Badawcza Łukasiewicz - Łódzki Instytut Technologiczny","ulica":"Zakopiańska","nrBud":"9","obwody":["186"]}},{"type":"Feature","geometry":{"type":"Point","coordinates":[19.94236,50.02106]},"properties":{"siedziba":"Szkoła Podstawowa Nr 56","ulica":"Aleksandra Fredry","nrBud":"65","obwody":["187","188"]}},{"type":"Feature","geometry":{"type":"Point","coordinates":[19.92849,50.01301]},"properties":{"siedziba":"Centrum Kultury Podgórza Centrum Sztuki Współczesnej „Solvay”","ulica":"Zakopiańska","nrBud":"62","obwody":["189"]}},{"type":"Feature","geometry":{"type":"Point","coordinates":[19.92417,50.01875]},"properties":{"siedziba":"Szkoła Podstawowa Nr 49","ulica":"Józefa Montwiłła-Mireckiego","nrBud":"29","obwody":["190","191"]}},{"type":"Feature","geometry":{"type":"Point","coordinates":[19.92602,50.01623]},"properties":{"siedziba":"Przedszkole Samorządowe nr 95","ulica":"Kościuszkowców","nrBud":"6","obwody":["192"]}},{"type":"Feature","geometry":{"type":"Point","coordinates":[19.91879,50.00146]},"properties":{"siedziba":"Szkoła Podstawowa Nr 97","ulica":"Doktora Judyma","nrBud":"10","obwody":["193","194","195"]}},{"type":"Feature","geometry":{"type":"Point","coordinates":[19.89604,49.99791]},"properties":{"siedziba":"Szkoła Podstawowa Nr 14","ulica":"Profesora Wojciecha Marii Bartla","nrBud":"29","obwody":["196","197","406"]}},{"type":"Feature","geometry":{"type":"Point","coordinates":[19.91317,49.99104]},"properties":{"siedziba":"Szkoła Podstawowa Nr 134","ulica":"Kłuszyńska","nrBud":"46","obwody":["198","199"]}},{"type":"Feature","geometry":{"type":"Point","coordinates":[19.92513,50.00131]},"properties":{"siedziba":"Oddziały Szkoły Podstawowej Nr 97","ulica":"Armii \"Kraków\"","nrBud":"76","obwody":["200"]}},{"type":"Feature","geometry":{"type":"Point","coordinates":[19.94696,49.99329]},"properties":{"siedziba":"Szkoła Podstawowa Nr 43","ulica":"Myślenicka","nrBud":"112","obwody":["201","202"]}},{"type":"Feature","geometry":{"type":"Point","coordinates":[19.94585,49.98426]},"properties":{"siedziba":"Zespół Szkolno-Przedszkolny Nr 13","ulica":"Mirtowa","nrBud":"2","obwody":["203"]}},{"type":"Feature","geometry":{"type":"Point","coordinates":[19.94974,49.9794]},"properties":{"siedziba":"Centrum Kultury Podgórza Klub Wróblowice","ulica":"Henryka Niewodniczańskiego","nrBud":"74","obwody":["204"]}},{"type":"Feature","geometry":{"type":"Point","coordinates":[19.96041,49.97353]},"properties":{"siedziba":"Ochotnicza Straż Pożarna Zbydniowice","ulica":"Matematyków Krakowskich","nrBud":"102","obwody":["205"]}},{"type":"Feature","geometry":{"type":"Point","coordinates":[19.97187,49.99126]},"properties":{"siedziba":"Szkoła Podstawowa \"Rajska Szkoła\"","ulica":"Tuchowska","nrBud":"113","obwody":["206"]}},{"type":"Feature","geometry":{"type":"Point","coordinates":[19.98614,49.9833]},"properties":{"siedziba":"Centrum Kultury Podgórza Klub Soboniowice","ulica":"Jerzego Kuryłowicza","nrBud":"115","obwody":["207"]}},{"type":"Feature","geometry":{"type":"Point","coordinates":[19.98808,49.99478]},"properties":{"siedziba":"Publiczne Rajskie Przedszkole","ulica":"Jana Izydora Sztaudyngera","nrBud":"5","obwody":["208"]}},{"type":"Feature","geometry":{"type":"Point","coordinates":[19.98318,50.00619]},"properties":{"siedziba":"Samorządowe Przedszkole Nr 33","ulica":"Rżącka","nrBud":"1","obwody":["209"]}},{"type":"Feature","geometry":{"type":"Point","coordinates":[19.96573,50.00609]},"properties":{"siedziba":"Zespół Szkół Odzieżowych Nr 1","ulica":"Cechowa","nrBud":"57","obwody":["210","211","212"]}},{"type":"Feature","geometry":{"type":"Point","coordinates":[19.95383,50.00617]},"properties":{"siedziba":"Szkoła Podstawowa z Oddziałami Integracyjnymi Nr 162","ulica":"Stanisława Stojałowskiego","nrBud":"31","obwody":["213","214","215","216"]}},{"type":"Feature","geometry":{"type":"Point","coordinates":[19.95143,50.01011]},"properties":{"siedziba":"Szkoła Podstawowa Nr 149","ulica":"Franciszka Bujaka","nrBud":"15","obwody":["217","218","219","220","221"]}},{"type":"Feature","geometry":{"type":"Point","coordinates":[19.9557,50.01665]},"properties":{"siedziba":"Szkoła Podstawowa Nr 55","ulica":"Dobczycka","nrBud":"20","obwody":["222","223","224"]}},{"type":"Feature","geometry":{"type":"Point","coordinates":[19.95673,50.02497]},"properties":{"siedziba":"Zarząd Infrastruktury Sportowej w Krakowie","ulica":"Walerego Sławka","nrBud":"10","obwody":["225"]}},{"type":"Feature","geometry":{"type":"Point","coordinates":[19.9654,50.02264]},"properties":{"siedziba":"Szkoła Podstawowa im. Bł. Celiny Borzęckiej","ulica":"Malborska","nrBud":"98","obwody":["226","227","228"]}},{"type":"Feature","geometry":{"type":"Point","coordinates":[19.97546,50.02473]},"properties":{"siedziba":"Zespół Szkół Elektrycznych Nr 1 Internat","ulica":"Henryka Kamieńskiego","nrBud":"49A","obwody":["229"]}},{"type":"Feature","geometry":{"type":"Point","coordinates":[19.97093,50.01952]},"properties":{"siedziba":"Zespół Szkolno-Przedszkolny Nr 17","ulica":"Czarnogórska","nrBud":"14","obwody":["230","231","232","233"]}},{"type":"Feature","geometry":{"type":"Point","coordinates":[19.97473,50.01229]},"properties":{"siedziba":"Szkoła Podstawowa Nr 27","ulica":"Podedworze","nrBud":"16","obwody":["234","235","236"]}},{"type":"Feature","geometry":{"type":"Point","coordinates":[19.98069,50.01803]},"properties":{"siedziba":"KOSTKA Publiczne Liceum Ogólnokształcące Jezuitów im. św. Stanisława Kostki","ulica":"Spółdzielców","nrBud":"5","obwody":["237","238","239"]}},{"type":"Feature","geometry":{"type":"Point","coordinates":[19.98159,50.01584]},"properties":{"siedziba":"Szkoła Podstawowa Nr 123","ulica":"Okólna","nrBud":"16","obwody":["240","241","242"]}},{"type":"Feature","geometry":{"type":"Point","coordinates":[19.98613,50.02218]},"properties":{"siedziba":"XV Liceum Ogólnokształcące","ulica":"Adolfa Dygasińskiego","nrBud":"15","obwody":["243","244"]}},{"type":"Feature","geometry":{"type":"Point","coordinates":[19.99023,50.02455]},"properties":{"siedziba":"Szkoła Podstawowa Nr 61","ulica":"Wacława Popławskiego","nrBud":"17","obwody":["245","246"]}},{"type":"Feature","geometry":{"type":"Point","coordinates":[19.99601,50.02092]},"properties":{"siedziba":"Młodzieżowy Dom Kultury","ulica":"Na Wrzosach","nrBud":"57","obwody":["247"]}},{"type":"Feature","geometry":{"type":"Point","coordinates":[20.00711,50.01829]},"properties":{"siedziba":"Szkoła Podstawowa Nr 41","ulica":"Erazma Jerzmanowskiego","nrBud":"6","obwody":["248","249","250"]}},{"type":"Feature","geometry":{"type":"Point","coordinates":[19.99605,50.0172]},"properties":{"siedziba":"Szkoła Podstawowa z Oddziałami Integracyjnymi Nr 148","ulica":"Żabia","nrBud":"20","obwody":["251","252"]}},{"type":"Feature","geometry":{"type":"Point","coordinates":[20.00921,50.0134]},"properties":{"siedziba":"Zespół Szkolno-Przedszkolny Nr 19","ulica":"Jana Kurczaba","nrBud":"15","obwody":["253","254","255","256"]}},{"type":"Feature","geometry":{"type":"Point","coordinates":[20.00599,50.00632]},"properties":{"siedziba":"Zespół Szkolno-Przedszkolny Nr 10","ulica":"Ludwika Rydygiera","nrBud":"20","obwody":["257","258"]}},{"type":"Feature","geometry":{"type":"Point","coordinates":[20.01672,50.01246]},"properties":{"siedziba":"Zespół Szkolno-Przedszkolny Nr 11","ulica":"Aleksandry","nrBud":"17","obwody":["259","260","261","262"]}},{"type":"Feature","geometry":{"type":"Point","coordinates":[20.01614,50.01993]},"properties":{"siedziba":"XXV Liceum Ogólnokształcące","ulica":"Telimeny","nrBud":"9","obwody":["263","264"]}},{"type":"Feature","geometry":{"type":"Point","coordinates":[20.02245,50.01903]},"properties":{"siedziba":"Szkoła Podstawowa Nr 111","ulica":"Bieżanowska","nrBud":"204","obwody":["265"]}},{"type":"Feature","geometry":{"type":"Point","coordinates":[20.0409,50.01441]},"properties":{"siedziba":"Szkoła Podstawowa Nr 124","ulica":"Ferdynanda Weigla","nrBud":"2","obwody":["266","267","268"]}},{"type":"Feature","geometry":{"type":"Point","coordinates":[20.04478,50.02297]},"properties":{"siedziba":"Szkoła Podstawowa Nr 20","ulica":"Agatowa","nrBud":"41","obwody":["269","270","408"]}},{"type":"Feature","geometry":{"type":"Point","coordinates":[20.0659,50.04419]},"properties":{"siedziba":"Zespół Szkolno-Przedszkolny Nr 20","ulica":"Feliksa Wrobela","nrBud":"79","obwody":["271"]}},{"type":"Feature","geometry":{"type":"Point","coordinates":[20.03383,50.04592]},"properties":{"siedziba":"Zespół Szkolno-Przedszkolny Nr 21","ulica":"Golikówka","nrBud":"52","obwody":["272"]}},{"type":"Feature","geometry":{"type":"Point","coordinates":[19.99225,50.03712]},"properties":{"siedziba":"Zespół Szkolno-Przedszkolny Nr 15","ulica":"Seweryna Goszczyńskiego","nrBud":"44","obwody":["273","274"]}},{"type":"Feature","geometry":{"type":"Point","coordinates":[19.99248,50.04568]},"properties":{"siedziba":"Zespół Szkolno-Przedszkolny Nr 1","ulica":"Myśliwska","nrBud":"64","obwody":["275","276","277","278"]}},{"type":"Feature","geometry":{"type":"Point","coordinates":[19.98343,50.04337]},"properties":{"siedziba":"Samorządowe Przedszkole Nr 11","ulica":"Saska","nrBud":"11","obwody":["279","280"]}},{"type":"Feature","geometry":{"type":"Point","coordinates":[19.96631,50.03877]},"properties":{"siedziba":"Urząd Miasta Krakowa","ulica":"Wielicka","nrBud":"28A","obwody":["281"]}},{"type":"Feature","geometry":{"type":"Point","coordinates":[19.9681,50.03392]},"properties":{"siedziba":"Przedsiębiorstwo KSTU Krakowskie Centrum Terapii Uzależnień","ulica":"Wielicka","nrBud":"73","obwody":["282"]}},{"type":"Feature","geometry":{"type":"Point","coordinates":[19.9551,50.0419]},"properties":{"siedziba":"Szkoła Podstawowa Nr 29","ulica":"Edwarda Dembowskiego","nrBud":"12","obwody":["283"]}},{"type":"Feature","geometry":{"type":"Point","coordinates":[19.9412641,50.0325468]},"properties":{"siedziba":"Urząd Miasta Krakowa","ulica":"Wadowicka","nrBud":"8W","obwody":["284"]}},{"type":"Feature","geometry":{"type":"Point","coordinates":[19.94268,50.03637]},"properties":{"siedziba":"Specjalny Ośrodek Szkolno-Wychowawczy Nr 2 im. J. Korczaka","ulica":"Jana Zamoyskiego","nrBud":"100","obwody":["285"]}},{"type":"Feature","geometry":{"type":"Point","coordinates":[19.93925,50.0401]},"properties":{"siedziba":"Szkoła Podstawowa Nr 26","ulica":"Ignacego Krasickiego","nrBud":"34","obwody":["286","287"]}},{"type":"Feature","geometry":{"type":"Point","coordinates":[19.94986,50.04474]},"properties":{"siedziba":"Urząd Miasta Krakowa","ulica":"Rynek Podgórski","nrBud":"1","obwody":["288"]}},{"type":"Feature","geometry":{"type":"Point","coordinates":[19.95001,50.04585]},"properties":{"siedziba":"Szkoła Muzyczna I i II Stopnia","ulica":"Józefińska","nrBud":"10","obwody":["289"]}},{"type":"Feature","geometry":{"type":"Point","coordinates":[19.95905,50.04342]},"properties":{"siedziba":"XLIII Liceum Ogólnokształcące","ulica":"Bolesława Limanowskiego","nrBud":"60-62","obwody":["290","291"]}},{"type":"Feature","geometry":{"type":"Point","coordinates":[19.96697,50.0502]},"properties":{"siedziba":"Urząd Miasta Krakowa","ulica":"Zabłocie","nrBud":"22","obwody":["292"]}},{"type":"Feature","geometry":{"type":"Point","coordinates":[20.01377,50.06896]},"properties":{"siedziba":"Szkoła Podstawowa Nr 156","ulica":"Centralna","nrBud":"39","obwody":["293","294","295","296"]}},{"type":"Feature","geometry":{"type":"Point","coordinates":[20.02256,50.07583]},"properties":{"siedziba":"Szkoła Podstawowa Nr 103","ulica":"Kolorowe","nrBud":"29","obwody":["297","298","385","386"]}},{"type":"Feature","geometry":{"type":"Point","coordinates":[20.00857,50.07886]},"properties":{"siedziba":"Szkoła Podstawowa Nr 155","ulica":"2 Pułku Lotniczego","nrBud":"21","obwody":["300","301","302","303","410"]}},{"type":"Feature","geometry":{"type":"Point","coordinates":[20.00625,50.08347]},"properties":{"siedziba":"XXX Liceum Ogólnokształcące","ulica":"Dywizjonu 303","nrBud":"66","obwody":["304","305","306","307","308"]}},{"type":"Feature","geometry":{"type":"Point","coordinates":[19.9964,50.08404]},"properties":{"siedziba":"Międzynarodowe Centrum Kształcenia","ulica":"Stanisława Skarżyńskiego","nrBud":"1","obwody":["309"]}},{"type":"Feature","geometry":{"type":"Point","coordinates":[19.98986,50.09025]},"properties":{"siedziba":"Zespół Szkolno-Przedszkolny Nr 5","ulica":"Oświecenia","nrBud":"30","obwody":["310","311","312","313"]}},{"type":"Feature","geometry":{"type":"Point","coordinates":[19.99926,50.09208]},"properties":{"siedziba":"Szkoła Podstawowa Nr 126","ulica":"Tysiąclecia","nrBud":"57","obwody":["314","315"]}},{"type":"Feature","geometry":{"type":"Point","coordinates":[20.00203,50.09137]},"properties":{"siedziba":"Młodzieżowy Dom Kultury im. A. Bursy","ulica":"Tysiąclecia","nrBud":"15","obwody":["316","317"]}},{"type":"Feature","geometry":{"type":"Point","coordinates":[20.008,50.09265]},"properties":{"siedziba":"Samorządowe Przedszkole Nr 177","ulica":"Kombatantów","nrBud":"13","obwody":["318"]}},{"type":"Feature","geometry":{"type":"Point","coordinates":[20.00136,50.09692]},"properties":{"siedziba":"Klub Kuźnia Ośrodka Kultury im. C. K. Norwida","ulica":"Złotego Wieku","nrBud":"14","obwody":["319","320"]}},{"type":"Feature","geometry":{"type":"Point","coordinates":[19.99995,50.0976]},"properties":{"siedziba":"Szkoła Podstawowa Nr 85","ulica":"Złotego Wieku","nrBud":"4","obwody":["321","322"]}},{"type":"Feature","geometry":{"type":"Point","coordinates":[20.00368,50.09765]},"properties":{"siedziba":"Szkoła Podstawowa z Oddziałami Integracyjnymi Nr 77","ulica":"Złotego Wieku","nrBud":"36","obwody":["323","324"]}},{"type":"Feature","geometry":{"type":"Point","coordinates":[20.00794,50.09794]},"properties":{"siedziba":"Szkoła Podstawowa z Oddziałami Integracyjnymi Nr 144","ulica":"Bohaterów Września","nrBud":"13","obwody":["325","326","327","328"]}},{"type":"Feature","geometry":{"type":"Point","coordinates":[20.01798,50.09987]},"properties":{"siedziba":"Szkoła Podstawowa Nr 89","ulica":"Piastów","nrBud":"34A","obwody":["329","330","331","332"]}},{"type":"Feature","geometry":{"type":"Point","coordinates":[20.01827,50.09869]},"properties":{"siedziba":"Publiczne Salezjańskie Liceum Ogólnokształcące","ulica":"Piastów","nrBud":"34","obwody":["333","334","335"]}},{"type":"Feature","geometry":{"type":"Point","coordinates":[20.02341,50.09057]},"properties":{"siedziba":"Zespół Szkół Zawodowych Huty im. T. Sendzimira","ulica":"Złotej Jesieni","nrBud":"2","obwody":["336","337"]}},{"type":"Feature","geometry":{"type":"Point","coordinates":[20.02358,50.08828]},"properties":{"siedziba":"Szkoła Podstawowa Nr 101","ulica":"Jagiellońskie","nrBud":"9","obwody":["338","339","340","341"]}},{"type":"Feature","geometry":{"type":"Point","coordinates":[20.01827,50.08902]},"properties":{"siedziba":"III Liceum Ogólnokształcące","ulica":"Wysokie","nrBud":"6","obwody":["342"]}},{"type":"Feature","geometry":{"type":"Point","coordinates":[20.01668,50.0893]},"properties":{"siedziba":"Szkoła Podstawowa Nr 104","ulica":"Wysokie","nrBud":"7","obwody":["343","344"]}},{"type":"Feature","geometry":{"type":"Point","coordinates":[20.01253,50.09132]},"properties":{"siedziba":"Szkoła Podstawowa Nr 82","ulica":"Kalinowe","nrBud":"17","obwody":["345","346"]}},{"type":"Feature","geometry":{"type":"Point","coordinates":[20.00919,50.09019]},"properties":{"siedziba":"Szkoła Podstawowa Nr 92","ulica":"Józefa Strusia","nrBud":"19","obwody":["347","348"]}},{"type":"Feature","geometry":{"type":"Point","coordinates":[20.01332,50.08343]},"properties":{"siedziba":"Publiczna Szkoła Podstawowa Sióstr Salezjanek im. Błogosławionej Laury Vicuna","ulica":"Kościuszkowskie","nrBud":"7","obwody":["349"]}},{"type":"Feature","geometry":{"type":"Point","coordinates":[20.01962,50.08094]},"properties":{"siedziba":"Szkoła Podstawowa Nr 100","ulica":"Albertyńskie","nrBud":"36","obwody":["350","351","352"]}},{"type":"Feature","geometry":{"type":"Point","coordinates":[20.02084,50.07982]},"properties":{"siedziba":"Szkoła Podstawowa im. Bogdana Jańskiego w Krakowie","ulica":"Niepodległości","nrBud":"19","obwody":["353","354"]}},{"type":"Feature","geometry":{"type":"Point","coordinates":[20.02753,50.08493]},"properties":{"siedziba":"Szkoła Podstawowa Nr 86","ulica":"Jagiellońskie","nrBud":"18","obwody":["355","356","357"]}},{"type":"Feature","geometry":{"type":"Point","coordinates":[20.03068,50.08402]},"properties":{"siedziba":"Zespół Szkół Gastronomicznych Nr 1","ulica":"Złotej Jesieni","nrBud":"16","obwody":["358","359"]}},{"type":"Feature","geometry":{"type":"Point","coordinates":[20.05246,50.09512]},"properties":{"siedziba":"Oddziały Szkoły Podstawowej Nr 129","ulica":"Na Stoku","nrBud":"34","obwody":["360","361","362"]}},{"type":"Feature","geometry":{"type":"Point","coordinates":[20.05539,50.09204]},"properties":{"siedziba":"Szkoła Podstawowa z Oddziałami Integracyjnymi Nr 98","ulica":"Na Stoku","nrBud":"52","obwody":["363"]}},{"type":"Feature","geometry":{"type":"Point","coordinates":[20.06014,50.09736]},"properties":{"siedziba":"Szkoła Podstawowa Nr 129","ulica":"Na Wzgórzach","nrBud":"13A","obwody":["364","365"]}},{"type":"Feature","geometry":{"type":"Point","coordinates":[20.05798,50.11239]},"properties":{"siedziba":"Ośrodek Kultury Kraków-Nowa Huta, Klub Zakole","ulica":"Zakole","nrBud":"31","obwody":["366","411"]}},{"type":"Feature","geometry":{"type":"Point","coordinates":[20.07349,50.09958]},"properties":{"siedziba":"Ośrodek Kultury Kraków Nowa Huta Klub Dukat","ulica":"Styczna","nrBud":"1","obwody":["367"]}},{"type":"Feature","geometry":{"type":"Point","coordinates":[20.12358,50.09987]},"properties":{"siedziba":"Szkoła Podstawowa Nr 78","ulica":"Jaskrowa","nrBud":"5","obwody":["368"]}},{"type":"Feature","geometry":{"type":"Point","coordinates":[20.09444,50.09565]},"properties":{"siedziba":"Oddziały Szkoły Podstawowej Nr 78","ulica":"Łuczanowicka","nrBud":"2A","obwody":["369"]}},{"type":"Feature","geometry":{"type":"Point","coordinates":[20.05669,50.08059]},"properties":{"siedziba":"Ośrodek Kultury Kraków Nowa Huta Klub Krzesławice","ulica":"Melchiora Wańkowicza","nrBud":"17","obwody":["370"]}},{"type":"Feature","geometry":{"type":"Point","coordinates":[20.0475,50.07562]},"properties":{"siedziba":"Młodzieżowy Dom Kultury im. J. Korczaka","ulica":"Szkolne","nrBud":"5","obwody":["371"]}},{"type":"Feature","geometry":{"type":"Point","coordinates":[20.04895,50.0775]},"properties":{"siedziba":"Zespół Szkół Elektrycznych Nr 2","ulica":"Szkolne","nrBud":"26","obwody":["372"]}},{"type":"Feature","geometry":{"type":"Point","coordinates":[20.04161,50.07594]},"properties":{"siedziba":"Szkoła Podstawowa Nr 88","ulica":"Szklane Domy","nrBud":"2","obwody":["373","374"]}},{"type":"Feature","geometry":{"type":"Point","coordinates":[20.04198,50.07806]},"properties":{"siedziba":"Szkoła Podstawowa z Oddziałami Integracyjnymi Nr 105","ulica":"Słoneczne","nrBud":"12","obwody":["375"]}},{"type":"Feature","geometry":{"type":"Point","coordinates":[20.04738,50.07984]},"properties":{"siedziba":"Zespół Szkół Zawodowych Nr 2","ulica":"Szkolne","nrBud":"18","obwody":["376"]}},{"type":"Feature","geometry":{"type":"Point","coordinates":[20.04694,50.0818]},"properties":{"siedziba":"Publiczne Liceum Ogólnokształcące im. Królowej Apostołów w Krakowie","ulica":"Bulwarowa","nrBud":"33","obwody":["377"]}},{"type":"Feature","geometry":{"type":"Point","coordinates":[20.04003,50.08166]},"properties":{"siedziba":"Szkoła Podstawowa im. św. Wincentego Pallottiego","ulica":"Krakowiaków","nrBud":"47","obwody":["378","379"]}},{"type":"Feature","geometry":{"type":"Point","coordinates":[20.03637,50.07976]},"properties":{"siedziba":"Ośrodek Kultury im. C. K. Norwida","ulica":"Górali","nrBud":"5","obwody":["380"]}},{"type":"Feature","geometry":{"type":"Point","coordinates":[20.03419,50.07998]},"properties":{"siedziba":"Zespół Szkół Ogólnokształcących Sportowych Nr 2","ulica":"Teatralne","nrBud":"35","obwody":["381","382"]}},{"type":"Feature","geometry":{"type":"Point","coordinates":[20.03249,50.08074]},"properties":{"siedziba":"XI Liceum Ogólnokształcące","ulica":"Teatralne","nrBud":"33","obwody":["383"]}},{"type":"Feature","geometry":{"type":"Point","coordinates":[20.02523,50.07765]},"properties":{"siedziba":"Zespół Szkół Ekonomicznych Nr 2","ulica":"Spółdzielcze","nrBud":"6","obwody":["384"]}},{"type":"Feature","geometry":{"type":"Point","coordinates":[20.03088,50.07382]},"properties":{"siedziba":"Szkoła Podstawowa Nr 91","ulica":"Handlowe","nrBud":"4","obwody":["387","388","389","390"]}},{"type":"Feature","geometry":{"type":"Point","coordinates":[20.0418,50.07261]},"properties":{"siedziba":"Ośrodek Kultury Kraków Nowa Huta Klub Jędruś","ulica":"Centrum A","nrBud":"6A","obwody":["391"]}},{"type":"Feature","geometry":{"type":"Point","coordinates":[20.04297,50.06977]},"properties":{"siedziba":"Szkoła Podstawowa Nr 80","ulica":"Na Skarpie","nrBud":"8","obwody":["392","393","394","395"]}},{"type":"Feature","geometry":{"type":"Point","coordinates":[20.04684,50.072]},"properties":{"siedziba":"XVI Liceum Ogólnokształcące","ulica":"Willowe","nrBud":"1","obwody":["396","397"]}},{"type":"Feature","geometry":{"type":"Point","coordinates":[20.05293,50.07327]},"properties":{"siedziba":"Szkoła Podstawowa Nr 37","ulica":"Stalowe","nrBud":"18","obwody":["398","399"]}},{"type":"Feature","geometry":{"type":"Point","coordinates":[20.05528,50.06877]},"properties":{"siedziba":"Zespół Szkół Specjalnych Nr 6","ulica":"Tadeusza Ptaszyckiego","nrBud":"9","obwody":["400"]}},{"type":"Feature","geometry":{"type":"Point","coordinates":[20.11043,50.06936]},"properties":{"siedziba":"Towarzystwo Przyjaciół Ziemi Pleszowskiej Świetlica Osiedlowa","ulica":"Nadbrzezie","nrBud":"18","obwody":["401"]}},{"type":"Feature","geometry":{"type":"Point","coordinates":[20.14236,50.05981]},"properties":{"siedziba":"Szkoła Podstawowa Nr 74","ulica":"Branicka","nrBud":"26","obwody":["402"]}},{"type":"Feature","geometry":{"type":"Point","coordinates":[20.15719,50.06978]},"properties":{"siedziba":"Zespół Szkolno-Przedszkolny Nr 9","ulica":"Romana Prawocheńskiego","nrBud":"7","obwody":["403"]}},{"type":"Feature","geometry":{"type":"Point","coordinates":[20.17854,50.09874]},"properties":{"siedziba":"Szkoła Podstawowa Nr 141","ulica":"Józefa Sawy-Calińskiego","nrBud":"12","obwody":["404"]}},{"type":"Feature","geometry":{"type":"Point","coordinates":[20.19478,50.0556]},"properties":{"siedziba":"Szkoła Podstawowa Nr 142","ulica":"Drożyska","nrBud":"13","obwody":["405"]}},{"type":"Feature","geometry":{"type":"Point","coordinates":[19.94515,50.04753]},"properties":{"siedziba":"Bonifraterskie Centrum Medyczne sp. z o.o. w Krakowie","ulica":"Trynitarska","nrBud":"11","obwody":["413"]}},{"type":"Feature","geometry":{"type":"Point","coordinates":[19.94368,50.04625]},"properties":{"siedziba":"Dom Pomocy Społecznej","ulica":"Krakowska","nrBud":"55","obwody":["414"]}},{"type":"Feature","geometry":{"type":"Point","coordinates":[19.92723,50.06144]},"properties":{"siedziba":"Narodowy Instytut Onkologii im. M. Skłodowskiej-Curie-Państwowy Instytut Badawczy Oddział w Krakowie","ulica":"Garncarska","nrBud":"11","obwody":["415"]}},{"type":"Feature","geometry":{"type":"Point","coordinates":[19.92681,50.06349]},"properties":{"siedziba":"Szpital Specjalistyczny im. J. Dietla w Krakowie","ulica":"Skarbowa","nrBud":"1","obwody":["416"]}},{"type":"Feature","geometry":{"type":"Point","coordinates":[19.9321259,50.0694206]},"properties":{"siedziba":"NZOZ Szpital na Siemiradzkiego im. R. Czerwiakowskiego sp. z o.o.","ulica":"Henryka Siemiradzkiego","nrBud":"1","obwody":["417"]}},{"type":"Feature","geometry":{"type":"Point","coordinates":[19.93756,50.07253]},"properties":{"siedziba":"Dom Pomocy Społecznej im. Ludwika i Anny Helclów w Krakowie","ulica":"Helclów","nrBud":"2","obwody":["418"]}},{"type":"Feature","geometry":{"type":"Point","coordinates":[19.93987,50.07388]},"properties":{"siedziba":"Areszt Śledczy w Krakowie","ulica":"Montelupich","nrBud":"7","obwody":["419"]}},{"type":"Feature","geometry":{"type":"Point","coordinates":[19.94942,50.06071]},"properties":{"siedziba":"Zakład Opiekuńczo-Leczniczy prowadzony przez Zgromadzenie Sióstr Felicjanek","ulica":"Hugona Kołłątaja","nrBud":"7","obwody":["420"]}},{"type":"Feature","geometry":{"type":"Point","coordinates":[19.95479,50.06351]},"properties":{"siedziba":"SP ZOZ Szpital Uniwersytecki w Krakowie","ulica":"Mikołaja Kopernika","nrBud":"23","obwody":["421"]}},{"type":"Feature","geometry":{"type":"Point","coordinates":[19.98041,50.09564]},"properties":{"siedziba":"Dom Pomocy Społecznej","ulica":"Rozrywka","nrBud":"1","obwody":["422"]}},{"type":"Feature","geometry":{"type":"Point","coordinates":[19.9388,50.09019]},"properties":{"siedziba":"Krakowski Szpital Specjalistyczny im. św. Jana Pawła II","ulica":"Prądnicka","nrBud":"80","obwody":["423"]}},{"type":"Feature","geometry":{"type":"Point","coordinates":[19.93804,50.08301]},"properties":{"siedziba":"Szpital Miejski Specjalistyczny im. Gabriela Narutowicza w Krakowie","ulica":"Prądnicka","nrBud":"35-37","obwody":["424"]}},{"type":"Feature","geometry":{"type":"Point","coordinates":[19.93508,50.09284]},"properties":{"siedziba":"Dom Pomocy Społecznej","ulica":"Piotra Kluzeka","nrBud":"6","obwody":["425"]}},{"type":"Feature","geometry":{"type":"Point","coordinates":[19.93435,50.0752]},"properties":{"siedziba":"5 Wojskowy Szpital Kliniczny z Polikliniką SP ZOZ w Krakowie","ulica":"Wrocławska","nrBud":"1-3","obwody":["426"]}},{"type":"Feature","geometry":{"type":"Point","coordinates":[19.91315,50.07191]},"properties":{"siedziba":"SP ZOZ Ministerstwa Spraw Wewnętrznych i Administracji w Krakowie","ulica":"Kronikarza Galla","nrBud":"25","obwody":["427"]}},{"type":"Feature","geometry":{"type":"Point","coordinates":[19.9137,50.05753]},"properties":{"siedziba":"Szpital Specjalistyczny im. J. Dietla w Krakowie Małopolskie Centrum Reumatologii, Immunologii i Rehabilitacji","ulica":"Marszałka Ferdinanda Focha","nrBud":"33","obwody":["428"]}},{"type":"Feature","geometry":{"type":"Point","coordinates":[19.86598,50.0637]},"properties":{"siedziba":"Małopolski Szpital Ortopedyczno-Rehabilitacyjny im. prof. Bogusława Frańczuka","ulica":"Modrzewiowa","nrBud":"22","obwody":["429"]}},{"type":"Feature","geometry":{"type":"Point","coordinates":[19.91248,50.04757]},"properties":{"siedziba":"Dom Pomocy Społecznej im. św. Jana Pawła II w Krakowie","ulica":"Praska","nrBud":"25","obwody":["430"]}},{"type":"Feature","geometry":{"type":"Point","coordinates":[19.91176,50.04729]},"properties":{"siedziba":"Dom Pomocy Społecznej","ulica":"Praska","nrBud":"27","obwody":["431"]}},{"type":"Feature","geometry":{"type":"Point","coordinates":[19.92043,50.04563]},"properties":{"siedziba":"Dom Pomocy Społecznej im. św. Brata Alberta","ulica":"Adolfa Nowaczyńskiego","nrBud":"1","obwody":["432"]}},{"type":"Feature","geometry":{"type":"Point","coordinates":[19.84153,50.01004]},"properties":{"siedziba":"Dom Pomocy Społecznej Zgromadzenia Sióstr Służebniczek NMP NP","ulica":"Podgórki Tynieckie","nrBud":"96","obwody":["433"]}},{"type":"Feature","geometry":{"type":"Point","coordinates":[19.88186,50.00656]},"properties":{"siedziba":"Dom Pomocy Społecznej","ulica":"dr. Józefa Babińskiego","nrBud":"25","obwody":["434"]}},{"type":"Feature","geometry":{"type":"Point","coordinates":[19.8883,50.0065]},"properties":{"siedziba":"Szpital Kliniczny im. dr. Józefa Babińskiego SP ZOZ w Krakowie","ulica":"dr. Józefa Babińskiego","nrBud":"29","obwody":["435"]}},{"type":"Feature","geometry":{"type":"Point","coordinates":[19.9181537,49.998882]},"properties":{"siedziba":"Dom Seniora Kontrast","ulica":"Forteczna","nrBud":"22","obwody":["436"]}},{"type":"Feature","geometry":{"type":"Point","coordinates":[19.97544,50.01091]},"properties":{"siedziba":"SCANMED S. A. Szpital św. Rafała","ulica":"Adama Bochenka","nrBud":"12","obwody":["437"]}},{"type":"Feature","geometry":{"type":"Point","coordinates":[20.00644,50.00969]},"properties":{"siedziba":"Miejskie Centrum Opieki dla Osób Starszych Przewlekle Niepełnosprawnych oraz Niesamodzielnych w Krakowie","ulica":"Wielicka","nrBud":"267","obwody":["438"]}},{"type":"Feature","geometry":{"type":"Point","coordinates":[20.00076,50.00935]},"properties":{"siedziba":"SP ZOZ Szpital Uniwersytecki w Krakowie","ulica":"Macieja Jakubowskiego","nrBud":"2","obwody":["439","440","441"]}},{"type":"Feature","geometry":{"type":"Point","coordinates":[19.98639,50.03515]},"properties":{"siedziba":"Dom Pomocy Społecznej Zakonu Przenajświętszej Trójcy","ulica":"Łanowa","nrBud":"1B","obwody":["442"]}},{"type":"Feature","geometry":{"type":"Point","coordinates":[19.99231,50.03889]},"properties":{"siedziba":"Dom Pomocy Społecznej","ulica":"Łanowa","nrBud":"39","obwody":["443"]}},{"type":"Feature","geometry":{"type":"Point","coordinates":[19.99316,50.03891]},"properties":{"siedziba":"Dom Pomocy Społecznej","ulica":"Łanowa","nrBud":"41","obwody":["444"]}},{"type":"Feature","geometry":{"type":"Point","coordinates":[20.01927,50.09206]},"properties":{"siedziba":"Szpital Specjalistyczny im. Ludwika Rydygiera w Krakowie Sp. z o.o.","ulica":"Złotej Jesieni","nrBud":"1","obwody":["445","446"]}},{"type":"Feature","geometry":{"type":"Point","coordinates":[20.02535,50.0912]},"properties":{"siedziba":"Serdeczna Troska sp. z o.o. Zakład Opiekuńczo-Leczniczy w Krakowie","ulica":"Złotej Jesieni","nrBud":"5","obwody":["447"]}},{"type":"Feature","geometry":{"type":"Point","coordinates":[20.1345,50.09177]},"properties":{"siedziba":"Areszt Śledczy w Krakowie, Oddział Zewnętrzny w Krakowie-Nowej Hucie","ulica":"Spławy","nrBud":"2","obwody":["448"]}},{"type":"Feature","geometry":{"type":"Point","coordinates":[20.04556,50.08104]},"properties":{"siedziba":"Dom Pomocy Społecznej","ulica":"Sportowe","nrBud":"9","obwody":["449"]}},{"type":"Feature","geometry":{"type":"Point","coordinates":[20.04865,50.07708]},"properties":{"siedziba":"Dom Pomocy Społecznej","ulica":"Szkolne","nrBud":"28","obwody":["450"]}},{"type":"Feature","geometry":{"type":"Point","coordinates":[20.04616,50.06578]},"properties":{"siedziba":"Szpital Specjalistyczny im. Stefana Żeromskiego SP ZOZ w Krakowie","ulica":"Na Skarpie","nrBud":"66","obwody":["451"]}},{"type":"Feature","geometry":{"type":"Point","coordinates":[20.1517,50.07378]},"properties":{"siedziba":"Serdeczna Troska Sp. z o.o. Zakład Opiekuńczo-Leczniczy w Krakowie","ulica":"Rzepakowa","nrBud":"5A","obwody":["452"]}},{"type":"Feature","geometry":{"type":"Point","coordinates":[20.06839,50.08114]},"properties":{"siedziba":"Centrum Medyczne Ujastek sp. z o.o.","ulica":"Ujastek","nrBud":"3","obwody":["453"]}},{"type":"Feature","geometry":{"type":"Point","coordinates":[19.94032,50.08425]},"properties":{"siedziba":"Zakład Opiekuńczo-Leczniczy BONA-MED sp. z o.o.","ulica":"ks. Kazimierza Siemaszki","nrBud":"17CE","obwody":["454"]}}]}
